<?xml version="1.0" encoding="UTF-8"?><gpx version="1.1" creator="Loppanalys organizer-map reconstruction"><trk><name>ÖST Verkeån Trail 21/22 organizer 2019 map reference</name><trkseg><trkpt lat="55.7171581" lon="13.9605494"></trkpt><trkpt lat="55.7169093" lon="13.9605494"></trkpt><trkpt lat="55.7168470" lon="13.9604388"></trkpt><trkpt lat="55.7170337" lon="13.9592215"></trkpt><trkpt lat="55.7170337" lon="13.9586682"></trkpt><trkpt lat="55.7167848" lon="13.9580042"></trkpt><trkpt lat="55.7166604" lon="13.9578935"></trkpt><trkpt lat="55.7165982" lon="13.9574509"></trkpt><trkpt lat="55.7162871" lon="13.9567869"></trkpt><trkpt lat="55.7159760" lon="13.9563442"></trkpt><trkpt lat="55.7158515" lon="13.9559016"></trkpt><trkpt lat="55.7158515" lon="13.9553483"></trkpt><trkpt lat="55.7160382" lon="13.9544630"></trkpt><trkpt lat="55.7161004" lon="13.9534670"></trkpt><trkpt lat="55.7160382" lon="13.9529137"></trkpt><trkpt lat="55.7154782" lon="13.9521391"></trkpt><trkpt lat="55.7149804" lon="13.9519177"></trkpt><trkpt lat="55.7144204" lon="13.9513644"></trkpt><trkpt lat="55.7141715" lon="13.9509218"></trkpt><trkpt lat="55.7134871" lon="13.9492618"></trkpt><trkpt lat="55.7130515" lon="13.9485979"></trkpt><trkpt lat="55.7128026" lon="13.9484872"></trkpt><trkpt lat="55.7123048" lon="13.9479339"></trkpt><trkpt lat="55.7121803" lon="13.9477126"></trkpt><trkpt lat="55.7121181" lon="13.9472699"></trkpt><trkpt lat="55.7133004" lon="13.9466059"></trkpt><trkpt lat="55.7136737" lon="13.9468273"></trkpt><trkpt lat="55.7139226" lon="13.9468273"></trkpt><trkpt lat="55.7146071" lon="13.9464953"></trkpt><trkpt lat="55.7156649" lon="13.9461633"></trkpt><trkpt lat="55.7165359" lon="13.9453886"></trkpt><trkpt lat="55.7174070" lon="13.9453886"></trkpt><trkpt lat="55.7176559" lon="13.9452780"></trkpt><trkpt lat="55.7179670" lon="13.9453886"></trkpt><trkpt lat="55.7188380" lon="13.9464953"></trkpt><trkpt lat="55.7188380" lon="13.9466059"></trkpt><trkpt lat="55.7189002" lon="13.9462739"></trkpt><trkpt lat="55.7195224" lon="13.9458313"></trkpt><trkpt lat="55.7198334" lon="13.9461633"></trkpt><trkpt lat="55.7203311" lon="13.9458313"></trkpt><trkpt lat="55.7210155" lon="13.9458313"></trkpt><trkpt lat="55.7218864" lon="13.9452780"></trkpt><trkpt lat="55.7222597" lon="13.9453886"></trkpt><trkpt lat="55.7224463" lon="13.9459420"></trkpt><trkpt lat="55.7224463" lon="13.9463846"></trkpt><trkpt lat="55.7216998" lon="13.9473806"></trkpt><trkpt lat="55.7214510" lon="13.9482659"></trkpt><trkpt lat="55.7213265" lon="13.9492618"></trkpt><trkpt lat="55.7213265" lon="13.9498151"></trkpt><trkpt lat="55.7207666" lon="13.9513644"></trkpt><trkpt lat="55.7202067" lon="13.9523604"></trkpt><trkpt lat="55.7193979" lon="13.9550163"></trkpt><trkpt lat="55.7192735" lon="13.9552376"></trkpt><trkpt lat="55.7191491" lon="13.9557909"></trkpt><trkpt lat="55.7190246" lon="13.9560123"></trkpt><trkpt lat="55.7188380" lon="13.9568976"></trkpt><trkpt lat="55.7184647" lon="13.9578935"></trkpt><trkpt lat="55.7184647" lon="13.9581149"></trkpt><trkpt lat="55.7183403" lon="13.9582255"></trkpt><trkpt lat="55.7182780" lon="13.9584468"></trkpt><trkpt lat="55.7184025" lon="13.9586682"></trkpt><trkpt lat="55.7185891" lon="13.9587788"></trkpt><trkpt lat="55.7185891" lon="13.9592215"></trkpt><trkpt lat="55.7183403" lon="13.9606601"></trkpt><trkpt lat="55.7185891" lon="13.9614347"></trkpt><trkpt lat="55.7185269" lon="13.9622094"></trkpt><trkpt lat="55.7180914" lon="13.9628733"></trkpt><trkpt lat="55.7179670" lon="13.9633160"></trkpt><trkpt lat="55.7177803" lon="13.9634267"></trkpt><trkpt lat="55.7176559" lon="13.9633160"></trkpt><trkpt lat="55.7174070" lon="13.9634267"></trkpt><trkpt lat="55.7169715" lon="13.9628733"></trkpt><trkpt lat="55.7169093" lon="13.9629840"></trkpt><trkpt lat="55.7169093" lon="13.9635373"></trkpt><trkpt lat="55.7172826" lon="13.9643120"></trkpt><trkpt lat="55.7173448" lon="13.9647546"></trkpt><trkpt lat="55.7172204" lon="13.9651973"></trkpt><trkpt lat="55.7173448" lon="13.9653079"></trkpt><trkpt lat="55.7169093" lon="13.9667465"></trkpt><trkpt lat="55.7169715" lon="13.9669679"></trkpt><trkpt lat="55.7167226" lon="13.9675212"></trkpt><trkpt lat="55.7165359" lon="13.9681852"></trkpt><trkpt lat="55.7165359" lon="13.9684065"></trkpt><trkpt lat="55.7160382" lon="13.9699558"></trkpt><trkpt lat="55.7161626" lon="13.9702878"></trkpt><trkpt lat="55.7162871" lon="13.9702878"></trkpt><trkpt lat="55.7171581" lon="13.9710624"></trkpt><trkpt lat="55.7175314" lon="13.9723903"></trkpt><trkpt lat="55.7172204" lon="13.9731650"></trkpt><trkpt lat="55.7168470" lon="13.9749356"></trkpt><trkpt lat="55.7167226" lon="13.9764849"></trkpt><trkpt lat="55.7165982" lon="13.9767062"></trkpt><trkpt lat="55.7165359" lon="13.9770382"></trkpt><trkpt lat="55.7162248" lon="13.9773702"></trkpt><trkpt lat="55.7161626" lon="13.9775915"></trkpt><trkpt lat="55.7164737" lon="13.9778128"></trkpt><trkpt lat="55.7162248" lon="13.9791408"></trkpt><trkpt lat="55.7160382" lon="13.9793621"></trkpt><trkpt lat="55.7156649" lon="13.9793621"></trkpt><trkpt lat="55.7151049" lon="13.9801367"></trkpt><trkpt lat="55.7149804" lon="13.9805794"></trkpt><trkpt lat="55.7144827" lon="13.9816860"></trkpt><trkpt lat="55.7140471" lon="13.9834566"></trkpt><trkpt lat="55.7141093" lon="13.9835673"></trkpt><trkpt lat="55.7141093" lon="13.9842313"></trkpt><trkpt lat="55.7140471" lon="13.9845632"></trkpt><trkpt lat="55.7141093" lon="13.9847846"></trkpt><trkpt lat="55.7142960" lon="13.9850059"></trkpt><trkpt lat="55.7145449" lon="13.9857805"></trkpt><trkpt lat="55.7141715" lon="13.9866658"></trkpt><trkpt lat="55.7140471" lon="13.9872191"></trkpt><trkpt lat="55.7138604" lon="13.9876618"></trkpt><trkpt lat="55.7137360" lon="13.9877725"></trkpt><trkpt lat="55.7134871" lon="13.9885471"></trkpt><trkpt lat="55.7135493" lon="13.9889897"></trkpt><trkpt lat="55.7134871" lon="13.9891004"></trkpt><trkpt lat="55.7128026" lon="13.9894324"></trkpt><trkpt lat="55.7126782" lon="13.9893217"></trkpt><trkpt lat="55.7124915" lon="13.9894324"></trkpt><trkpt lat="55.7121181" lon="13.9891004"></trkpt><trkpt lat="55.7116825" lon="13.9902070"></trkpt><trkpt lat="55.7118070" lon="13.9905390"></trkpt><trkpt lat="55.7118070" lon="13.9912030"></trkpt><trkpt lat="55.7118692" lon="13.9914243"></trkpt><trkpt lat="55.7118692" lon="13.9929736"></trkpt><trkpt lat="55.7115581" lon="13.9944122"></trkpt><trkpt lat="55.7109980" lon="13.9950762"></trkpt><trkpt lat="55.7106247" lon="13.9950762"></trkpt><trkpt lat="55.7105002" lon="13.9949655"></trkpt><trkpt lat="55.7103757" lon="13.9950762"></trkpt><trkpt lat="55.7098779" lon="13.9950762"></trkpt><trkpt lat="55.7095045" lon="13.9956295"></trkpt><trkpt lat="55.7091934" lon="13.9958508"></trkpt><trkpt lat="55.7090067" lon="13.9961828"></trkpt><trkpt lat="55.7089444" lon="13.9965148"></trkpt><trkpt lat="55.7090067" lon="13.9980641"></trkpt><trkpt lat="55.7091934" lon="13.9982854"></trkpt><trkpt lat="55.7090689" lon="13.9987281"></trkpt><trkpt lat="55.7085088" lon="13.9991707"></trkpt><trkpt lat="55.7081977" lon="13.9990601"></trkpt><trkpt lat="55.7078243" lon="13.9999454"></trkpt><trkpt lat="55.7078243" lon="14.0006093"></trkpt><trkpt lat="55.7080732" lon="14.0012733"></trkpt><trkpt lat="55.7081354" lon="14.0018266"></trkpt><trkpt lat="55.7082599" lon="14.0020480"></trkpt><trkpt lat="55.7084466" lon="14.0021586"></trkpt><trkpt lat="55.7085088" lon="14.0023799"></trkpt><trkpt lat="55.7085711" lon="14.0023799"></trkpt><trkpt lat="55.7089444" lon="14.0031546"></trkpt><trkpt lat="55.7096912" lon="14.0043719"></trkpt><trkpt lat="55.7097534" lon="14.0045932"></trkpt><trkpt lat="55.7096912" lon="14.0048145"></trkpt><trkpt lat="55.7097534" lon="14.0053678"></trkpt><trkpt lat="55.7097534" lon="14.0065851"></trkpt><trkpt lat="55.7098157" lon="14.0068064"></trkpt><trkpt lat="55.7098779" lon="14.0068064"></trkpt><trkpt lat="55.7100024" lon="14.0064745"></trkpt><trkpt lat="55.7101268" lon="14.0065851"></trkpt><trkpt lat="55.7102513" lon="14.0074704"></trkpt><trkpt lat="55.7101268" lon="14.0083557"></trkpt><trkpt lat="55.7100024" lon="14.0084664"></trkpt><trkpt lat="55.7098157" lon="14.0091304"></trkpt><trkpt lat="55.7098157" lon="14.0093517"></trkpt><trkpt lat="55.7100646" lon="14.0090197"></trkpt><trkpt lat="55.7103757" lon="14.0089090"></trkpt><trkpt lat="55.7109358" lon="14.0092410"></trkpt><trkpt lat="55.7111225" lon="14.0094624"></trkpt><trkpt lat="55.7108736" lon="14.0100157"></trkpt><trkpt lat="55.7103135" lon="14.0102370"></trkpt><trkpt lat="55.7101268" lon="14.0114543"></trkpt><trkpt lat="55.7102513" lon="14.0116756"></trkpt><trkpt lat="55.7101891" lon="14.0116756"></trkpt><trkpt lat="55.7101268" lon="14.0118969"></trkpt><trkpt lat="55.7101268" lon="14.0123396"></trkpt><trkpt lat="55.7098157" lon="14.0132249"></trkpt><trkpt lat="55.7095045" lon="14.0137782"></trkpt><trkpt lat="55.7093178" lon="14.0157701"></trkpt><trkpt lat="55.7092556" lon="14.0159915"></trkpt><trkpt lat="55.7091311" lon="14.0161021"></trkpt><trkpt lat="55.7090067" lon="14.0168768"></trkpt><trkpt lat="55.7085711" lon="14.0177621"></trkpt><trkpt lat="55.7086333" lon="14.0186474"></trkpt><trkpt lat="55.7084466" lon="14.0185367"></trkpt><trkpt lat="55.7083221" lon="14.0180940"></trkpt><trkpt lat="55.7083221" lon="14.0175407"></trkpt><trkpt lat="55.7083844" lon="14.0174301"></trkpt><trkpt lat="55.7083844" lon="14.0172087"></trkpt><trkpt lat="55.7083221" lon="14.0172087"></trkpt><trkpt lat="55.7083844" lon="14.0169874"></trkpt><trkpt lat="55.7084466" lon="14.0170981"></trkpt><trkpt lat="55.7083844" lon="14.0169874"></trkpt><trkpt lat="55.7080110" lon="14.0174301"></trkpt><trkpt lat="55.7078865" lon="14.0177621"></trkpt><trkpt lat="55.7078865" lon="14.0180940"></trkpt><trkpt lat="55.7077620" lon="14.0185367"></trkpt><trkpt lat="55.7075131" lon="14.0190900"></trkpt><trkpt lat="55.7073886" lon="14.0192007"></trkpt><trkpt lat="55.7072642" lon="14.0196433"></trkpt><trkpt lat="55.7072642" lon="14.0208606"></trkpt><trkpt lat="55.7073886" lon="14.0210819"></trkpt><trkpt lat="55.7073886" lon="14.0214139"></trkpt><trkpt lat="55.7076998" lon="14.0217459"></trkpt><trkpt lat="55.7078243" lon="14.0224099"></trkpt><trkpt lat="55.7078243" lon="14.0227419"></trkpt><trkpt lat="55.7078865" lon="14.0227419"></trkpt><trkpt lat="55.7079487" lon="14.0230739"></trkpt><trkpt lat="55.7084466" lon="14.0232952"></trkpt><trkpt lat="55.7085088" lon="14.0234059"></trkpt><trkpt lat="55.7085088" lon="14.0237378"></trkpt><trkpt lat="55.7086955" lon="14.0241805"></trkpt><trkpt lat="55.7090689" lon="14.0242912"></trkpt><trkpt lat="55.7093178" lon="14.0245125"></trkpt><trkpt lat="55.7098779" lon="14.0246231"></trkpt><trkpt lat="55.7103135" lon="14.0251765"></trkpt><trkpt lat="55.7104380" lon="14.0255084"></trkpt><trkpt lat="55.7105624" lon="14.0256191"></trkpt><trkpt lat="55.7108736" lon="14.0262831"></trkpt><trkpt lat="55.7109358" lon="14.0262831"></trkpt><trkpt lat="55.7110603" lon="14.0267257"></trkpt><trkpt lat="55.7113092" lon="14.0271684"></trkpt><trkpt lat="55.7113714" lon="14.0280537"></trkpt><trkpt lat="55.7110603" lon="14.0301563"></trkpt><trkpt lat="55.7109358" lon="14.0303776"></trkpt><trkpt lat="55.7109358" lon="14.0311522"></trkpt><trkpt lat="55.7108736" lon="14.0313736"></trkpt><trkpt lat="55.7108736" lon="14.0321482"></trkpt><trkpt lat="55.7111225" lon="14.0348041"></trkpt><trkpt lat="55.7113092" lon="14.0351361"></trkpt><trkpt lat="55.7119937" lon="14.0371280"></trkpt><trkpt lat="55.7121803" lon="14.0374600"></trkpt><trkpt lat="55.7125537" lon="14.0379027"></trkpt><trkpt lat="55.7129271" lon="14.0381240"></trkpt><trkpt lat="55.7133004" lon="14.0388986"></trkpt><trkpt lat="55.7133004" lon="14.0391200"></trkpt><trkpt lat="55.7136737" lon="14.0405586"></trkpt><trkpt lat="55.7139849" lon="14.0412226"></trkpt><trkpt lat="55.7142338" lon="14.0424398"></trkpt><trkpt lat="55.7142338" lon="14.0444318"></trkpt><trkpt lat="55.7142960" lon="14.0448744"></trkpt><trkpt lat="55.7144827" lon="14.0454277"></trkpt><trkpt lat="55.7146071" lon="14.0455384"></trkpt><trkpt lat="55.7146693" lon="14.0458704"></trkpt><trkpt lat="55.7148560" lon="14.0460917"></trkpt><trkpt lat="55.7149804" lon="14.0465344"></trkpt><trkpt lat="55.7149804" lon="14.0468664"></trkpt><trkpt lat="55.7151671" lon="14.0474197"></trkpt><trkpt lat="55.7152293" lon="14.0485263"></trkpt><trkpt lat="55.7152915" lon="14.0488583"></trkpt><trkpt lat="55.7154782" lon="14.0490796"></trkpt><trkpt lat="55.7155404" lon="14.0493009"></trkpt><trkpt lat="55.7155404" lon="14.0498542"></trkpt><trkpt lat="55.7156649" lon="14.0501862"></trkpt><trkpt lat="55.7157893" lon="14.0519568"></trkpt><trkpt lat="55.7156026" lon="14.0526208"></trkpt><trkpt lat="55.7156649" lon="14.0529528"></trkpt><trkpt lat="55.7156026" lon="14.0535061"></trkpt><trkpt lat="55.7156649" lon="14.0537274"></trkpt><trkpt lat="55.7156649" lon="14.0546127"></trkpt><trkpt lat="55.7157893" lon="14.0549447"></trkpt><trkpt lat="55.7157893" lon="14.0560514"></trkpt><trkpt lat="55.7158515" lon="14.0561620"></trkpt><trkpt lat="55.7159760" lon="14.0573793"></trkpt><trkpt lat="55.7161004" lon="14.0576006"></trkpt><trkpt lat="55.7166604" lon="14.0576006"></trkpt><trkpt lat="55.7170337" lon="14.0579326"></trkpt><trkpt lat="55.7177181" lon="14.0578220"></trkpt><trkpt lat="55.7180292" lon="14.0579326"></trkpt><trkpt lat="55.7182780" lon="14.0592606"></trkpt><trkpt lat="55.7184647" lon="14.0595926"></trkpt><trkpt lat="55.7185891" lon="14.0595926"></trkpt><trkpt lat="55.7187758" lon="14.0599246"></trkpt><trkpt lat="55.7193979" lon="14.0604779"></trkpt><trkpt lat="55.7197712" lon="14.0613632"></trkpt><trkpt lat="55.7200201" lon="14.0624698"></trkpt><trkpt lat="55.7200823" lon="14.0643511"></trkpt><trkpt lat="55.7203934" lon="14.0657897"></trkpt><trkpt lat="55.7208911" lon="14.0672283"></trkpt><trkpt lat="55.7211399" lon="14.0672283"></trkpt><trkpt lat="55.7215754" lon="14.0668963"></trkpt><trkpt lat="55.7215754" lon="14.0663430"></trkpt><trkpt lat="55.7216998" lon="14.0659003"></trkpt><trkpt lat="55.7218242" lon="14.0657897"></trkpt><trkpt lat="55.7220731" lon="14.0652364"></trkpt><trkpt lat="55.7222597" lon="14.0644617"></trkpt><trkpt lat="55.7224463" lon="14.0642404"></trkpt><trkpt lat="55.7226330" lon="14.0637977"></trkpt><trkpt lat="55.7231929" lon="14.0633551"></trkpt><trkpt lat="55.7230684" lon="14.0629124"></trkpt><trkpt lat="55.7227574" lon="14.0622485"></trkpt><trkpt lat="55.7228818" lon="14.0614738"></trkpt><trkpt lat="55.7228196" lon="14.0605885"></trkpt><trkpt lat="55.7226952" lon="14.0603672"></trkpt><trkpt lat="55.7228196" lon="14.0595926"></trkpt><trkpt lat="55.7225085" lon="14.0593712"></trkpt><trkpt lat="55.7220109" lon="14.0583753"></trkpt><trkpt lat="55.7220109" lon="14.0580433"></trkpt><trkpt lat="55.7218242" lon="14.0574900"></trkpt><trkpt lat="55.7218242" lon="14.0572686"></trkpt><trkpt lat="55.7217620" lon="14.0572686"></trkpt><trkpt lat="55.7215132" lon="14.0563833"></trkpt><trkpt lat="55.7212021" lon="14.0557194"></trkpt><trkpt lat="55.7210777" lon="14.0551661"></trkpt><trkpt lat="55.7209533" lon="14.0550554"></trkpt><trkpt lat="55.7208911" lon="14.0545021"></trkpt><trkpt lat="55.7207044" lon="14.0540594"></trkpt><trkpt lat="55.7206422" lon="14.0536168"></trkpt><trkpt lat="55.7205178" lon="14.0532848"></trkpt><trkpt lat="55.7203934" lon="14.0523995"></trkpt><trkpt lat="55.7203934" lon="14.0518462"></trkpt><trkpt lat="55.7202067" lon="14.0517355"></trkpt><trkpt lat="55.7205178" lon="14.0501862"></trkpt><trkpt lat="55.7203311" lon="14.0501862"></trkpt><trkpt lat="55.7204556" lon="14.0498542"></trkpt><trkpt lat="55.7203934" lon="14.0495223"></trkpt><trkpt lat="55.7203934" lon="14.0476410"></trkpt><trkpt lat="55.7200201" lon="14.0469770"></trkpt><trkpt lat="55.7197090" lon="14.0469770"></trkpt><trkpt lat="55.7193357" lon="14.0467557"></trkpt><trkpt lat="55.7192113" lon="14.0464237"></trkpt><trkpt lat="55.7189002" lon="14.0459810"></trkpt><trkpt lat="55.7187136" lon="14.0460917"></trkpt><trkpt lat="55.7184025" lon="14.0460917"></trkpt><trkpt lat="55.7179047" lon="14.0455384"></trkpt><trkpt lat="55.7176559" lon="14.0449851"></trkpt><trkpt lat="55.7169715" lon="14.0449851"></trkpt><trkpt lat="55.7167848" lon="14.0448744"></trkpt><trkpt lat="55.7164115" lon="14.0449851"></trkpt><trkpt lat="55.7159760" lon="14.0447638"></trkpt><trkpt lat="55.7158515" lon="14.0444318"></trkpt><trkpt lat="55.7159137" lon="14.0433251"></trkpt><trkpt lat="55.7157271" lon="14.0429932"></trkpt><trkpt lat="55.7152293" lon="14.0431038"></trkpt><trkpt lat="55.7149804" lon="14.0438785"></trkpt><trkpt lat="55.7147938" lon="14.0437678"></trkpt><trkpt lat="55.7146071" lon="14.0434358"></trkpt><trkpt lat="55.7146693" lon="14.0421079"></trkpt><trkpt lat="55.7144204" lon="14.0416652"></trkpt><trkpt lat="55.7141715" lon="14.0408906"></trkpt><trkpt lat="55.7138604" lon="14.0402266"></trkpt><trkpt lat="55.7136115" lon="14.0391200"></trkpt><trkpt lat="55.7135493" lon="14.0384560"></trkpt><trkpt lat="55.7126159" lon="14.0359107"></trkpt><trkpt lat="55.7125537" lon="14.0349148"></trkpt><trkpt lat="55.7122426" lon="14.0339188"></trkpt><trkpt lat="55.7122426" lon="14.0329228"></trkpt><trkpt lat="55.7121181" lon="14.0322589"></trkpt><trkpt lat="55.7118070" lon="14.0315949"></trkpt><trkpt lat="55.7116203" lon="14.0314842"></trkpt><trkpt lat="55.7113714" lon="14.0299350"></trkpt><trkpt lat="55.7111225" lon="14.0300456"></trkpt><trkpt lat="55.7112469" lon="14.0299350"></trkpt><trkpt lat="55.7117448" lon="14.0278324"></trkpt><trkpt lat="55.7117448" lon="14.0271684"></trkpt><trkpt lat="55.7113714" lon="14.0260618"></trkpt><trkpt lat="55.7113092" lon="14.0249551"></trkpt><trkpt lat="55.7110603" lon="14.0242912"></trkpt><trkpt lat="55.7109980" lon="14.0238485"></trkpt><trkpt lat="55.7103135" lon="14.0227419"></trkpt><trkpt lat="55.7097534" lon="14.0219672"></trkpt><trkpt lat="55.7095668" lon="14.0218566"></trkpt><trkpt lat="55.7092556" lon="14.0213033"></trkpt><trkpt lat="55.7090689" lon="14.0203073"></trkpt><trkpt lat="55.7088200" lon="14.0196433"></trkpt><trkpt lat="55.7083844" lon="14.0188687"></trkpt><trkpt lat="55.7082599" lon="14.0183154"></trkpt><trkpt lat="55.7083221" lon="14.0170981"></trkpt><trkpt lat="55.7085088" lon="14.0175407"></trkpt><trkpt lat="55.7087577" lon="14.0165448"></trkpt><trkpt lat="55.7089444" lon="14.0161021"></trkpt><trkpt lat="55.7088200" lon="14.0152168"></trkpt><trkpt lat="55.7088200" lon="14.0142208"></trkpt><trkpt lat="55.7089444" lon="14.0134462"></trkpt><trkpt lat="55.7087577" lon="14.0125609"></trkpt><trkpt lat="55.7087577" lon="14.0116756"></trkpt><trkpt lat="55.7086955" lon="14.0113436"></trkpt><trkpt lat="55.7085711" lon="14.0111223"></trkpt><trkpt lat="55.7081354" lon="14.0107903"></trkpt><trkpt lat="55.7082599" lon="14.0089090"></trkpt><trkpt lat="55.7084466" lon="14.0082451"></trkpt><trkpt lat="55.7085088" lon="14.0076917"></trkpt><trkpt lat="55.7083844" lon="14.0058105"></trkpt><trkpt lat="55.7076998" lon="14.0028226"></trkpt><trkpt lat="55.7072642" lon="14.0016053"></trkpt><trkpt lat="55.7071397" lon="14.0008307"></trkpt><trkpt lat="55.7072642" lon="13.9997240"></trkpt><trkpt lat="55.7072642" lon="13.9981748"></trkpt><trkpt lat="55.7073886" lon="13.9975108"></trkpt><trkpt lat="55.7073264" lon="13.9969575"></trkpt><trkpt lat="55.7075131" lon="13.9959615"></trkpt><trkpt lat="55.7076998" lon="13.9954082"></trkpt><trkpt lat="55.7077620" lon="13.9948549"></trkpt><trkpt lat="55.7082599" lon="13.9934163"></trkpt><trkpt lat="55.7082599" lon="13.9929736"></trkpt><trkpt lat="55.7083844" lon="13.9925310"></trkpt><trkpt lat="55.7083844" lon="13.9915350"></trkpt><trkpt lat="55.7085088" lon="13.9908710"></trkpt><trkpt lat="55.7085711" lon="13.9907604"></trkpt><trkpt lat="55.7091934" lon="13.9908710"></trkpt><trkpt lat="55.7093801" lon="13.9904284"></trkpt><trkpt lat="55.7096290" lon="13.9900964"></trkpt><trkpt lat="55.7096912" lon="13.9897644"></trkpt><trkpt lat="55.7101891" lon="13.9886578"></trkpt><trkpt lat="55.7104380" lon="13.9878831"></trkpt><trkpt lat="55.7107491" lon="13.9874405"></trkpt><trkpt lat="55.7127404" lon="13.9873298"></trkpt><trkpt lat="55.7133004" lon="13.9871085"></trkpt><trkpt lat="55.7133004" lon="13.9869978"></trkpt><trkpt lat="55.7134249" lon="13.9868872"></trkpt><trkpt lat="55.7137982" lon="13.9861125"></trkpt><trkpt lat="55.7137360" lon="13.9858912"></trkpt><trkpt lat="55.7138604" lon="13.9851166"></trkpt><trkpt lat="55.7138604" lon="13.9846739"></trkpt><trkpt lat="55.7140471" lon="13.9841206"></trkpt><trkpt lat="55.7139226" lon="13.9833460"></trkpt><trkpt lat="55.7139849" lon="13.9820180"></trkpt><trkpt lat="55.7144827" lon="13.9799154"></trkpt><trkpt lat="55.7149804" lon="13.9793621"></trkpt><trkpt lat="55.7152293" lon="13.9788088"></trkpt><trkpt lat="55.7154160" lon="13.9781448"></trkpt><trkpt lat="55.7164115" lon="13.9771488"></trkpt><trkpt lat="55.7165359" lon="13.9767062"></trkpt><trkpt lat="55.7165982" lon="13.9755996"></trkpt><trkpt lat="55.7169093" lon="13.9738290"></trkpt><trkpt lat="55.7170337" lon="13.9736076"></trkpt><trkpt lat="55.7172204" lon="13.9728330"></trkpt><trkpt lat="55.7174070" lon="13.9725010"></trkpt><trkpt lat="55.7174070" lon="13.9722797"></trkpt><trkpt lat="55.7172204" lon="13.9712837"></trkpt><trkpt lat="55.7169093" lon="13.9709517"></trkpt><trkpt lat="55.7167848" lon="13.9709517"></trkpt><trkpt lat="55.7166604" lon="13.9707304"></trkpt><trkpt lat="55.7159760" lon="13.9703984"></trkpt><trkpt lat="55.7159137" lon="13.9700664"></trkpt><trkpt lat="55.7160382" lon="13.9699558"></trkpt><trkpt lat="55.7165982" lon="13.9676318"></trkpt><trkpt lat="55.7168470" lon="13.9671892"></trkpt><trkpt lat="55.7169715" lon="13.9654186"></trkpt><trkpt lat="55.7172826" lon="13.9650866"></trkpt><trkpt lat="55.7172826" lon="13.9646440"></trkpt><trkpt lat="55.7172204" lon="13.9644226"></trkpt><trkpt lat="55.7170337" lon="13.9642013"></trkpt><trkpt lat="55.7168470" lon="13.9635373"></trkpt><trkpt lat="55.7168470" lon="13.9630947"></trkpt><trkpt lat="55.7174070" lon="13.9635373"></trkpt><trkpt lat="55.7178425" lon="13.9634267"></trkpt><trkpt lat="55.7180914" lon="13.9627627"></trkpt><trkpt lat="55.7183403" lon="13.9626520"></trkpt><trkpt lat="55.7184647" lon="13.9619880"></trkpt><trkpt lat="55.7184647" lon="13.9609921"></trkpt><trkpt lat="55.7184025" lon="13.9607708"></trkpt><trkpt lat="55.7181536" lon="13.9606601"></trkpt><trkpt lat="55.7179670" lon="13.9603281"></trkpt><trkpt lat="55.7177803" lon="13.9603281"></trkpt><trkpt lat="55.7174692" lon="13.9605494"></trkpt><trkpt lat="55.7172826" lon="13.9605494"></trkpt><trkpt lat="55.7171581" lon="13.9605494"></trkpt></trkseg></trk></gpx>
