{
  "type": "Feature",
  "properties": {
    "name": "ÖST Trail 21/22 organizer-map reference",
    "source_year": 2019,
    "geometry_status": "validated_organizer_pdf_reference",
    "not_organizer_gpx": true,
    "distance_km": 22.06
  },
  "geometry": {
    "type": "LineString",
    "coordinates": [
      [
        13.96054943099969,
        55.717158134629955
      ],
      [
        13.96054943099969,
        55.71690926028895
      ],
      [
        13.960438768281568,
        55.71684704145591
      ],
      [
        13.95922147838222,
        55.71703369765764
      ],
      [
        13.958668164791607,
        55.71703369765764
      ],
      [
        13.958004188482873,
        55.716784822523785
      ],
      [
        13.957893525764751,
        55.716660384362164
      ],
      [
        13.95745087489226,
        55.71659816513272
      ],
      [
        13.956786898583529,
        55.71628706749875
      ],
      [
        13.956344247711037,
        55.71597596738704
      ],
      [
        13.955901596838547,
        55.715851526648585
      ],
      [
        13.955348283247934,
        55.715851526648585
      ],
      [
        13.954462981502955,
        55.716038187607616
      ],
      [
        13.953467017039852,
        55.71610040772904
      ],
      [
        13.952913703449239,
        55.716038187607616
      ],
      [
        13.952139064422383,
        55.71547820205456
      ],
      [
        13.951917738986138,
        55.714980430378986
      ],
      [
        13.951364425395527,
        55.714420429661914
      ],
      [
        13.950921774523035,
        55.71417153787739
      ],
      [
        13.9492618337512,
        55.71348707729317
      ],
      [
        13.948597857442461,
        55.71305150522269
      ],
      [
        13.94848719472434,
        55.712802604716195
      ],
      [
        13.94793388113373,
        55.71230479894567
      ],
      [
        13.947712555697484,
        55.71218034651188
      ],
      [
        13.947269904824992,
        55.712118120146314
      ],
      [
        13.946605928516261,
        55.713300404143354
      ],
      [
        13.946827253952504,
        55.713673749550956
      ],
      [
        13.946827253952504,
        55.71392264450707
      ],
      [
        13.946495265798136,
        55.71460709745962
      ],
      [
        13.94616327764377,
        55.715664864797574
      ],
      [
        13.945388638616913,
        55.716535945804125
      ],
      [
        13.945388638616913,
        55.71740700738522
      ],
      [
        13.945277975898788,
        55.71765587855476
      ],
      [
        13.945388638616913,
        55.71796696528676
      ],
      [
        13.946495265798136,
        55.71883799495506
      ],
      [
        13.946605928516261,
        55.71883799495506
      ],
      [
        13.946273940361891,
        55.71890021061661
      ],
      [
        13.945831289489401,
        55.71952236178154
      ],
      [
        13.94616327764377,
        55.71983343364756
      ],
      [
        13.945831289489401,
        55.72033114347971
      ],
      [
        13.945831289489401,
        55.7210154841425
      ],
      [
        13.945277975898788,
        55.72188644582476
      ],
      [
        13.945388638616913,
        55.72225970917102
      ],
      [
        13.945941952207523,
        55.72244633950627
      ],
      [
        13.946384603080013,
        55.72244633950627
      ],
      [
        13.947380567543117,
        55.721699812813775
      ],
      [
        13.948265869288097,
        55.72145096741166
      ],
      [
        13.9492618337512,
        55.72132654411598
      ],
      [
        13.949815147341809,
        55.72132654411598
      ],
      [
        13.951364425395527,
        55.72076663437984
      ],
      [
        13.95236038985863,
        55.72020671661629
      ],
      [
        13.955016295093568,
        55.719397932341415
      ],
      [
        13.955237620529811,
        55.719273502504834
      ],
      [
        13.955790934120426,
        55.71914907227186
      ],
      [
        13.956012259556669,
        55.719024641642456
      ],
      [
        13.95689756130165,
        55.71883799495506
      ],
      [
        13.957893525764751,
        55.71846469890433
      ],
      [
        13.958114851200998,
        55.71846469890433
      ],
      [
        13.95822551391912,
        55.718340266094586
      ],
      [
        13.958446839355364,
        55.71827804954106
      ],
      [
        13.958668164791607,
        55.71840248254901
      ],
      [
        13.958778827509729,
        55.718589131317685
      ],
      [
        13.95922147838222,
        55.718589131317685
      ],
      [
        13.960660093717813,
        55.718340266094586
      ],
      [
        13.96143473274467,
        55.718589131317685
      ],
      [
        13.962209371771527,
        55.71852691516056
      ],
      [
        13.962873348080263,
        55.7180913992858
      ],
      [
        13.963315998952751,
        55.71796696528676
      ],
      [
        13.963426661670876,
        55.71778031354488
      ],
      [
        13.963315998952751,
        55.71765587855476
      ],
      [
        13.963426661670876,
        55.71740700738522
      ],
      [
        13.962873348080263,
        55.71697147902283
      ],
      [
        13.962984010798385,
        55.71690926028895
      ],
      [
        13.963537324388998,
        55.71690926028895
      ],
      [
        13.964311963415854,
        55.7172825712058
      ],
      [
        13.964754614288346,
        55.71734478934508
      ],
      [
        13.965197265160834,
        55.717220352967416
      ],
      [
        13.965307927878957,
        55.71734478934508
      ],
      [
        13.96674654321455,
        55.71690926028895
      ],
      [
        13.966967868650794,
        55.71697147902283
      ],
      [
        13.967521182241406,
        55.71672260349253
      ],
      [
        13.96818515855014,
        55.716535945804125
      ],
      [
        13.968406483986385,
        55.716535945804125
      ],
      [
        13.969955762040101,
        55.716038187607616
      ],
      [
        13.970287750194467,
        55.7161626277514
      ],
      [
        13.970287750194467,
        55.71628706749875
      ],
      [
        13.971062389221323,
        55.717158134629955
      ],
      [
        13.972390341838796,
        55.717531443168184
      ],
      [
        13.973164980865652,
        55.717220352967416
      ],
      [
        13.974935584355613,
        55.71684704145591
      ],
      [
        13.976484862409325,
        55.71672260349253
      ],
      [
        13.97670618784557,
        55.71659816513272
      ],
      [
        13.977038175999938,
        55.716535945804125
      ],
      [
        13.977370164154305,
        55.71622484767464
      ],
      [
        13.977591489590552,
        55.7161626277514
      ],
      [
        13.977812815026795,
        55.71647372637644
      ],
      [
        13.979140767644264,
        55.71622484767464
      ],
      [
        13.979362093080512,
        55.716038187607616
      ],
      [
        13.979362093080512,
        55.715664864797574
      ],
      [
        13.980136732107368,
        55.715104873892535
      ],
      [
        13.980579382979856,
        55.714980430378986
      ],
      [
        13.981686010161082,
        55.714482652360246
      ],
      [
        13.983456613651041,
        55.714047091390455
      ],
      [
        13.983567276369163,
        55.714109314683476
      ],
      [
        13.9842312526779,
        55.714109314683476
      ],
      [
        13.984563240832268,
        55.714047091390455
      ],
      [
        13.984784566268512,
        55.714109314683476
      ],
      [
        13.985005891704755,
        55.71429598396788
      ],
      [
        13.985780530731612,
        55.7145448749595
      ],
      [
        13.986665832476593,
        55.71417153787739
      ],
      [
        13.987219146067206,
        55.714047091390455
      ],
      [
        13.987661796939694,
        55.71386042091671
      ],
      [
        13.987772459657819,
        55.713735973438666
      ],
      [
        13.988547098684675,
        55.71348707729317
      ],
      [
        13.988989749557167,
        55.713549301478224
      ],
      [
        13.989100412275288,
        55.71348707729317
      ],
      [
        13.989432400429655,
        55.712802604716195
      ],
      [
        13.989321737711533,
        55.71267815386824
      ],
      [
        13.989432400429655,
        55.712491476852954
      ],
      [
        13.989100412275288,
        55.712118120146314
      ],
      [
        13.99020703945651,
        55.71168253281212
      ],
      [
        13.99053902761088,
        55.71180698683175
      ],
      [
        13.991203003919614,
        55.71180698683175
      ],
      [
        13.991424329355858,
        55.71186921369293
      ],
      [
        13.992973607409574,
        55.71186921369293
      ],
      [
        13.994412222745167,
        55.71155807839604
      ],
      [
        13.995076199053901,
        55.71099802861733
      ],
      [
        13.995076199053901,
        55.710624657637915
      ],
      [
        13.99496553633578,
        55.71050019985184
      ],
      [
        13.995076199053901,
        55.710375741669296
      ],
      [
        13.995076199053901,
        55.709877904974384
      ],
      [
        13.995629512644513,
        55.70950452329022
      ],
      [
        13.995850838080758,
        55.709193369160964
      ],
      [
        13.996182826235128,
        55.709006675493995
      ],
      [
        13.996514814389492,
        55.70894444407342
      ],
      [
        13.998064092443208,
        55.709006675493995
      ],
      [
        13.998285417879453,
        55.709193369160964
      ],
      [
        13.998728068751943,
        55.709068906815425
      ],
      [
        13.99917071962443,
        55.7085088213541
      ],
      [
        13.999060056906309,
        55.70819765929524
      ],
      [
        13.99994535865129,
        55.70782426155365
      ],
      [
        14.000609334960027,
        55.70782426155365
      ],
      [
        14.00127331126876,
        55.70807319377785
      ],
      [
        14.001826624859373,
        55.7081354265861
      ],
      [
        14.002047950295617,
        55.70825989190527
      ],
      [
        14.002158613013739,
        55.708446589140564
      ],
      [
        14.002379938449984,
        55.7085088213541
      ],
      [
        14.002379938449984,
        55.7085710534685
      ],
      [
        14.003154577476842,
        55.70894444407342
      ],
      [
        14.00437186737619,
        55.70969121457833
      ],
      [
        14.004593192812434,
        55.709753444809465
      ],
      [
        14.004814518248677,
        55.70969121457833
      ],
      [
        14.00536783183929,
        55.709753444809465
      ],
      [
        14.006585121738638,
        55.709753444809465
      ],
      [
        14.006806447174883,
        55.70981567494149
      ],
      [
        14.006806447174883,
        55.709877904974384
      ],
      [
        14.006474459020517,
        55.710002364742806
      ],
      [
        14.006585121738638,
        55.71012682411478
      ],
      [
        14.007470423483618,
        55.71025128309028
      ],
      [
        14.008355725228597,
        55.71012682411478
      ],
      [
        14.00846638794672,
        55.710002364742806
      ],
      [
        14.009130364255455,
        55.70981567494149
      ],
      [
        14.009351689691698,
        55.70981567494149
      ],
      [
        14.009019701537333,
        55.71006459447836
      ],
      [
        14.008909038819208,
        55.710375741669296
      ],
      [
        14.009241026973577,
        55.710935800368546
      ],
      [
        14.009462352409821,
        55.71112248481753
      ],
      [
        14.010015666000434,
        55.71087357202066
      ],
      [
        14.010236991436678,
        55.71031351242935
      ],
      [
        14.011454281336025,
        55.71012682411478
      ],
      [
        14.011675606772272,
        55.71025128309028
      ],
      [
        14.011675606772272,
        55.710189053652094
      ],
      [
        14.011896932208517,
        55.71012682411478
      ],
      [
        14.012339583081006,
        55.71012682411478
      ],
      [
        14.013224884825986,
        55.70981567494149
      ],
      [
        14.013778198416597,
        55.70950452329022
      ],
      [
        14.015770127342803,
        55.70931783111002
      ],
      [
        14.015991452779046,
        55.709255600185045
      ],
      [
        14.016102115497171,
        55.70913113803777
      ],
      [
        14.016876754524027,
        55.709006675493995
      ],
      [
        14.017762056269007,
        55.7085710534685
      ],
      [
        14.018647358013988,
        55.70863328548377
      ],
      [
        14.018536695295863,
        55.708446589140564
      ],
      [
        14.018094044423375,
        55.70832212441615
      ],
      [
        14.017540730832764,
        55.70832212441615
      ],
      [
        14.01743006811464,
        55.70838435682792
      ],
      [
        14.017208742678394,
        55.70838435682792
      ],
      [
        14.017208742678394,
        55.70832212441615
      ],
      [
        14.01698741724215,
        55.70838435682792
      ],
      [
        14.017098079960272,
        55.708446589140564
      ],
      [
        14.01698741724215,
        55.70838435682792
      ],
      [
        14.01743006811464,
        55.70801096087047
      ],
      [
        14.017762056269007,
        55.70788649475837
      ],
      [
        14.018094044423375,
        55.70788649475837
      ],
      [
        14.018536695295863,
        55.70776202824979
      ],
      [
        14.019090008886476,
        55.70751309404313
      ],
      [
        14.019200671604601,
        55.70738862634505
      ],
      [
        14.019643322477089,
        55.707264158250524
      ],
      [
        14.020860612376437,
        55.707264158250524
      ],
      [
        14.021081937812683,
        55.70738862634505
      ],
      [
        14.02141392596705,
        55.70738862634505
      ],
      [
        14.021745914121414,
        55.7076997948468
      ],
      [
        14.022409890430152,
        55.70782426155365
      ],
      [
        14.022741878584519,
        55.70782426155365
      ],
      [
        14.022741878584519,
        55.70788649475837
      ],
      [
        14.023073866738883,
        55.707948727863986
      ],
      [
        14.023295192175132,
        55.708446589140564
      ],
      [
        14.023405854893253,
        55.7085088213541
      ],
      [
        14.023737843047622,
        55.7085088213541
      ],
      [
        14.02418049392011,
        55.70869551739994
      ],
      [
        14.024291156638235,
        55.709068906815425
      ],
      [
        14.02451248207448,
        55.70931783111002
      ],
      [
        14.024623144792601,
        55.709877904974384
      ],
      [
        14.025176458383212,
        55.71031351242935
      ],
      [
        14.025508446537582,
        55.71043797081014
      ],
      [
        14.025619109255704,
        55.710562428794425
      ],
      [
        14.026283085564438,
        55.71087357202066
      ],
      [
        14.026283085564438,
        55.710935800368546
      ],
      [
        14.02672573643693,
        55.711060256766984
      ],
      [
        14.027168387309418,
        55.71130916837445
      ],
      [
        14.0280536890544,
        55.71137139602852
      ],
      [
        14.030156280698725,
        55.711060256766984
      ],
      [
        14.03037760613497,
        55.710935800368546
      ],
      [
        14.03115224516183,
        55.710935800368546
      ],
      [
        14.031373570598072,
        55.71087357202066
      ],
      [
        14.03214820962493,
        55.71087357202066
      ],
      [
        14.034804114859869,
        55.71112248481753
      ],
      [
        14.035136103014237,
        55.71130916837445
      ],
      [
        14.03712803194044,
        55.711993667117845
      ],
      [
        14.037460020094807,
        55.71218034651188
      ],
      [
        14.037902670967298,
        55.71255370262383
      ],
      [
        14.038123996403542,
        55.712927055167654
      ],
      [
        14.038898635430401,
        55.713300404143354
      ],
      [
        14.039119960866646,
        55.713300404143354
      ],
      [
        14.040558576202237,
        55.713673749550956
      ],
      [
        14.041222552510972,
        55.713984867998334
      ],
      [
        14.04243984241032,
        55.7142337609722
      ],
      [
        14.044431771336523,
        55.7142337609722
      ],
      [
        14.044874422209014,
        55.71429598396788
      ],
      [
        14.045427735799624,
        55.714482652360246
      ],
      [
        14.045538398517747,
        55.71460709745962
      ],
      [
        14.045870386672116,
        55.714669319860604
      ],
      [
        14.04609171210836,
        55.71485598646896
      ],
      [
        14.046534362980848,
        55.714980430378986
      ],
      [
        14.046866351135218,
        55.714980430378986
      ],
      [
        14.04741966472583,
        55.715167095500654
      ],
      [
        14.048526291907054,
        55.71522931700966
      ],
      [
        14.048858280061422,
        55.715291538419564
      ],
      [
        14.049079605497667,
        55.71547820205456
      ],
      [
        14.049300930933914,
        55.71554042306801
      ],
      [
        14.049854244524523,
        55.71554042306801
      ],
      [
        14.050186232678893,
        55.715664864797574
      ],
      [
        14.051956836168852,
        55.71578930613069
      ],
      [
        14.052620812477587,
        55.715602643982336
      ],
      [
        14.052952800631953,
        55.715664864797574
      ],
      [
        14.053506114222564,
        55.715602643982336
      ],
      [
        14.053727439658813,
        55.715664864797574
      ],
      [
        14.05461274140379,
        55.715664864797574
      ],
      [
        14.054944729558157,
        55.71578930613069
      ],
      [
        14.056051356739383,
        55.71578930613069
      ],
      [
        14.056162019457505,
        55.715851526648585
      ],
      [
        14.057379309356852,
        55.71597596738704
      ],
      [
        14.057600634793095,
        55.71610040772904
      ],
      [
        14.057600634793095,
        55.716660384362164
      ],
      [
        14.057932622947463,
        55.71703369765764
      ],
      [
        14.057821960229342,
        55.71771809609937
      ],
      [
        14.057932622947463,
        55.71802918233582
      ],
      [
        14.059260575564934,
        55.71827804954106
      ],
      [
        14.059592563719303,
        55.71846469890433
      ],
      [
        14.059592563719303,
        55.718589131317685
      ],
      [
        14.059924551873669,
        55.71877577919436
      ],
      [
        14.060477865464282,
        55.719397932341415
      ],
      [
        14.06136316720926,
        55.71977121947258
      ],
      [
        14.062469794390484,
        55.72002007557789
      ],
      [
        14.064351060598568,
        55.72008228935647
      ],
      [
        14.065789675934159,
        55.72039335676274
      ],
      [
        14.067228291269753,
        55.720891059459355
      ],
      [
        14.067228291269753,
        55.72113990842918
      ],
      [
        14.066896303115383,
        55.72157539031092
      ],
      [
        14.066342989524772,
        55.72157539031092
      ],
      [
        14.06590033865228,
        55.721699812813775
      ],
      [
        14.065789675934159,
        55.7218242349202
      ],
      [
        14.06523636234355,
        55.72207307794384
      ],
      [
        14.06446172331669,
        55.72225970917102
      ],
      [
        14.064240397880445,
        55.72244633950627
      ],
      [
        14.063797747007955,
        55.72263296894959
      ],
      [
        14.063355096135464,
        55.72319285192813
      ],
      [
        14.062912445262976,
        55.72306843418217
      ],
      [
        14.062248468954241,
        55.72275738808299
      ],
      [
        14.061473829927385,
        55.72288180681997
      ],
      [
        14.060588528182404,
        55.72281959750104
      ],
      [
        14.060367202746159,
        55.72269517856584
      ],
      [
        14.059592563719303,
        55.72281959750104
      ],
      [
        14.059371238283056,
        55.72250854941979
      ],
      [
        14.058375273819955,
        55.72201086733658
      ],
      [
        14.058043285665585,
        55.72201086733658
      ],
      [
        14.057489972074974,
        55.7218242349202
      ],
      [
        14.05726864663873,
        55.7218242349202
      ],
      [
        14.05726864663873,
        55.72176202391654
      ],
      [
        14.056383344893751,
        55.72151317891083
      ],
      [
        14.055719368585013,
        55.72120212042388
      ],
      [
        14.055166054994404,
        55.721077696335406
      ],
      [
        14.055055392276282,
        55.720953271850476
      ],
      [
        14.054502078685665,
        55.720891059459355
      ],
      [
        14.054059427813177,
        55.72070442169143
      ],
      [
        14.053616776940688,
        55.72064220890391
      ],
      [
        14.053284788786321,
        55.720517783031525
      ],
      [
        14.05239948704134,
        55.72039335676274
      ],
      [
        14.051846173450727,
        55.72039335676274
      ],
      [
        14.051735510732605,
        55.72020671661629
      ],
      [
        14.050186232678893,
        55.720517783031525
      ],
      [
        14.050186232678893,
        55.72033114347971
      ],
      [
        14.049854244524523,
        55.72045556994669
      ],
      [
        14.049522256370157,
        55.72039335676274
      ],
      [
        14.047640990162074,
        55.72039335676274
      ],
      [
        14.04697701385334,
        55.72002007557789
      ],
      [
        14.04697701385334,
        55.71970900519847
      ],
      [
        14.046755688417093,
        55.71933571747269
      ],
      [
        14.046423700262727,
        55.7192112874379
      ],
      [
        14.045981049390237,
        55.71890021061661
      ],
      [
        14.04609171210836,
        55.718713563334575
      ],
      [
        14.04609171210836,
        55.71840248254901
      ],
      [
        14.045538398517747,
        55.71790474813857
      ],
      [
        14.044985084927136,
        55.71765587855476
      ],
      [
        14.044985084927136,
        55.71697147902283
      ],
      [
        14.044874422209014,
        55.716784822523785
      ],
      [
        14.044985084927136,
        55.71641150684966
      ],
      [
        14.044763759490891,
        55.71597596738704
      ],
      [
        14.044431771336523,
        55.715851526648585
      ],
      [
        14.043325144155297,
        55.715913747067376
      ],
      [
        14.04299315600093,
        55.715727085513684
      ],
      [
        14.043103818719054,
        55.71522931700966
      ],
      [
        14.04387845774591,
        55.714980430378986
      ],
      [
        14.043767795027788,
        55.7147937643653
      ],
      [
        14.043435806873422,
        55.71460709745962
      ],
      [
        14.04210785425595,
        55.714669319860604
      ],
      [
        14.041665203383461,
        55.714420429661914
      ],
      [
        14.040890564356605,
        55.71417153787739
      ],
      [
        14.04022658804787,
        55.71386042091671
      ],
      [
        14.039119960866646,
        55.71361152556414
      ],
      [
        14.03845598455791,
        55.713549301478224
      ],
      [
        14.035910742041093,
        55.7126159282956
      ],
      [
        14.03491477757799,
        55.71255370262383
      ],
      [
        14.033918813114889,
        55.71224257277834
      ],
      [
        14.032922848651786,
        55.71224257277834
      ],
      [
        14.032258872343052,
        55.712118120146314
      ],
      [
        14.031594896034317,
        55.71180698683175
      ],
      [
        14.031484233316194,
        55.71162030565363
      ],
      [
        14.029934955262481,
        55.71137139602852
      ],
      [
        14.030045617980603,
        55.71112248481753
      ],
      [
        14.029934955262481,
        55.711246940621244
      ],
      [
        14.027832363618153,
        55.71174475987151
      ],
      [
        14.027168387309418,
        55.71174475987151
      ],
      [
        14.026061760128192,
        55.71137139602852
      ],
      [
        14.02495513294697,
        55.71130916837445
      ],
      [
        14.024291156638235,
        55.711060256766984
      ],
      [
        14.023848505765743,
        55.71099802861733
      ],
      [
        14.022741878584519,
        55.71031351242935
      ],
      [
        14.021967239557661,
        55.709753444809465
      ],
      [
        14.02185657683954,
        55.70956675381869
      ],
      [
        14.021303263248926,
        55.709255600185045
      ],
      [
        14.020307298785823,
        55.709068906815425
      ],
      [
        14.019643322477089,
        55.708819980934926
      ],
      [
        14.018868683450233,
        55.70838435682792
      ],
      [
        14.01831536985962,
        55.70825989190527
      ],
      [
        14.017098079960272,
        55.70832212441615
      ],
      [
        14.017540730832764,
        55.7085088213541
      ],
      [
        14.016544766369663,
        55.708757749217
      ],
      [
        14.016102115497171,
        55.70894444407342
      ],
      [
        14.015216813752193,
        55.708819980934926
      ],
      [
        14.014220849289089,
        55.708819980934926
      ],
      [
        14.013446210262233,
        55.70894444407342
      ],
      [
        14.012560908517251,
        55.708757749217
      ],
      [
        14.011675606772272,
        55.708757749217
      ],
      [
        14.011343618617904,
        55.70869551739994
      ],
      [
        14.011122293181659,
        55.7085710534685
      ],
      [
        14.010790305027294,
        55.7081354265861
      ],
      [
        14.008909038819208,
        55.70825989190527
      ],
      [
        14.008245062510474,
        55.708446589140564
      ],
      [
        14.007691748919864,
        55.7085088213541
      ],
      [
        14.00581048271178,
        55.70838435682792
      ],
      [
        14.002822589322475,
        55.7076997948468
      ],
      [
        14.001605299423126,
        55.707264158250524
      ],
      [
        14.00083066039627,
        55.707139689759494
      ],
      [
        13.999724033215045,
        55.707264158250524
      ],
      [
        13.99817475516133,
        55.707264158250524
      ],
      [
        13.997510778852597,
        55.70738862634505
      ],
      [
        13.996957465261982,
        55.707326392347355
      ],
      [
        13.99596150079888,
        55.70751309404313
      ],
      [
        13.99540818720827,
        55.7076997948468
      ],
      [
        13.994854873617657,
        55.70776202824979
      ],
      [
        13.993416258282062,
        55.70825989190527
      ],
      [
        13.992973607409574,
        55.70825989190527
      ],
      [
        13.992530956537085,
        55.70838435682792
      ],
      [
        13.99153499207398,
        55.70838435682792
      ],
      [
        13.990871015765249,
        55.7085088213541
      ],
      [
        13.990760353047124,
        55.7085710534685
      ],
      [
        13.990871015765249,
        55.709193369160964
      ],
      [
        13.99042836489276,
        55.70938006193587
      ],
      [
        13.99009637673839,
        55.70962898424809
      ],
      [
        13.989764388584023,
        55.70969121457833
      ],
      [
        13.988657761402798,
        55.710189053652094
      ],
      [
        13.98788312237594,
        55.71043797081014
      ],
      [
        13.98744047150345,
        55.71074911502751
      ],
      [
        13.98732980878533,
        55.71274037934177
      ],
      [
        13.987108483349084,
        55.713300404143354
      ],
      [
        13.98699782063096,
        55.713300404143354
      ],
      [
        13.986887157912838,
        55.713424853009016
      ],
      [
        13.986112518885982,
        55.71379819722726
      ],
      [
        13.985891193449737,
        55.713735973438666
      ],
      [
        13.98511655442288,
        55.71386042091671
      ],
      [
        13.984673903550389,
        55.71386042091671
      ],
      [
        13.984120589959776,
        55.714047091390455
      ],
      [
        13.98334595093292,
        55.71392264450707
      ],
      [
        13.98201799831545,
        55.713984867998334
      ],
      [
        13.979915406671122,
        55.714482652360246
      ],
      [
        13.979362093080512,
        55.714980430378986
      ],
      [
        13.9788087794899,
        55.71522931700966
      ],
      [
        13.978144803181165,
        55.715415980942
      ],
      [
        13.977148838718062,
        55.71641150684966
      ],
      [
        13.97670618784557,
        55.716535945804125
      ],
      [
        13.975599560664344,
        55.71659816513272
      ],
      [
        13.973828957174387,
        55.71690926028895
      ],
      [
        13.973607631738144,
        55.71703369765764
      ],
      [
        13.972832992711284,
        55.717220352967416
      ],
      [
        13.972501004556918,
        55.71740700738522
      ],
      [
        13.972279679120671,
        55.71740700738522
      ],
      [
        13.97128371465757,
        55.717220352967416
      ],
      [
        13.970951726503202,
        55.71690926028895
      ],
      [
        13.970951726503202,
        55.716784822523785
      ],
      [
        13.970730401066957,
        55.716660384362164
      ],
      [
        13.970398412912589,
        55.71597596738704
      ],
      [
        13.970066424758222,
        55.715913747067376
      ],
      [
        13.969955762040101,
        55.716038187607616
      ],
      [
        13.967631844959527,
        55.71659816513272
      ],
      [
        13.967189194087037,
        55.71684704145591
      ],
      [
        13.965418590597078,
        55.71697147902283
      ],
      [
        13.965086602442712,
        55.7172825712058
      ],
      [
        13.96464395157022,
        55.7172825712058
      ],
      [
        13.964422626133976,
        55.717220352967416
      ],
      [
        13.964201300697733,
        55.71703369765764
      ],
      [
        13.963537324388998,
        55.71684704145591
      ],
      [
        13.963094673516506,
        55.71684704145591
      ],
      [
        13.963537324388998,
        55.71740700738522
      ],
      [
        13.963426661670876,
        55.717842530891275
      ],
      [
        13.96276268536214,
        55.7180913992858
      ],
      [
        13.962652022644019,
        55.718340266094586
      ],
      [
        13.961988046335282,
        55.71846469890433
      ],
      [
        13.96099208187218,
        55.71846469890433
      ],
      [
        13.960770756435936,
        55.71840248254901
      ],
      [
        13.960660093717813,
        55.71815361613664
      ],
      [
        13.960328105563446,
        55.71796696528676
      ],
      [
        13.960328105563446,
        55.71778031354488
      ],
      [
        13.96054943099969,
        55.717469225326255
      ],
      [
        13.96054943099969,
        55.7172825712058
      ],
      [
        13.96054943099969,
        55.717158134629955
      ]
    ]
  }
}
