{
  "type": "Feature",
  "properties": {
    "name": "ÖST Trail 13/14 km OSM map-match v2",
    "status": "blocked_by_qa",
    "distance_km": 14.745,
    "provenance": "organizer raster topology map-matched to OSM",
    "not_an_organizer_gpx": true
  },
  "geometry": {
    "type": "LineString",
    "coordinates": [
      [
        13.9606944,
        55.7176068
      ],
      [
        13.9606567,
        55.7175814
      ],
      [
        13.9606069,
        55.7175639
      ],
      [
        13.9605499,
        55.7175559
      ],
      [
        13.9604913,
        55.7175583
      ],
      [
        13.960426,
        55.7169253
      ],
      [
        13.9604187,
        55.7168448
      ],
      [
        13.9589955,
        55.7169716
      ],
      [
        13.9584301,
        55.7170249
      ],
      [
        13.9577397,
        55.7166919
      ],
      [
        13.957214,
        55.7165831
      ],
      [
        13.9558767,
        55.7158465
      ],
      [
        13.9543879,
        55.7160319
      ],
      [
        13.9533904,
        55.7161561
      ],
      [
        13.9529594,
        55.7160784
      ],
      [
        13.9520817,
        55.7154478
      ],
      [
        13.9519501,
        55.715218
      ],
      [
        13.9517945,
        55.7149461
      ],
      [
        13.9515424,
        55.7146651
      ],
      [
        13.9511937,
        55.714378
      ],
      [
        13.9508182,
        55.7142148
      ],
      [
        13.9500833,
        55.7139307
      ],
      [
        13.9490908,
        55.7134926
      ],
      [
        13.9487636,
        55.7133173
      ],
      [
        13.9483881,
        55.7129063
      ],
      [
        13.9476854,
        55.7123291
      ],
      [
        13.9472562,
        55.7121024
      ],
      [
        13.9470684,
        55.7122566
      ],
      [
        13.9468163,
        55.7127401
      ],
      [
        13.9465856,
        55.7132387
      ],
      [
        13.946532,
        55.7133898
      ],
      [
        13.9467466,
        55.7136588
      ],
      [
        13.9468646,
        55.7138673
      ],
      [
        13.9464515,
        55.7148373
      ],
      [
        13.9462691,
        55.7154447
      ],
      [
        13.9458062,
        55.7160242
      ],
      [
        13.9457381,
        55.7161095
      ],
      [
        13.9454001,
        55.7165718
      ],
      [
        13.9453679,
        55.7173997
      ],
      [
        13.9453733,
        55.7178016
      ],
      [
        13.9456576,
        55.7182337
      ],
      [
        13.9458432,
        55.7183646
      ],
      [
        13.9467198,
        55.718983
      ],
      [
        13.9466822,
        55.7191553
      ],
      [
        13.9464301,
        55.719539
      ],
      [
        13.9460063,
        55.7200345
      ],
      [
        13.9458454,
        55.7203759
      ],
      [
        13.94584,
        55.7208654
      ],
      [
        13.9457488,
        55.7211947
      ],
      [
        13.9454001,
        55.7217778
      ],
      [
        13.9451694,
        55.7222975
      ],
      [
        13.9452124,
        55.7223564
      ],
      [
        13.9454484,
        55.7224848
      ],
      [
        13.9458024,
        55.7225876
      ],
      [
        13.946178,
        55.7225876
      ],
      [
        13.9467198,
        55.7224788
      ],
      [
        13.9471006,
        55.7221253
      ],
      [
        13.9476263,
        55.7216087
      ],
      [
        13.9480072,
        55.7214697
      ],
      [
        13.9485329,
        55.7214092
      ],
      [
        13.9498311,
        55.7212793
      ],
      [
        13.9502871,
        55.7211555
      ],
      [
        13.9516228,
        55.7206932
      ],
      [
        13.9522344,
        55.7203095
      ],
      [
        13.9526528,
        55.7200889
      ],
      [
        13.9538974,
        55.719681
      ],
      [
        13.954922,
        55.719394
      ],
      [
        13.955639,
        55.7192068
      ],
      [
        13.9557025,
        55.7191666
      ],
      [
        13.9557528,
        55.7191347
      ],
      [
        13.9564882,
        55.7189182
      ],
      [
        13.9579887,
        55.7184766
      ],
      [
        13.9585438,
        55.7181436
      ],
      [
        13.9587023,
        55.7184766
      ],
      [
        13.958853,
        55.7185797
      ],
      [
        13.9607163,
        55.7185321
      ],
      [
        13.9614428,
        55.7184867
      ],
      [
        13.9616043,
        55.7184766
      ],
      [
        13.9623578,
        55.7183634
      ],
      [
        13.9626289,
        55.718294
      ],
      [
        13.9627768,
        55.7180927
      ],
      [
        13.9632452,
        55.7178775
      ],
      [
        13.9634177,
        55.7176345
      ],
      [
        13.9633437,
        55.7172319
      ],
      [
        13.9629987,
        55.7169056
      ],
      [
        13.9629664,
        55.7167826
      ],
      [
        13.9633924,
        55.7167726
      ],
      [
        13.9637195,
        55.7168198
      ],
      [
        13.9640465,
        55.7168869
      ],
      [
        13.9642367,
        55.7170211
      ],
      [
        13.9645232,
        55.7171382
      ],
      [
        13.9647717,
        55.7172468
      ],
      [
        13.9648833,
        55.7173168
      ],
      [
        13.9649771,
        55.717331
      ],
      [
        13.9650633,
        55.7172996
      ],
      [
        13.9651723,
        55.7172368
      ],
      [
        13.9653041,
        55.7172039
      ],
      [
        13.9654247,
        55.7171931
      ],
      [
        13.9655204,
        55.7172068
      ],
      [
        13.965615,
        55.7172384
      ],
      [
        13.9657306,
        55.7172539
      ],
      [
        13.9658252,
        55.7172613
      ],
      [
        13.9659594,
        55.7172421
      ],
      [
        13.9660913,
        55.7171986
      ],
      [
        13.9662925,
        55.7171004
      ],
      [
        13.9665178,
        55.7170687
      ],
      [
        13.9668477,
        55.7170535
      ],
      [
        13.9669845,
        55.7169417
      ],
      [
        13.9672098,
        55.716833
      ],
      [
        13.9673922,
        55.7167967
      ],
      [
        13.9678589,
        55.7167468
      ],
      [
        13.9681915,
        55.7166305
      ],
      [
        13.9685295,
        55.7165202
      ],
      [
        13.9687387,
        55.7163933
      ],
      [
        13.9691705,
        55.71628
      ],
      [
        13.9696372,
        55.7161198
      ],
      [
        13.9699752,
        55.7160322
      ],
      [
        13.9702748,
        55.7159998
      ],
      [
        13.9702957,
        55.716095
      ],
      [
        13.9703806,
        55.716245
      ],
      [
        13.9704563,
        55.7163749
      ],
      [
        13.9705007,
        55.7164352
      ],
      [
        13.970841,
        55.7168973
      ],
      [
        13.9711851,
        55.7173079
      ],
      [
        13.9714037,
        55.7173351
      ],
      [
        13.971747,
        55.7174318
      ],
      [
        13.9720045,
        55.7174962
      ],
      [
        13.9722001,
        55.7175204
      ],
      [
        13.9724576,
        55.7174774
      ],
      [
        13.9728391,
        55.7173217
      ],
      [
        13.9731586,
        55.71719
      ],
      [
        13.97396,
        55.717003
      ],
      [
        13.974475,
        55.7168918
      ],
      [
        13.9746757,
        55.7168602
      ],
      [
        13.9750501,
        55.7167715
      ],
      [
        13.9757182,
        55.7166985
      ],
      [
        13.9766912,
        55.7165921
      ],
      [
        13.9769619,
        55.7165329
      ],
      [
        13.9772662,
        55.7162774
      ],
      [
        13.9774404,
        55.7161099
      ],
      [
        13.9776028,
        55.7161922
      ],
      [
        13.9777709,
        55.7164043
      ],
      [
        13.9778633,
        55.7164494
      ],
      [
        13.9781251,
        55.7165772
      ],
      [
        13.9783243,
        55.7166735
      ],
      [
        13.9784982,
        55.716699
      ],
      [
        13.9787565,
        55.7168019
      ],
      [
        13.9784982,
        55.716699
      ],
      [
        13.9783243,
        55.7166735
      ],
      [
        13.9781251,
        55.7165772
      ],
      [
        13.9778633,
        55.7164494
      ],
      [
        13.9783055,
        55.7163588
      ],
      [
        13.97852,
        55.7162726
      ],
      [
        13.9786756,
        55.7161321
      ],
      [
        13.9789626,
        55.7158798
      ],
      [
        13.9793032,
        55.7156124
      ],
      [
        13.9796922,
        55.7153858
      ],
      [
        13.9799711,
        55.715218
      ],
      [
        13.9803278,
        55.7150534
      ],
      [
        13.980867,
        55.7148388
      ],
      [
        13.9812049,
        55.7147119
      ],
      [
        13.9815724,
        55.714517
      ],
      [
        13.9818433,
        55.7144565
      ],
      [
        13.9824977,
        55.7142858
      ],
      [
        13.9830878,
        55.7141075
      ],
      [
        13.9832978,
        55.7140318
      ],
      [
        13.9833628,
        55.7140084
      ],
      [
        13.9837884,
        55.7140571
      ],
      [
        13.984138,
        55.7140661
      ],
      [
        13.9842665,
        55.7140644
      ],
      [
        13.9842911,
        55.7140604
      ],
      [
        13.9844545,
        55.7140336
      ],
      [
        13.9846463,
        55.7139878
      ],
      [
        13.9849237,
        55.7142298
      ],
      [
        13.9853821,
        55.7144815
      ],
      [
        13.9857096,
        55.7146474
      ],
      [
        13.9859997,
        55.714546
      ],
      [
        13.9862564,
        55.7144128
      ],
      [
        13.9865141,
        55.7142817
      ],
      [
        13.9867058,
        55.7142143
      ],
      [
        13.9871882,
        55.7140662
      ],
      [
        13.9874931,
        55.7138921
      ],
      [
        13.987968,
        55.7136537
      ],
      [
        13.9883947,
        55.7135163
      ],
      [
        13.9886856,
        55.7135016
      ],
      [
        13.9889109,
        55.7135198
      ],
      [
        13.9890216,
        55.7134475
      ],
      [
        13.9891897,
        55.7132123
      ],
      [
        13.9893324,
        55.7129992
      ],
      [
        13.9894044,
        55.712734
      ],
      [
        13.9895707,
        55.7124439
      ],
      [
        13.989737,
        55.7122566
      ],
      [
        13.9898856,
        55.7120921
      ],
      [
        13.9901714,
        55.7119103
      ],
      [
        13.9906007,
        55.7118002
      ],
      [
        13.9910047,
        55.7117624
      ],
      [
        13.9915824,
        55.7118456
      ],
      [
        13.9924638,
        55.7118651
      ],
      [
        13.9929986,
        55.7118335
      ],
      [
        13.9934164,
        55.7117648
      ],
      [
        13.9939533,
        55.7116363
      ],
      [
        13.9943783,
        55.7115061
      ],
      [
        13.994929,
        55.7112284
      ],
      [
        13.9950424,
        55.7110024
      ],
      [
        13.9950789,
        55.7107418
      ],
      [
        13.9950912,
        55.7104071
      ],
      [
        13.9951661,
        55.7099894
      ],
      [
        13.9953055,
        55.7096932
      ],
      [
        13.9955574,
        55.7095124
      ],
      [
        13.9957661,
        55.7093469
      ],
      [
        13.9959437,
        55.7091498
      ],
      [
        13.9960934,
        55.70901
      ],
      [
        13.9965069,
        55.7089594
      ],
      [
        13.9969156,
        55.7089114
      ],
      [
        13.9974581,
        55.7089028
      ],
      [
        13.9978051,
        55.708954
      ],
      [
        13.9980733,
        55.7090893
      ],
      [
        13.9982557,
        55.7091619
      ],
      [
        13.9985072,
        55.7091808
      ],
      [
        13.9988458,
        55.709038
      ],
      [
        13.9990069,
        55.7088981
      ],
      [
        13.9991498,
        55.7086855
      ],
      [
        13.9992106,
        55.7084818
      ],
      [
        13.9992074,
        55.7084157
      ],
      [
        13.9991999,
        55.7082642
      ],
      [
        13.9992374,
        55.7081252
      ],
      [
        13.99949,
        55.7079982
      ],
      [
        14.0000017,
        55.707831
      ],
      [
        14.0004122,
        55.7077716
      ],
      [
        14.0007733,
        55.7078005
      ],
      [
        14.0013036,
        55.7079781
      ],
      [
        14.0015503,
        55.7080895
      ],
      [
        14.0018513,
        55.7081897
      ],
      [
        14.0020239,
        55.7082038
      ],
      [
        14.0021941,
        55.7083199
      ],
      [
        14.002381,
        55.7085876
      ],
      [
        14.0030193,
        55.7089261
      ],
      [
        14.0034795,
        55.7091805
      ],
      [
        14.0037274,
        55.7093734
      ],
      [
        14.0040868,
        55.7095457
      ],
      [
        14.0043551,
        55.7097383
      ],
      [
        14.0046448,
        55.709823
      ],
      [
        14.0051383,
        55.7097935
      ],
      [
        14.0060359,
        55.7097728
      ],
      [
        14.0066028,
        55.7097784
      ],
      [
        14.0069461,
        55.7098026
      ],
      [
        14.0069783,
        55.7098691
      ],
      [
        14.0067022,
        55.7100037
      ],
      [
        14.0066832,
        55.7100927
      ],
      [
        14.0068173,
        55.7101562
      ],
      [
        14.0071016,
        55.7101773
      ],
      [
        14.0074989,
        55.7102287
      ],
      [
        14.0078849,
        55.7102106
      ],
      [
        14.0081141,
        55.7101934
      ],
      [
        14.0093077,
        55.709753
      ],
      [
        14.0094147,
        55.7097767
      ],
      [
        14.0095633,
        55.7097025
      ],
      [
        14.0098816,
        55.709454
      ],
      [
        14.0102067,
        55.7091726
      ],
      [
        14.0104327,
        55.7089613
      ],
      [
        14.0106525,
        55.7088492
      ],
      [
        14.0108408,
        55.708789
      ],
      [
        14.011029,
        55.7087357
      ],
      [
        14.0109053,
        55.7084235
      ],
      [
        14.0108738,
        55.708344
      ],
      [
        14.0108045,
        55.7081691
      ],
      [
        14.0088026,
        55.708334
      ],
      [
        14.0108045,
        55.7081691
      ],
      [
        14.0108738,
        55.708344
      ],
      [
        14.0109053,
        55.7084235
      ],
      [
        14.011029,
        55.7087357
      ],
      [
        14.0108408,
        55.708789
      ],
      [
        14.0106525,
        55.7088492
      ],
      [
        14.0104327,
        55.7089613
      ],
      [
        14.0102067,
        55.7091726
      ],
      [
        14.0104327,
        55.7089613
      ],
      [
        14.0106525,
        55.7088492
      ],
      [
        14.0108408,
        55.708789
      ],
      [
        14.011029,
        55.7087357
      ],
      [
        14.0119593,
        55.7089063
      ],
      [
        14.0125927,
        55.7089302
      ],
      [
        14.0132481,
        55.7090166
      ],
      [
        14.0137122,
        55.7091278
      ],
      [
        14.0144366,
        55.709233
      ],
      [
        14.0161961,
        55.7091161
      ],
      [
        14.0159953,
        55.7092034
      ],
      [
        14.0161961,
        55.7091161
      ],
      [
        14.0166058,
        55.709067
      ],
      [
        14.0173161,
        55.7088633
      ],
      [
        14.0175013,
        55.7086511
      ],
      [
        14.0175305,
        55.7086176
      ],
      [
        14.017836,
        55.7085179
      ],
      [
        14.0182541,
        55.7084817
      ],
      [
        14.019476,
        55.7088078
      ],
      [
        14.0197555,
        55.7089108
      ],
      [
        14.0203753,
        55.7091127
      ],
      [
        14.0205934,
        55.7091837
      ],
      [
        14.0210523,
        55.7092924
      ],
      [
        14.0211167,
        55.7093068
      ],
      [
        14.0214241,
        55.709427
      ],
      [
        14.0220256,
        55.7090834
      ],
      [
        14.022605,
        55.7087691
      ],
      [
        14.0229711,
        55.7086506
      ],
      [
        14.0230886,
        55.7086143
      ],
      [
        14.0229711,
        55.7086506
      ],
      [
        14.022605,
        55.7087691
      ],
      [
        14.0220256,
        55.7090834
      ],
      [
        14.0214241,
        55.709427
      ],
      [
        14.0211167,
        55.7093068
      ],
      [
        14.0210523,
        55.7092924
      ],
      [
        14.0205934,
        55.7091837
      ],
      [
        14.0203753,
        55.7091127
      ],
      [
        14.0197555,
        55.7089108
      ],
      [
        14.019476,
        55.7088078
      ],
      [
        14.0182541,
        55.7084817
      ],
      [
        14.017836,
        55.7085179
      ],
      [
        14.0175305,
        55.7086176
      ],
      [
        14.0175013,
        55.7086511
      ],
      [
        14.0173069,
        55.7085678
      ],
      [
        14.0169825,
        55.7084688
      ],
      [
        14.0170129,
        55.7083913
      ],
      [
        14.0170999,
        55.7083117
      ],
      [
        14.0170919,
        55.7081928
      ],
      [
        14.017195,
        55.7081056
      ],
      [
        14.0172039,
        55.708099
      ],
      [
        14.0171216,
        55.7080729
      ],
      [
        14.0167483,
        55.7080085
      ],
      [
        14.0163111,
        55.7080402
      ],
      [
        14.0157506,
        55.7080689
      ],
      [
        14.0152114,
        55.7081037
      ],
      [
        14.0146589,
        55.7081823
      ],
      [
        14.0141225,
        55.7082548
      ],
      [
        14.013409,
        55.7083908
      ],
      [
        14.0131193,
        55.7083878
      ],
      [
        14.0126848,
        55.708276
      ],
      [
        14.0124059,
        55.7081611
      ],
      [
        14.0121108,
        55.7081128
      ],
      [
        14.0115636,
        55.7080976
      ],
      [
        14.0108045,
        55.7081691
      ],
      [
        14.0088026,
        55.708334
      ],
      [
        14.0076971,
        55.7085483
      ],
      [
        14.0074027,
        55.7085573
      ],
      [
        14.0069514,
        55.7085121
      ],
      [
        14.0064837,
        55.7085046
      ],
      [
        14.0060369,
        55.7084813
      ],
      [
        14.0054921,
        55.7083924
      ],
      [
        14.0049201,
        55.7082584
      ],
      [
        14.0047965,
        55.7082416
      ],
      [
        14.0041351,
        55.7080043
      ],
      [
        14.0031695,
        55.7077958
      ],
      [
        14.0025419,
        55.7076719
      ],
      [
        14.0021503,
        55.7074694
      ],
      [
        14.0015639,
        55.7072898
      ],
      [
        14.0008196,
        55.7071756
      ],
      [
        14.0003394,
        55.7071793
      ],
      [
        13.9998382,
        55.7072427
      ],
      [
        13.9992911,
        55.7072941
      ],
      [
        13.998819,
        55.7073061
      ],
      [
        13.9981826,
        55.7072455
      ],
      [
        13.9979045,
        55.7071981
      ],
      [
        13.9976773,
        55.7073881
      ],
      [
        13.9975185,
        55.7073477
      ],
      [
        13.9973009,
        55.7073817
      ],
      [
        13.9970541,
        55.7073605
      ],
      [
        13.9967859,
        55.7073515
      ],
      [
        13.9963567,
        55.707424
      ],
      [
        13.9959598,
        55.7075449
      ],
      [
        13.9954126,
        55.707687
      ],
      [
        13.9947367,
        55.7078472
      ],
      [
        13.9942378,
        55.707965
      ],
      [
        13.9937657,
        55.7081464
      ],
      [
        13.9934331,
        55.7082552
      ],
      [
        13.993004,
        55.7082975
      ],
      [
        13.9926177,
        55.7083851
      ],
      [
        13.992371,
        55.7084123
      ],
      [
        13.9916544,
        55.708383
      ],
      [
        13.9910971,
        55.7084453
      ],
      [
        13.9907441,
        55.7085171
      ],
      [
        13.9906262,
        55.708637
      ],
      [
        13.9907455,
        55.7088445
      ],
      [
        13.9908528,
        55.7090833
      ],
      [
        13.9908582,
        55.7092223
      ],
      [
        13.9906007,
        55.7093613
      ],
      [
        13.9902949,
        55.7094973
      ],
      [
        13.989737,
        55.7098026
      ],
      [
        13.9892381,
        55.7100051
      ],
      [
        13.9888251,
        55.7101864
      ],
      [
        13.9882028,
        55.71041
      ],
      [
        13.9876342,
        55.710682
      ],
      [
        13.9874947,
        55.7108513
      ],
      [
        13.9874732,
        55.7111595
      ],
      [
        13.9874464,
        55.7114406
      ],
      [
        13.987366,
        55.7116914
      ],
      [
        13.9873445,
        55.712048
      ],
      [
        13.9873123,
        55.7123684
      ],
      [
        13.9872533,
        55.712734
      ],
      [
        13.9872479,
        55.7130393
      ],
      [
        13.9871943,
        55.7132448
      ],
      [
        13.98691,
        55.7134019
      ],
      [
        13.9866418,
        55.7135228
      ],
      [
        13.9865237,
        55.7136134
      ],
      [
        13.986159,
        55.7137978
      ],
      [
        13.9858371,
        55.7138038
      ],
      [
        13.9854401,
        55.7138658
      ],
      [
        13.9850458,
        55.7139035
      ],
      [
        13.9846463,
        55.7139878
      ],
      [
        13.9844545,
        55.7140336
      ],
      [
        13.9842911,
        55.7140604
      ],
      [
        13.9842665,
        55.7140644
      ],
      [
        13.984138,
        55.7140661
      ],
      [
        13.9837884,
        55.7140571
      ],
      [
        13.9833628,
        55.7140084
      ],
      [
        13.9832978,
        55.7140318
      ],
      [
        13.9830878,
        55.7141075
      ],
      [
        13.9824977,
        55.7142858
      ],
      [
        13.9818433,
        55.7144565
      ],
      [
        13.9815724,
        55.714517
      ],
      [
        13.9812049,
        55.7147119
      ],
      [
        13.980867,
        55.7148388
      ],
      [
        13.9803278,
        55.7150534
      ],
      [
        13.9799711,
        55.715218
      ],
      [
        13.9796922,
        55.7153858
      ],
      [
        13.9793032,
        55.7156124
      ],
      [
        13.9789626,
        55.7158798
      ],
      [
        13.9786756,
        55.7161321
      ],
      [
        13.97852,
        55.7162726
      ],
      [
        13.9783055,
        55.7163588
      ],
      [
        13.9778633,
        55.7164494
      ],
      [
        13.9777709,
        55.7164043
      ],
      [
        13.9776028,
        55.7161922
      ],
      [
        13.9774404,
        55.7161099
      ],
      [
        13.9772662,
        55.7162774
      ],
      [
        13.9769619,
        55.7165329
      ],
      [
        13.9766912,
        55.7165921
      ],
      [
        13.9757182,
        55.7166985
      ],
      [
        13.9750501,
        55.7167715
      ],
      [
        13.9746757,
        55.7168602
      ],
      [
        13.974475,
        55.7168918
      ],
      [
        13.97396,
        55.717003
      ],
      [
        13.9731586,
        55.71719
      ],
      [
        13.9728391,
        55.7173217
      ],
      [
        13.9724576,
        55.7174774
      ],
      [
        13.9722001,
        55.7175204
      ],
      [
        13.9720045,
        55.7174962
      ],
      [
        13.971747,
        55.7174318
      ],
      [
        13.9714037,
        55.7173351
      ],
      [
        13.9711851,
        55.7173079
      ],
      [
        13.970841,
        55.7168973
      ],
      [
        13.9705007,
        55.7164352
      ],
      [
        13.9704563,
        55.7163749
      ],
      [
        13.9703806,
        55.716245
      ],
      [
        13.9702957,
        55.716095
      ],
      [
        13.9702748,
        55.7159998
      ],
      [
        13.9699752,
        55.7160322
      ],
      [
        13.9696372,
        55.7161198
      ],
      [
        13.9691705,
        55.71628
      ],
      [
        13.9687387,
        55.7163933
      ],
      [
        13.9685295,
        55.7165202
      ],
      [
        13.9681915,
        55.7166305
      ],
      [
        13.9678589,
        55.7167468
      ],
      [
        13.9673922,
        55.7167967
      ],
      [
        13.9672098,
        55.716833
      ],
      [
        13.9669845,
        55.7169417
      ],
      [
        13.9668477,
        55.7170535
      ],
      [
        13.9665178,
        55.7170687
      ],
      [
        13.9662925,
        55.7171004
      ],
      [
        13.9660913,
        55.7171986
      ],
      [
        13.9659594,
        55.7172421
      ],
      [
        13.9658252,
        55.7172613
      ],
      [
        13.9657306,
        55.7172539
      ],
      [
        13.965615,
        55.7172384
      ],
      [
        13.9655204,
        55.7172068
      ],
      [
        13.9654247,
        55.7171931
      ],
      [
        13.9653041,
        55.7172039
      ],
      [
        13.9651723,
        55.7172368
      ],
      [
        13.9650633,
        55.7172996
      ],
      [
        13.9649771,
        55.717331
      ],
      [
        13.9648833,
        55.7173168
      ],
      [
        13.9647717,
        55.7172468
      ],
      [
        13.9645232,
        55.7171382
      ],
      [
        13.9642367,
        55.7170211
      ],
      [
        13.9640465,
        55.7168869
      ],
      [
        13.9637195,
        55.7168198
      ],
      [
        13.9633924,
        55.7167726
      ],
      [
        13.9629664,
        55.7167826
      ],
      [
        13.9629987,
        55.7169056
      ],
      [
        13.9633437,
        55.7172319
      ],
      [
        13.9634177,
        55.7176345
      ],
      [
        13.9632452,
        55.7178775
      ],
      [
        13.9627768,
        55.7180927
      ],
      [
        13.9626289,
        55.718294
      ],
      [
        13.9623578,
        55.7183634
      ],
      [
        13.9616043,
        55.7184766
      ],
      [
        13.9614428,
        55.7184867
      ],
      [
        13.9607163,
        55.7185321
      ],
      [
        13.9606963,
        55.7182433
      ],
      [
        13.9605987,
        55.7181288
      ]
    ]
  }
}
