<?xml version="1.0" encoding="UTF-8"?><gpx version="1.1" creator="Loppanalys"><trk><name>ÖST Trail 13/14 OSM map match v2</name><trkseg><trkpt lat="55.7177026" lon="13.9607056"></trkpt><trkpt lat="55.7176705" lon="13.9607201"></trkpt><trkpt lat="55.7176375" lon="13.9607163"></trkpt><trkpt lat="55.7176068" lon="13.9606944"></trkpt><trkpt lat="55.7175814" lon="13.9606567"></trkpt><trkpt lat="55.7175639" lon="13.9606069"></trkpt><trkpt lat="55.7175559" lon="13.9605499"></trkpt><trkpt lat="55.7175583" lon="13.9604913"></trkpt><trkpt lat="55.7169253" lon="13.9604260"></trkpt><trkpt lat="55.7168448" lon="13.9604187"></trkpt><trkpt lat="55.7169716" lon="13.9589955"></trkpt><trkpt lat="55.7170249" lon="13.9584301"></trkpt><trkpt lat="55.7170883" lon="13.9582506"></trkpt><trkpt lat="55.7170249" lon="13.9584301"></trkpt><trkpt lat="55.7166919" lon="13.9577397"></trkpt><trkpt lat="55.7165831" lon="13.9572140"></trkpt><trkpt lat="55.7158465" lon="13.9558767"></trkpt><trkpt lat="55.7160319" lon="13.9543879"></trkpt><trkpt lat="55.7161561" lon="13.9533904"></trkpt><trkpt lat="55.7160784" lon="13.9529594"></trkpt><trkpt lat="55.7154478" lon="13.9520817"></trkpt><trkpt lat="55.7152180" lon="13.9519501"></trkpt><trkpt lat="55.7149461" lon="13.9517945"></trkpt><trkpt lat="55.7146651" lon="13.9515424"></trkpt><trkpt lat="55.7143780" lon="13.9511937"></trkpt><trkpt lat="55.7142148" lon="13.9508182"></trkpt><trkpt lat="55.7139307" lon="13.9500833"></trkpt><trkpt lat="55.7134926" lon="13.9490908"></trkpt><trkpt lat="55.7133173" lon="13.9487636"></trkpt><trkpt lat="55.7129063" lon="13.9483881"></trkpt><trkpt lat="55.7123291" lon="13.9476854"></trkpt><trkpt lat="55.7121024" lon="13.9472562"></trkpt><trkpt lat="55.7122566" lon="13.9470684"></trkpt><trkpt lat="55.7127401" lon="13.9468163"></trkpt><trkpt lat="55.7132387" lon="13.9465856"></trkpt><trkpt lat="55.7133898" lon="13.9465320"></trkpt><trkpt lat="55.7136588" lon="13.9467466"></trkpt><trkpt lat="55.7138673" lon="13.9468646"></trkpt><trkpt lat="55.7148373" lon="13.9464515"></trkpt><trkpt lat="55.7154447" lon="13.9462691"></trkpt><trkpt lat="55.7160242" lon="13.9458062"></trkpt><trkpt lat="55.7161095" lon="13.9457381"></trkpt><trkpt lat="55.7165718" lon="13.9454001"></trkpt><trkpt lat="55.7173997" lon="13.9453679"></trkpt><trkpt lat="55.7178016" lon="13.9453733"></trkpt><trkpt lat="55.7182337" lon="13.9456576"></trkpt><trkpt lat="55.7183646" lon="13.9458432"></trkpt><trkpt lat="55.7189830" lon="13.9467198"></trkpt><trkpt lat="55.7191553" lon="13.9466822"></trkpt><trkpt lat="55.7195390" lon="13.9464301"></trkpt><trkpt lat="55.7200345" lon="13.9460063"></trkpt><trkpt lat="55.7203759" lon="13.9458454"></trkpt><trkpt lat="55.7208654" lon="13.9458400"></trkpt><trkpt lat="55.7211947" lon="13.9457488"></trkpt><trkpt lat="55.7217778" lon="13.9454001"></trkpt><trkpt lat="55.7222975" lon="13.9451694"></trkpt><trkpt lat="55.7222341" lon="13.9450300"></trkpt><trkpt lat="55.7222975" lon="13.9451694"></trkpt><trkpt lat="55.7223564" lon="13.9452124"></trkpt><trkpt lat="55.7224848" lon="13.9454484"></trkpt><trkpt lat="55.7225876" lon="13.9458024"></trkpt><trkpt lat="55.7225876" lon="13.9461780"></trkpt><trkpt lat="55.7224788" lon="13.9467198"></trkpt><trkpt lat="55.7221253" lon="13.9471006"></trkpt><trkpt lat="55.7216087" lon="13.9476263"></trkpt><trkpt lat="55.7214697" lon="13.9480072"></trkpt><trkpt lat="55.7214092" lon="13.9485329"></trkpt><trkpt lat="55.7212793" lon="13.9498311"></trkpt><trkpt lat="55.7211555" lon="13.9502871"></trkpt><trkpt lat="55.7206932" lon="13.9516228"></trkpt><trkpt lat="55.7203095" lon="13.9522344"></trkpt><trkpt lat="55.7200889" lon="13.9526528"></trkpt><trkpt lat="55.7196810" lon="13.9538974"></trkpt><trkpt lat="55.7193940" lon="13.9549220"></trkpt><trkpt lat="55.7192068" lon="13.9556390"></trkpt><trkpt lat="55.7191666" lon="13.9557025"></trkpt><trkpt lat="55.7191347" lon="13.9557528"></trkpt><trkpt lat="55.7189182" lon="13.9564882"></trkpt><trkpt lat="55.7184766" lon="13.9579887"></trkpt><trkpt lat="55.7181436" lon="13.9585438"></trkpt><trkpt lat="55.7184766" lon="13.9587023"></trkpt><trkpt lat="55.7185797" lon="13.9588530"></trkpt><trkpt lat="55.7185321" lon="13.9607163"></trkpt><trkpt lat="55.7184867" lon="13.9614428"></trkpt><trkpt lat="55.7184766" lon="13.9616043"></trkpt><trkpt lat="55.7183634" lon="13.9623578"></trkpt><trkpt lat="55.7182940" lon="13.9626289"></trkpt><trkpt lat="55.7180927" lon="13.9627768"></trkpt><trkpt lat="55.7178775" lon="13.9632452"></trkpt><trkpt lat="55.7176345" lon="13.9634177"></trkpt><trkpt lat="55.7172319" lon="13.9633437"></trkpt><trkpt lat="55.7169056" lon="13.9629987"></trkpt><trkpt lat="55.7167826" lon="13.9629664"></trkpt><trkpt lat="55.7167726" lon="13.9633924"></trkpt><trkpt lat="55.7168198" lon="13.9637195"></trkpt><trkpt lat="55.7168869" lon="13.9640465"></trkpt><trkpt lat="55.7170211" lon="13.9642367"></trkpt><trkpt lat="55.7171382" lon="13.9645232"></trkpt><trkpt lat="55.7172468" lon="13.9647717"></trkpt><trkpt lat="55.7173168" lon="13.9648833"></trkpt><trkpt lat="55.7173310" lon="13.9649771"></trkpt><trkpt lat="55.7172996" lon="13.9650633"></trkpt><trkpt lat="55.7172368" lon="13.9651723"></trkpt><trkpt lat="55.7172039" lon="13.9653041"></trkpt><trkpt lat="55.7171931" lon="13.9654247"></trkpt><trkpt lat="55.7172068" lon="13.9655204"></trkpt><trkpt lat="55.7172384" lon="13.9656150"></trkpt><trkpt lat="55.7172539" lon="13.9657306"></trkpt><trkpt lat="55.7172613" lon="13.9658252"></trkpt><trkpt lat="55.7172421" lon="13.9659594"></trkpt><trkpt lat="55.7171986" lon="13.9660913"></trkpt><trkpt lat="55.7171004" lon="13.9662925"></trkpt><trkpt lat="55.7170687" lon="13.9665178"></trkpt><trkpt lat="55.7170535" lon="13.9668477"></trkpt><trkpt lat="55.7169417" lon="13.9669845"></trkpt><trkpt lat="55.7168330" lon="13.9672098"></trkpt><trkpt lat="55.7167967" lon="13.9673922"></trkpt><trkpt lat="55.7167468" lon="13.9678589"></trkpt><trkpt lat="55.7166305" lon="13.9681915"></trkpt><trkpt lat="55.7165202" lon="13.9685295"></trkpt><trkpt lat="55.7163933" lon="13.9687387"></trkpt><trkpt lat="55.7162800" lon="13.9691705"></trkpt><trkpt lat="55.7161198" lon="13.9696372"></trkpt><trkpt lat="55.7160322" lon="13.9699752"></trkpt><trkpt lat="55.7159998" lon="13.9702748"></trkpt><trkpt lat="55.7160950" lon="13.9702957"></trkpt><trkpt lat="55.7162450" lon="13.9703806"></trkpt><trkpt lat="55.7163749" lon="13.9704563"></trkpt><trkpt lat="55.7164352" lon="13.9705007"></trkpt><trkpt lat="55.7168973" lon="13.9708410"></trkpt><trkpt lat="55.7173079" lon="13.9711851"></trkpt><trkpt lat="55.7173351" lon="13.9714037"></trkpt><trkpt lat="55.7174318" lon="13.9717470"></trkpt><trkpt lat="55.7174962" lon="13.9720045"></trkpt><trkpt lat="55.7175204" lon="13.9722001"></trkpt><trkpt lat="55.7174774" lon="13.9724576"></trkpt><trkpt lat="55.7173217" lon="13.9728391"></trkpt><trkpt lat="55.7171900" lon="13.9731586"></trkpt><trkpt lat="55.7170030" lon="13.9739600"></trkpt><trkpt lat="55.7168918" lon="13.9744750"></trkpt><trkpt lat="55.7168602" lon="13.9746757"></trkpt><trkpt lat="55.7167715" lon="13.9750501"></trkpt><trkpt lat="55.7166985" lon="13.9757182"></trkpt><trkpt lat="55.7167138" lon="13.9758364"></trkpt><trkpt lat="55.7167828" lon="13.9760064"></trkpt><trkpt lat="55.7167138" lon="13.9758364"></trkpt><trkpt lat="55.7166985" lon="13.9757182"></trkpt><trkpt lat="55.7165921" lon="13.9766912"></trkpt><trkpt lat="55.7165329" lon="13.9769619"></trkpt><trkpt lat="55.7162774" lon="13.9772662"></trkpt><trkpt lat="55.7161099" lon="13.9774404"></trkpt><trkpt lat="55.7161922" lon="13.9776028"></trkpt><trkpt lat="55.7164043" lon="13.9777709"></trkpt><trkpt lat="55.7164494" lon="13.9778633"></trkpt><trkpt lat="55.7165772" lon="13.9781251"></trkpt><trkpt lat="55.7166735" lon="13.9783243"></trkpt><trkpt lat="55.7166990" lon="13.9784982"></trkpt><trkpt lat="55.7168019" lon="13.9787565"></trkpt><trkpt lat="55.7169078" lon="13.9790384"></trkpt><trkpt lat="55.7169490" lon="13.9791374"></trkpt><trkpt lat="55.7169816" lon="13.9792326"></trkpt><trkpt lat="55.7169253" lon="13.9794916"></trkpt><trkpt lat="55.7168669" lon="13.9796019"></trkpt><trkpt lat="55.7167790" lon="13.9798617"></trkpt><trkpt lat="55.7167555" lon="13.9800906"></trkpt><trkpt lat="55.7167878" lon="13.9803767"></trkpt><trkpt lat="55.7167561" lon="13.9810859"></trkpt><trkpt lat="55.7166711" lon="13.9817687"></trkpt><trkpt lat="55.7164806" lon="13.9814458"></trkpt><trkpt lat="55.7163423" lon="13.9813266"></trkpt><trkpt lat="55.7164806" lon="13.9814458"></trkpt><trkpt lat="55.7166711" lon="13.9817687"></trkpt><trkpt lat="55.7167561" lon="13.9810859"></trkpt><trkpt lat="55.7167878" lon="13.9803767"></trkpt><trkpt lat="55.7167555" lon="13.9800906"></trkpt><trkpt lat="55.7167790" lon="13.9798617"></trkpt><trkpt lat="55.7168669" lon="13.9796019"></trkpt><trkpt lat="55.7169253" lon="13.9794916"></trkpt><trkpt lat="55.7169816" lon="13.9792326"></trkpt><trkpt lat="55.7169490" lon="13.9791374"></trkpt><trkpt lat="55.7169078" lon="13.9790384"></trkpt><trkpt lat="55.7168019" lon="13.9787565"></trkpt><trkpt lat="55.7166990" lon="13.9784982"></trkpt><trkpt lat="55.7166735" lon="13.9783243"></trkpt><trkpt lat="55.7165772" lon="13.9781251"></trkpt><trkpt lat="55.7164494" lon="13.9778633"></trkpt><trkpt lat="55.7163588" lon="13.9783055"></trkpt><trkpt lat="55.7162726" lon="13.9785200"></trkpt><trkpt lat="55.7161321" lon="13.9786756"></trkpt><trkpt lat="55.7158798" lon="13.9789626"></trkpt><trkpt lat="55.7156124" lon="13.9793032"></trkpt><trkpt lat="55.7153858" lon="13.9796922"></trkpt><trkpt lat="55.7152180" lon="13.9799711"></trkpt><trkpt lat="55.7150534" lon="13.9803278"></trkpt><trkpt lat="55.7148388" lon="13.9808670"></trkpt><trkpt lat="55.7147119" lon="13.9812049"></trkpt><trkpt lat="55.7145170" lon="13.9815724"></trkpt><trkpt lat="55.7144565" lon="13.9818433"></trkpt><trkpt lat="55.7142858" lon="13.9824977"></trkpt><trkpt lat="55.7141075" lon="13.9830878"></trkpt><trkpt lat="55.7140318" lon="13.9832978"></trkpt><trkpt lat="55.7140084" lon="13.9833628"></trkpt><trkpt lat="55.7140571" lon="13.9837884"></trkpt><trkpt lat="55.7140661" lon="13.9841380"></trkpt><trkpt lat="55.7140644" lon="13.9842665"></trkpt><trkpt lat="55.7140604" lon="13.9842911"></trkpt><trkpt lat="55.7140336" lon="13.9844545"></trkpt><trkpt lat="55.7139878" lon="13.9846463"></trkpt><trkpt lat="55.7142298" lon="13.9849237"></trkpt><trkpt lat="55.7144815" lon="13.9853821"></trkpt><trkpt lat="55.7146474" lon="13.9857096"></trkpt><trkpt lat="55.7145460" lon="13.9859997"></trkpt><trkpt lat="55.7144128" lon="13.9862564"></trkpt><trkpt lat="55.7142817" lon="13.9865141"></trkpt><trkpt lat="55.7142143" lon="13.9867058"></trkpt><trkpt lat="55.7140662" lon="13.9871882"></trkpt><trkpt lat="55.7138921" lon="13.9874931"></trkpt><trkpt lat="55.7136537" lon="13.9879680"></trkpt><trkpt lat="55.7135163" lon="13.9883947"></trkpt><trkpt lat="55.7135016" lon="13.9886856"></trkpt><trkpt lat="55.7135198" lon="13.9889109"></trkpt><trkpt lat="55.7136620" lon="13.9888186"></trkpt><trkpt lat="55.7138565" lon="13.9887163"></trkpt><trkpt lat="55.7136620" lon="13.9888186"></trkpt><trkpt lat="55.7135198" lon="13.9889109"></trkpt><trkpt lat="55.7134475" lon="13.9890216"></trkpt><trkpt lat="55.7132123" lon="13.9891897"></trkpt><trkpt lat="55.7129992" lon="13.9893324"></trkpt><trkpt lat="55.7127340" lon="13.9894044"></trkpt><trkpt lat="55.7124439" lon="13.9895707"></trkpt><trkpt lat="55.7122566" lon="13.9897370"></trkpt><trkpt lat="55.7120921" lon="13.9898856"></trkpt><trkpt lat="55.7119103" lon="13.9901714"></trkpt><trkpt lat="55.7118002" lon="13.9906007"></trkpt><trkpt lat="55.7117624" lon="13.9910047"></trkpt><trkpt lat="55.7118456" lon="13.9915824"></trkpt><trkpt lat="55.7118651" lon="13.9924638"></trkpt><trkpt lat="55.7118335" lon="13.9929986"></trkpt><trkpt lat="55.7117648" lon="13.9934164"></trkpt><trkpt lat="55.7116363" lon="13.9939533"></trkpt><trkpt lat="55.7115061" lon="13.9943783"></trkpt><trkpt lat="55.7115597" lon="13.9944478"></trkpt><trkpt lat="55.7117071" lon="13.9940556"></trkpt><trkpt lat="55.7118000" lon="13.9937005"></trkpt><trkpt lat="55.7121530" lon="13.9922505"></trkpt><trkpt lat="55.7122638" lon="13.9920450"></trkpt><trkpt lat="55.7124117" lon="13.9920564"></trkpt><trkpt lat="55.7125083" lon="13.9921387"></trkpt><trkpt lat="55.7131295" lon="13.9928354"></trkpt><trkpt lat="55.7125083" lon="13.9921387"></trkpt><trkpt lat="55.7124117" lon="13.9920564"></trkpt><trkpt lat="55.7122638" lon="13.9920450"></trkpt><trkpt lat="55.7121530" lon="13.9922505"></trkpt><trkpt lat="55.7118000" lon="13.9937005"></trkpt><trkpt lat="55.7117071" lon="13.9940556"></trkpt><trkpt lat="55.7115597" lon="13.9944478"></trkpt><trkpt lat="55.7115061" lon="13.9943783"></trkpt><trkpt lat="55.7112284" lon="13.9949290"></trkpt><trkpt lat="55.7110024" lon="13.9950424"></trkpt><trkpt lat="55.7107418" lon="13.9950789"></trkpt><trkpt lat="55.7104071" lon="13.9950912"></trkpt><trkpt lat="55.7099894" lon="13.9951661"></trkpt><trkpt lat="55.7096932" lon="13.9953055"></trkpt><trkpt lat="55.7095124" lon="13.9955574"></trkpt><trkpt lat="55.7093469" lon="13.9957661"></trkpt><trkpt lat="55.7091498" lon="13.9959437"></trkpt><trkpt lat="55.7090100" lon="13.9960934"></trkpt><trkpt lat="55.7089594" lon="13.9965069"></trkpt><trkpt lat="55.7089114" lon="13.9969156"></trkpt><trkpt lat="55.7089028" lon="13.9974581"></trkpt><trkpt lat="55.7089540" lon="13.9978051"></trkpt><trkpt lat="55.7090893" lon="13.9980733"></trkpt><trkpt lat="55.7091619" lon="13.9982557"></trkpt><trkpt lat="55.7091808" lon="13.9985072"></trkpt><trkpt lat="55.7090380" lon="13.9988458"></trkpt><trkpt lat="55.7088981" lon="13.9990069"></trkpt><trkpt lat="55.7086855" lon="13.9991498"></trkpt><trkpt lat="55.7084818" lon="13.9992106"></trkpt><trkpt lat="55.7084157" lon="13.9992074"></trkpt><trkpt lat="55.7084063" lon="13.9993622"></trkpt><trkpt lat="55.7084032" lon="13.9994513"></trkpt><trkpt lat="55.7083702" lon="13.9995864"></trkpt><trkpt lat="55.7083208" lon="13.9997604"></trkpt><trkpt lat="55.7083130" lon="13.9998885"></trkpt><trkpt lat="55.7083491" lon="14.0000583"></trkpt><trkpt lat="55.7083389" lon="14.0001725"></trkpt><trkpt lat="55.7082840" lon="14.0003772"></trkpt><trkpt lat="55.7082447" lon="14.0005940"></trkpt><trkpt lat="55.7082080" lon="14.0007823"></trkpt><trkpt lat="55.7082152" lon="14.0008957"></trkpt><trkpt lat="55.7082399" lon="14.0010016"></trkpt><trkpt lat="55.7082520" lon="14.0011717"></trkpt><trkpt lat="55.7082893" lon="14.0014991"></trkpt><trkpt lat="55.7082699" lon="14.0015950"></trkpt><trkpt lat="55.7083023" lon="14.0017515"></trkpt><trkpt lat="55.7084037" lon="14.0019106"></trkpt><trkpt lat="55.7085683" lon="14.0019863"></trkpt><trkpt lat="55.7086962" lon="14.0019263"></trkpt><trkpt lat="55.7087917" lon="14.0020046"></trkpt><trkpt lat="55.7088990" lon="14.0022446"></trkpt><trkpt lat="55.7090328" lon="14.0024976"></trkpt><trkpt lat="55.7091019" lon="14.0026542"></trkpt><trkpt lat="55.7092606" lon="14.0029333"></trkpt><trkpt lat="55.7093841" lon="14.0030194"></trkpt><trkpt lat="55.7094825" lon="14.0032594"></trkpt><trkpt lat="55.7096854" lon="14.0035855"></trkpt><trkpt lat="55.7099152" lon="14.0039778"></trkpt><trkpt lat="55.7100515" lon="14.0044772"></trkpt><trkpt lat="55.7100689" lon="14.0046004"></trkpt><trkpt lat="55.7100466" lon="14.0047654"></trkpt><trkpt lat="55.7100639" lon="14.0054077"></trkpt><trkpt lat="55.7100825" lon="14.0058279"></trkpt><trkpt lat="55.7100627" lon="14.0060545"></trkpt><trkpt lat="55.7100912" lon="14.0062547"></trkpt><trkpt lat="55.7101383" lon="14.0065209"></trkpt><trkpt lat="55.7101562" lon="14.0068173"></trkpt><trkpt lat="55.7101773" lon="14.0071016"></trkpt><trkpt lat="55.7102287" lon="14.0074989"></trkpt><trkpt lat="55.7102106" lon="14.0078849"></trkpt><trkpt lat="55.7101934" lon="14.0081141"></trkpt><trkpt lat="55.7097530" lon="14.0093077"></trkpt><trkpt lat="55.7097767" lon="14.0094147"></trkpt><trkpt lat="55.7097025" lon="14.0095633"></trkpt><trkpt lat="55.7094540" lon="14.0098816"></trkpt><trkpt lat="55.7091726" lon="14.0102067"></trkpt><trkpt lat="55.7089613" lon="14.0104327"></trkpt><trkpt lat="55.7088492" lon="14.0106525"></trkpt><trkpt lat="55.7087890" lon="14.0108408"></trkpt><trkpt lat="55.7087357" lon="14.0110290"></trkpt><trkpt lat="55.7084235" lon="14.0109053"></trkpt><trkpt lat="55.7083440" lon="14.0108738"></trkpt><trkpt lat="55.7081691" lon="14.0108045"></trkpt><trkpt lat="55.7083340" lon="14.0088026"></trkpt><trkpt lat="55.7085483" lon="14.0076971"></trkpt><trkpt lat="55.7085573" lon="14.0074027"></trkpt><trkpt lat="55.7085121" lon="14.0069514"></trkpt><trkpt lat="55.7085046" lon="14.0064837"></trkpt><trkpt lat="55.7084813" lon="14.0060369"></trkpt><trkpt lat="55.7083924" lon="14.0054921"></trkpt><trkpt lat="55.7084813" lon="14.0060369"></trkpt><trkpt lat="55.7085046" lon="14.0064837"></trkpt><trkpt lat="55.7085121" lon="14.0069514"></trkpt><trkpt lat="55.7085573" lon="14.0074027"></trkpt><trkpt lat="55.7085483" lon="14.0076971"></trkpt><trkpt lat="55.7083340" lon="14.0088026"></trkpt><trkpt lat="55.7081691" lon="14.0108045"></trkpt><trkpt lat="55.7083440" lon="14.0108738"></trkpt><trkpt lat="55.7084235" lon="14.0109053"></trkpt><trkpt lat="55.7087357" lon="14.0110290"></trkpt><trkpt lat="55.7087890" lon="14.0108408"></trkpt><trkpt lat="55.7088492" lon="14.0106525"></trkpt><trkpt lat="55.7089613" lon="14.0104327"></trkpt><trkpt lat="55.7091726" lon="14.0102067"></trkpt><trkpt lat="55.7089613" lon="14.0104327"></trkpt><trkpt lat="55.7088492" lon="14.0106525"></trkpt><trkpt lat="55.7087890" lon="14.0108408"></trkpt><trkpt lat="55.7087357" lon="14.0110290"></trkpt><trkpt lat="55.7089063" lon="14.0119593"></trkpt><trkpt lat="55.7089302" lon="14.0125927"></trkpt><trkpt lat="55.7090166" lon="14.0132481"></trkpt><trkpt lat="55.7091278" lon="14.0137122"></trkpt><trkpt lat="55.7092330" lon="14.0144366"></trkpt><trkpt lat="55.7091161" lon="14.0161961"></trkpt><trkpt lat="55.7092034" lon="14.0159953"></trkpt><trkpt lat="55.7092991" lon="14.0157137"></trkpt><trkpt lat="55.7093668" lon="14.0152871"></trkpt><trkpt lat="55.7094321" lon="14.0147032"></trkpt><trkpt lat="55.7095021" lon="14.0140489"></trkpt><trkpt lat="55.7094321" lon="14.0147032"></trkpt><trkpt lat="55.7093668" lon="14.0152871"></trkpt><trkpt lat="55.7092991" lon="14.0157137"></trkpt><trkpt lat="55.7092034" lon="14.0159953"></trkpt><trkpt lat="55.7091161" lon="14.0161961"></trkpt><trkpt lat="55.7090670" lon="14.0166058"></trkpt><trkpt lat="55.7088633" lon="14.0173161"></trkpt><trkpt lat="55.7086511" lon="14.0175013"></trkpt><trkpt lat="55.7086176" lon="14.0175305"></trkpt><trkpt lat="55.7085179" lon="14.0178360"></trkpt><trkpt lat="55.7084817" lon="14.0182541"></trkpt><trkpt lat="55.7088078" lon="14.0194760"></trkpt><trkpt lat="55.7089108" lon="14.0197555"></trkpt><trkpt lat="55.7091127" lon="14.0203753"></trkpt><trkpt lat="55.7091837" lon="14.0205934"></trkpt><trkpt lat="55.7092924" lon="14.0210523"></trkpt><trkpt lat="55.7093068" lon="14.0211167"></trkpt><trkpt lat="55.7094270" lon="14.0214241"></trkpt><trkpt lat="55.7090834" lon="14.0220256"></trkpt><trkpt lat="55.7087691" lon="14.0226050"></trkpt><trkpt lat="55.7086506" lon="14.0229711"></trkpt><trkpt lat="55.7086143" lon="14.0230886"></trkpt><trkpt lat="55.7085122" lon="14.0234150"></trkpt><trkpt lat="55.7086143" lon="14.0230886"></trkpt><trkpt lat="55.7086506" lon="14.0229711"></trkpt><trkpt lat="55.7087691" lon="14.0226050"></trkpt><trkpt lat="55.7090834" lon="14.0220256"></trkpt><trkpt lat="55.7094270" lon="14.0214241"></trkpt><trkpt lat="55.7093068" lon="14.0211167"></trkpt><trkpt lat="55.7092924" lon="14.0210523"></trkpt><trkpt lat="55.7091837" lon="14.0205934"></trkpt><trkpt lat="55.7091127" lon="14.0203753"></trkpt><trkpt lat="55.7089108" lon="14.0197555"></trkpt><trkpt lat="55.7088078" lon="14.0194760"></trkpt><trkpt lat="55.7084817" lon="14.0182541"></trkpt><trkpt lat="55.7085179" lon="14.0178360"></trkpt><trkpt lat="55.7086176" lon="14.0175305"></trkpt><trkpt lat="55.7086511" lon="14.0175013"></trkpt><trkpt lat="55.7085678" lon="14.0173069"></trkpt><trkpt lat="55.7084688" lon="14.0169825"></trkpt><trkpt lat="55.7083913" lon="14.0170129"></trkpt><trkpt lat="55.7083117" lon="14.0170999"></trkpt><trkpt lat="55.7081928" lon="14.0170919"></trkpt><trkpt lat="55.7081056" lon="14.0171950"></trkpt><trkpt lat="55.7080990" lon="14.0172039"></trkpt><trkpt lat="55.7080729" lon="14.0171216"></trkpt><trkpt lat="55.7080085" lon="14.0167483"></trkpt><trkpt lat="55.7080402" lon="14.0163111"></trkpt><trkpt lat="55.7080689" lon="14.0157506"></trkpt><trkpt lat="55.7081037" lon="14.0152114"></trkpt><trkpt lat="55.7081823" lon="14.0146589"></trkpt><trkpt lat="55.7082548" lon="14.0141225"></trkpt><trkpt lat="55.7083908" lon="14.0134090"></trkpt><trkpt lat="55.7083878" lon="14.0131193"></trkpt><trkpt lat="55.7082760" lon="14.0126848"></trkpt><trkpt lat="55.7081611" lon="14.0124059"></trkpt><trkpt lat="55.7081128" lon="14.0121108"></trkpt><trkpt lat="55.7080976" lon="14.0115636"></trkpt><trkpt lat="55.7081691" lon="14.0108045"></trkpt><trkpt lat="55.7083340" lon="14.0088026"></trkpt><trkpt lat="55.7085483" lon="14.0076971"></trkpt><trkpt lat="55.7085573" lon="14.0074027"></trkpt><trkpt lat="55.7085121" lon="14.0069514"></trkpt><trkpt lat="55.7085046" lon="14.0064837"></trkpt><trkpt lat="55.7084813" lon="14.0060369"></trkpt><trkpt lat="55.7083924" lon="14.0054921"></trkpt><trkpt lat="55.7082584" lon="14.0049201"></trkpt><trkpt lat="55.7082416" lon="14.0047965"></trkpt><trkpt lat="55.7080043" lon="14.0041351"></trkpt><trkpt lat="55.7077958" lon="14.0031695"></trkpt><trkpt lat="55.7076719" lon="14.0025419"></trkpt><trkpt lat="55.7074694" lon="14.0021503"></trkpt><trkpt lat="55.7072898" lon="14.0015639"></trkpt><trkpt lat="55.7071756" lon="14.0008196"></trkpt><trkpt lat="55.7071793" lon="14.0003394"></trkpt><trkpt lat="55.7072427" lon="13.9998382"></trkpt><trkpt lat="55.7072941" lon="13.9992911"></trkpt><trkpt lat="55.7073061" lon="13.9988190"></trkpt><trkpt lat="55.7072455" lon="13.9981826"></trkpt><trkpt lat="55.7071981" lon="13.9979045"></trkpt><trkpt lat="55.7073881" lon="13.9976773"></trkpt><trkpt lat="55.7073477" lon="13.9975185"></trkpt><trkpt lat="55.7073817" lon="13.9973009"></trkpt><trkpt lat="55.7073605" lon="13.9970541"></trkpt><trkpt lat="55.7073515" lon="13.9967859"></trkpt><trkpt lat="55.7074240" lon="13.9963567"></trkpt><trkpt lat="55.7075449" lon="13.9959598"></trkpt><trkpt lat="55.7076870" lon="13.9954126"></trkpt><trkpt lat="55.7078472" lon="13.9947367"></trkpt><trkpt lat="55.7079650" lon="13.9942378"></trkpt><trkpt lat="55.7081464" lon="13.9937657"></trkpt><trkpt lat="55.7082552" lon="13.9934331"></trkpt><trkpt lat="55.7082975" lon="13.9930040"></trkpt><trkpt lat="55.7083851" lon="13.9926177"></trkpt><trkpt lat="55.7084123" lon="13.9923710"></trkpt><trkpt lat="55.7083830" lon="13.9916544"></trkpt><trkpt lat="55.7084453" lon="13.9910971"></trkpt><trkpt lat="55.7085171" lon="13.9907441"></trkpt><trkpt lat="55.7086370" lon="13.9906262"></trkpt><trkpt lat="55.7088445" lon="13.9907455"></trkpt><trkpt lat="55.7090833" lon="13.9908528"></trkpt><trkpt lat="55.7092223" lon="13.9908582"></trkpt><trkpt lat="55.7093613" lon="13.9906007"></trkpt><trkpt lat="55.7094973" lon="13.9902949"></trkpt><trkpt lat="55.7098026" lon="13.9897370"></trkpt><trkpt lat="55.7100051" lon="13.9892381"></trkpt><trkpt lat="55.7101864" lon="13.9888251"></trkpt><trkpt lat="55.7104100" lon="13.9882028"></trkpt><trkpt lat="55.7106820" lon="13.9876342"></trkpt><trkpt lat="55.7108513" lon="13.9874947"></trkpt><trkpt lat="55.7111595" lon="13.9874732"></trkpt><trkpt lat="55.7114406" lon="13.9874464"></trkpt><trkpt lat="55.7116914" lon="13.9873660"></trkpt><trkpt lat="55.7120480" lon="13.9873445"></trkpt><trkpt lat="55.7123684" lon="13.9873123"></trkpt><trkpt lat="55.7127340" lon="13.9872533"></trkpt><trkpt lat="55.7130393" lon="13.9872479"></trkpt><trkpt lat="55.7132448" lon="13.9871943"></trkpt><trkpt lat="55.7134019" lon="13.9869100"></trkpt><trkpt lat="55.7135228" lon="13.9866418"></trkpt><trkpt lat="55.7136134" lon="13.9865237"></trkpt><trkpt lat="55.7137978" lon="13.9861590"></trkpt><trkpt lat="55.7138038" lon="13.9858371"></trkpt><trkpt lat="55.7138658" lon="13.9854401"></trkpt><trkpt lat="55.7139035" lon="13.9850458"></trkpt><trkpt lat="55.7139878" lon="13.9846463"></trkpt><trkpt lat="55.7142298" lon="13.9849237"></trkpt><trkpt lat="55.7144815" lon="13.9853821"></trkpt><trkpt lat="55.7146474" lon="13.9857096"></trkpt><trkpt lat="55.7145460" lon="13.9859997"></trkpt><trkpt lat="55.7144128" lon="13.9862564"></trkpt><trkpt lat="55.7142817" lon="13.9865141"></trkpt><trkpt lat="55.7142143" lon="13.9867058"></trkpt><trkpt lat="55.7140662" lon="13.9871882"></trkpt><trkpt lat="55.7138921" lon="13.9874931"></trkpt><trkpt lat="55.7136537" lon="13.9879680"></trkpt><trkpt lat="55.7135163" lon="13.9883947"></trkpt><trkpt lat="55.7135016" lon="13.9886856"></trkpt><trkpt lat="55.7135198" lon="13.9889109"></trkpt><trkpt lat="55.7134475" lon="13.9890216"></trkpt><trkpt lat="55.7132123" lon="13.9891897"></trkpt><trkpt lat="55.7129992" lon="13.9893324"></trkpt><trkpt lat="55.7127340" lon="13.9894044"></trkpt><trkpt lat="55.7129992" lon="13.9893324"></trkpt><trkpt lat="55.7132123" lon="13.9891897"></trkpt><trkpt lat="55.7134475" lon="13.9890216"></trkpt><trkpt lat="55.7135198" lon="13.9889109"></trkpt><trkpt lat="55.7135016" lon="13.9886856"></trkpt><trkpt lat="55.7135163" lon="13.9883947"></trkpt><trkpt lat="55.7136537" lon="13.9879680"></trkpt><trkpt lat="55.7138921" lon="13.9874931"></trkpt><trkpt lat="55.7140662" lon="13.9871882"></trkpt><trkpt lat="55.7142143" lon="13.9867058"></trkpt><trkpt lat="55.7142817" lon="13.9865141"></trkpt><trkpt lat="55.7144128" lon="13.9862564"></trkpt><trkpt lat="55.7145460" lon="13.9859997"></trkpt><trkpt lat="55.7146474" lon="13.9857096"></trkpt><trkpt lat="55.7144815" lon="13.9853821"></trkpt><trkpt lat="55.7142298" lon="13.9849237"></trkpt><trkpt lat="55.7139878" lon="13.9846463"></trkpt><trkpt lat="55.7140336" lon="13.9844545"></trkpt><trkpt lat="55.7140604" lon="13.9842911"></trkpt><trkpt lat="55.7140644" lon="13.9842665"></trkpt><trkpt lat="55.7140661" lon="13.9841380"></trkpt><trkpt lat="55.7140571" lon="13.9837884"></trkpt><trkpt lat="55.7140084" lon="13.9833628"></trkpt><trkpt lat="55.7140318" lon="13.9832978"></trkpt><trkpt lat="55.7141075" lon="13.9830878"></trkpt><trkpt lat="55.7142858" lon="13.9824977"></trkpt><trkpt lat="55.7144565" lon="13.9818433"></trkpt><trkpt lat="55.7145170" lon="13.9815724"></trkpt><trkpt lat="55.7147119" lon="13.9812049"></trkpt><trkpt lat="55.7148388" lon="13.9808670"></trkpt><trkpt lat="55.7150534" lon="13.9803278"></trkpt><trkpt lat="55.7152180" lon="13.9799711"></trkpt><trkpt lat="55.7153858" lon="13.9796922"></trkpt><trkpt lat="55.7156124" lon="13.9793032"></trkpt><trkpt lat="55.7158798" lon="13.9789626"></trkpt><trkpt lat="55.7161321" lon="13.9786756"></trkpt><trkpt lat="55.7162726" lon="13.9785200"></trkpt><trkpt lat="55.7163588" lon="13.9783055"></trkpt><trkpt lat="55.7164494" lon="13.9778633"></trkpt><trkpt lat="55.7165772" lon="13.9781251"></trkpt><trkpt lat="55.7164494" lon="13.9778633"></trkpt><trkpt lat="55.7164043" lon="13.9777709"></trkpt><trkpt lat="55.7161922" lon="13.9776028"></trkpt><trkpt lat="55.7161099" lon="13.9774404"></trkpt><trkpt lat="55.7162774" lon="13.9772662"></trkpt><trkpt lat="55.7165329" lon="13.9769619"></trkpt><trkpt lat="55.7165921" lon="13.9766912"></trkpt><trkpt lat="55.7166985" lon="13.9757182"></trkpt><trkpt lat="55.7167715" lon="13.9750501"></trkpt><trkpt lat="55.7168602" lon="13.9746757"></trkpt><trkpt lat="55.7168918" lon="13.9744750"></trkpt><trkpt lat="55.7170030" lon="13.9739600"></trkpt><trkpt lat="55.7171900" lon="13.9731586"></trkpt><trkpt lat="55.7173217" lon="13.9728391"></trkpt><trkpt lat="55.7174774" lon="13.9724576"></trkpt><trkpt lat="55.7175204" lon="13.9722001"></trkpt><trkpt lat="55.7174962" lon="13.9720045"></trkpt><trkpt lat="55.7174318" lon="13.9717470"></trkpt><trkpt lat="55.7173351" lon="13.9714037"></trkpt><trkpt lat="55.7173079" lon="13.9711851"></trkpt><trkpt lat="55.7168973" lon="13.9708410"></trkpt><trkpt lat="55.7164352" lon="13.9705007"></trkpt><trkpt lat="55.7163749" lon="13.9704563"></trkpt><trkpt lat="55.7162450" lon="13.9703806"></trkpt><trkpt lat="55.7160950" lon="13.9702957"></trkpt><trkpt lat="55.7159998" lon="13.9702748"></trkpt><trkpt lat="55.7160322" lon="13.9699752"></trkpt><trkpt lat="55.7161198" lon="13.9696372"></trkpt><trkpt lat="55.7162800" lon="13.9691705"></trkpt><trkpt lat="55.7163933" lon="13.9687387"></trkpt><trkpt lat="55.7165202" lon="13.9685295"></trkpt><trkpt lat="55.7166305" lon="13.9681915"></trkpt><trkpt lat="55.7167468" lon="13.9678589"></trkpt><trkpt lat="55.7167967" lon="13.9673922"></trkpt><trkpt lat="55.7168330" lon="13.9672098"></trkpt><trkpt lat="55.7169417" lon="13.9669845"></trkpt><trkpt lat="55.7170535" lon="13.9668477"></trkpt><trkpt lat="55.7170687" lon="13.9665178"></trkpt><trkpt lat="55.7171004" lon="13.9662925"></trkpt><trkpt lat="55.7171986" lon="13.9660913"></trkpt><trkpt lat="55.7172421" lon="13.9659594"></trkpt><trkpt lat="55.7172613" lon="13.9658252"></trkpt><trkpt lat="55.7172539" lon="13.9657306"></trkpt><trkpt lat="55.7172384" lon="13.9656150"></trkpt><trkpt lat="55.7172068" lon="13.9655204"></trkpt><trkpt lat="55.7171931" lon="13.9654247"></trkpt><trkpt lat="55.7172039" lon="13.9653041"></trkpt><trkpt lat="55.7172368" lon="13.9651723"></trkpt><trkpt lat="55.7172996" lon="13.9650633"></trkpt><trkpt lat="55.7173310" lon="13.9649771"></trkpt><trkpt lat="55.7173168" lon="13.9648833"></trkpt><trkpt lat="55.7172468" lon="13.9647717"></trkpt><trkpt lat="55.7171382" lon="13.9645232"></trkpt><trkpt lat="55.7170211" lon="13.9642367"></trkpt><trkpt lat="55.7168869" lon="13.9640465"></trkpt><trkpt lat="55.7168198" lon="13.9637195"></trkpt><trkpt lat="55.7167726" lon="13.9633924"></trkpt><trkpt lat="55.7167826" lon="13.9629664"></trkpt><trkpt lat="55.7169056" lon="13.9629987"></trkpt><trkpt lat="55.7172319" lon="13.9633437"></trkpt><trkpt lat="55.7176345" lon="13.9634177"></trkpt><trkpt lat="55.7178775" lon="13.9632452"></trkpt><trkpt lat="55.7180927" lon="13.9627768"></trkpt><trkpt lat="55.7182940" lon="13.9626289"></trkpt><trkpt lat="55.7183634" lon="13.9623578"></trkpt><trkpt lat="55.7184766" lon="13.9616043"></trkpt><trkpt lat="55.7184867" lon="13.9614428"></trkpt><trkpt lat="55.7185321" lon="13.9607163"></trkpt><trkpt lat="55.7182433" lon="13.9606963"></trkpt></trkseg></trk></gpx>
