{
  "type": "Feature",
  "properties": {
    "name": "ÖST Trail 13/14 km organizer-raster topology",
    "status": "georeferenced_organizer_raster_reference",
    "distance_km": 14.249,
    "provenance": "organizer raster + participant Hallamölla direction control",
    "not_an_organizer_gpx": true
  },
  "geometry": {
    "type": "LineString",
    "coordinates": [
      [
        13.960691926756773,
        55.717843516151135
      ],
      [
        13.960693372606821,
        55.717790043640186
      ],
      [
        13.960594569172361,
        55.717735725630874
      ],
      [
        13.960596015180409,
        55.71768225317502
      ],
      [
        13.960597461182672,
        55.71762878075309
      ],
      [
        13.960598907179149,
        55.71757530836509
      ],
      [
        13.960600353169843,
        55.71752183601102
      ],
      [
        13.96060179915475,
        55.71746836369088
      ],
      [
        13.960603245133873,
        55.71741489140467
      ],
      [
        13.960504442965519,
        55.71736057344844
      ],
      [
        13.96050588910264,
        55.71730710121733
      ],
      [
        13.960507335233975,
        55.71725362902013
      ],
      [
        13.960408533676567,
        55.71719931103237
      ],
      [
        13.960309732402537,
        55.717144992970724
      ],
      [
        13.96020948478921,
        55.71714414696892
      ],
      [
        13.960109237125916,
        55.71714330088484
      ],
      [
        13.960008989412659,
        55.7171424547185
      ],
      [
        13.959908741649436,
        55.717141608469895
      ],
      [
        13.959808493836245,
        55.71714076213901
      ],
      [
        13.959706798496793,
        55.71719338795733
      ],
      [
        13.959605102762449,
        55.717246013752835
      ],
      [
        13.959503406633214,
        55.71729863952553
      ],
      [
        13.959403158111463,
        55.71729779290388
      ],
      [
        13.959302909539753,
        55.71729694619996
      ],
      [
        13.959202660918077,
        55.71729609941377
      ],
      [
        13.959100963735349,
        55.717348724955144
      ],
      [
        13.95900071484418,
        55.717347878017186
      ],
      [
        13.958900465903051,
        55.71734703099695
      ],
      [
        13.95880021691196,
        55.717346183894456
      ],
      [
        13.958701417060283,
        55.7172918642488
      ],
      [
        13.958601168138845,
        55.71729101696899
      ],
      [
        13.958500919167445,
        55.71729016960692
      ],
      [
        13.958400670146089,
        55.717289322162586
      ],
      [
        13.958301870936634,
        55.71723500215795
      ],
      [
        13.958201621984932,
        55.7172341545363
      ],
      [
        13.958101372983272,
        55.71723330683239
      ],
      [
        13.958002574296428,
        55.717178986563844
      ],
      [
        13.957902325364426,
        55.71717813868263
      ],
      [
        13.95780352708058,
        55.717123818245184
      ],
      [
        13.957704729080119,
        55.717069497733874
      ],
      [
        13.957604480337395,
        55.71706864958033
      ],
      [
        13.957505682739926,
        55.71701432890013
      ],
      [
        13.95740688542584,
        55.71696000814607
      ],
      [
        13.95740833677901,
        55.71690653575676
      ],
      [
        13.957309539912064,
        55.71685221495
      ],
      [
        13.957210743328497,
        55.716797894069394
      ],
      [
        13.957111947028306,
        55.71674357311492
      ],
      [
        13.95701315101149,
        55.71668925208659
      ],
      [
        13.956914355278048,
        55.716634930984384
      ],
      [
        13.956814107492253,
        55.716634082070605
      ],
      [
        13.956713859656512,
        55.716633233074546
      ],
      [
        13.956615064445677,
        55.716578911708446
      ],
      [
        13.956514816679606,
        55.716578062535085
      ],
      [
        13.956416021871764,
        55.7165237410001
      ],
      [
        13.956315774175362,
        55.71652289164946
      ],
      [
        13.95621697977051,
        55.71646856994559
      ],
      [
        13.956116732143784,
        55.71646772041763
      ],
      [
        13.956017938141922,
        55.71641339854488
      ],
      [
        13.95591914442343,
        55.71635907659826
      ],
      [
        13.955820350988306,
        55.716304754577784
      ],
      [
        13.955821804984799,
        55.71625128239152
      ],
      [
        13.95572301199679,
        55.71619696031836
      ],
      [
        13.955622764968163,
        55.716196110315295
      ],
      [
        13.955523972383142,
        55.716141788073266
      ],
      [
        13.955423725424197,
        55.716140937892895
      ],
      [
        13.955324933242162,
        55.716086615481984
      ],
      [
        13.955224686352897,
        55.716085765124326
      ],
      [
        13.955124439413694,
        55.7160849146844
      ],
      [
        13.955024192424553,
        55.716084064162196
      ],
      [
        13.954923945385472,
        55.716083213557724
      ],
      [
        13.954823698296453,
        55.71608236287099
      ],
      [
        13.954723451157497,
        55.71608151210199
      ],
      [
        13.954623203968605,
        55.7160806612507
      ],
      [
        13.954522956729775,
        55.71607981031715
      ],
      [
        13.95442270944101,
        55.71607895930133
      ],
      [
        13.95432246210231,
        55.71607810820324
      ],
      [
        13.954222214713676,
        55.71607725702289
      ],
      [
        13.954121967275105,
        55.71607640576026
      ],
      [
        13.954021719786601,
        55.71607555441536
      ],
      [
        13.95392001504743,
        55.71612817531504
      ],
      [
        13.953819767289495,
        55.71612732381835
      ],
      [
        13.953719519481627,
        55.71612647223939
      ],
      [
        13.953619271623829,
        55.71612562057816
      ],
      [
        13.953519023716096,
        55.71612476883466
      ],
      [
        13.953418775758433,
        55.716123917008886
      ],
      [
        13.953318527750838,
        55.71612306510084
      ],
      [
        13.953216821299796,
        55.716175685560565
      ],
      [
        13.953116573022776,
        55.71617483350072
      ],
      [
        13.953016324695826,
        55.716173981358615
      ],
      [
        13.952916076318946,
        55.71617312913423
      ],
      [
        13.952814368814519,
        55.71622574936254
      ],
      [
        13.952714120168217,
        55.71622489698636
      ],
      [
        13.952613871471984,
        55.716224044527934
      ],
      [
        13.952513622725828,
        55.716223191987204
      ],
      [
        13.952413373929742,
        55.716222339364215
      ],
      [
        13.95231312508373,
        55.71622148665895
      ],
      [
        13.952212876187794,
        55.716220633871416
      ],
      [
        13.952112627241931,
        55.7162197810016
      ],
      [
        13.952012378246144,
        55.7162189280495
      ],
      [
        13.95191358980416,
        55.71616460236544
      ],
      [
        13.951813340878093,
        55.71616374923606
      ],
      [
        13.951714552839126,
        55.71610942338313
      ],
      [
        13.951615765083533,
        55.716055097456355
      ],
      [
        13.951617226178437,
        55.71600162487018
      ],
      [
        13.95151843886993,
        55.71594729889077
      ],
      [
        13.951519900122717,
        55.71589382635971
      ],
      [
        13.951421113261299,
        55.71583950032762
      ],
      [
        13.951422574671959,
        55.71578602785167
      ],
      [
        13.951424036076777,
        55.715732555409666
      ],
      [
        13.951325249826162,
        55.715678229346096
      ],
      [
        13.95122646385891,
        55.7156239032087
      ],
      [
        13.951227925585314,
        55.71557043084297
      ],
      [
        13.95112914006514,
        55.71551610465292
      ],
      [
        13.951130601949414,
        55.71546263234232
      ],
      [
        13.951031816876313,
        55.715408306099604
      ],
      [
        13.951033278918455,
        55.71535483384412
      ],
      [
        13.95093449429242,
        55.71530050754875
      ],
      [
        13.950935956492426,
        55.715247035348355
      ],
      [
        13.950937418686584,
        55.715193563181906
      ],
      [
        13.950838634671324,
        55.71513923685509
      ],
      [
        13.950840097023343,
        55.71508576474374
      ],
      [
        13.950841559369515,
        55.71503229266632
      ],
      [
        13.950843021709838,
        55.71497882062284
      ],
      [
        13.950744238469053,
        55.71492449428572
      ],
      [
        13.950745700967232,
        55.71487102229735
      ],
      [
        13.950747163459564,
        55.7148175503429
      ],
      [
        13.950648380829534,
        55.71476322397432
      ],
      [
        13.950549598482848,
        55.714708897531914
      ],
      [
        13.950450816419504,
        55.71465457101565
      ],
      [
        13.9503520346395,
        55.71460024442558
      ],
      [
        13.950353497780792,
        55.71454677258979
      ],
      [
        13.95025471644783,
        55.71449244594707
      ],
      [
        13.950154471929515,
        55.71449159102393
      ],
      [
        13.95005569099953,
        55.71443726421235
      ],
      [
        13.949956910352883,
        55.71438293732695
      ],
      [
        13.949858129989572,
        55.71432861036773
      ],
      [
        13.94975788578027,
        55.71432775507727
      ],
      [
        13.949659105819936,
        55.7142734279492
      ],
      [
        13.949560326142935,
        55.71421910074729
      ],
      [
        13.94946154674927,
        55.71416477347157
      ],
      [
        13.949362767638934,
        55.71411044612203
      ],
      [
        13.949263988811932,
        55.71405611869864
      ],
      [
        13.949165210268259,
        55.71400179120144
      ],
      [
        13.949064966726901,
        55.714000935258646
      ],
      [
        13.948966188586203,
        55.713946607592604
      ],
      [
        13.948865945114585,
        55.71394575147253
      ],
      [
        13.948767167376857,
        55.71389142363766
      ],
      [
        13.948666923974981,
        55.7138905673403
      ],
      [
        13.948568146640225,
        55.7138362393366
      ],
      [
        13.948467903308092,
        55.713835382861966
      ],
      [
        13.948369126376308,
        55.71378105468942
      ],
      [
        13.94827034972785,
        55.713726726443056
      ],
      [
        13.948170106585108,
        55.713725869696134
      ],
      [
        13.948071330339621,
        55.71367154128094
      ],
      [
        13.947972554377458,
        55.71361721279194
      ],
      [
        13.947873778698616,
        55.71356288422909
      ],
      [
        13.9477750033031,
        55.71350855559244
      ],
      [
        13.947676228190902,
        55.71345422688197
      ],
      [
        13.947677695786892,
        55.71340075541467
      ],
      [
        13.947578921121687,
        55.71334642665157
      ],
      [
        13.947480146739801,
        55.713292097814644
      ],
      [
        13.947481614657264,
        55.71323862642366
      ],
      [
        13.947382840722366,
        55.7131842975341
      ],
      [
        13.947384308797627,
        55.71313082619822
      ],
      [
        13.947285535309712,
        55.71307649725604
      ],
      [
        13.94728700354277,
        55.71302302597528
      ],
      [
        13.947188230501833,
        55.71296869698049
      ],
      [
        13.947189698892686,
        55.712915225754834
      ],
      [
        13.947090926298724,
        55.71286089670741
      ],
      [
        13.94709239484737,
        55.71280742553689
      ],
      [
        13.946993622700381,
        55.712753096436835
      ],
      [
        13.946995091406814,
        55.71269962532143
      ],
      [
        13.946896319706793,
        55.71264529616876
      ],
      [
        13.946897788571016,
        55.712591825108454
      ],
      [
        13.946799017317957,
        55.71253749590318
      ],
      [
        13.946700246348199,
        55.71248316662408
      ],
      [
        13.946701715533864,
        55.7124296956401
      ],
      [
        13.946602945011064,
        55.71237536630838
      ],
      [
        13.946504174771563,
        55.71232103690284
      ],
      [
        13.94640540481536,
        55.7122667074235
      ],
      [
        13.946305165302173,
        55.71226584876956
      ],
      [
        13.946206395748911,
        55.712211519121404
      ],
      [
        13.946106156305481,
        55.712210660290204
      ],
      [
        13.946005916812167,
        55.71220980137673
      ],
      [
        13.94590567726897,
        55.712208942381004
      ],
      [
        13.945803966987956,
        55.7122615542659
      ],
      [
        13.945702256312119,
        55.71231416612793
      ],
      [
        13.945600545241454,
        55.71236677796709
      ],
      [
        13.945599074196815,
        55.71242024905723
      ],
      [
        13.945497362555908,
        55.71247286092018
      ],
      [
        13.945495891329973,
        55.71252633209092
      ],
      [
        13.945494420098155,
        55.71257980329559
      ],
      [
        13.945492948860451,
        55.712633274534184
      ],
      [
        13.945491477616867,
        55.7126867458067
      ],
      [
        13.945490006367402,
        55.71274021711315
      ],
      [
        13.945488535112052,
        55.71279368845354
      ],
      [
        13.945487063850821,
        55.71284715982784
      ],
      [
        13.945485592583704,
        55.712900631236074
      ],
      [
        13.945484121310708,
        55.712954102678246
      ],
      [
        13.945482650031826,
        55.71300757415435
      ],
      [
        13.945481178747064,
        55.71306104566436
      ],
      [
        13.945479707456418,
        55.71311451720831
      ],
      [
        13.945377993315626,
        55.71316712960834
      ],
      [
        13.945376521843672,
        55.71322060123289
      ],
      [
        13.945375050365834,
        55.713274072891366
      ],
      [
        13.945273335479335,
        55.71332668536184
      ],
      [
        13.945271863820185,
        55.71338015710091
      ],
      [
        13.94527039215515,
        55.713433628873915
      ],
      [
        13.945268920484232,
        55.71348710068083
      ],
      [
        13.945167204676586,
        55.71353971326843
      ],
      [
        13.94526597712474,
        55.71359404439646
      ],
      [
        13.945264505436166,
        55.71364751630516
      ],
      [
        13.94526303374171,
        55.7137009882478
      ],
      [
        13.945261562041368,
        55.71375446022438
      ],
      [
        13.945360335263844,
        55.713808791342174
      ],
      [
        13.945358863721285,
        55.713862263373855
      ],
      [
        13.94545763739076,
        55.71391659443904
      ],
      [
        13.945456166005982,
        55.71397006652587
      ],
      [
        13.945454694615322,
        55.7140235386466
      ],
      [
        13.94545322321878,
        55.71407701080128
      ],
      [
        13.945451751816352,
        55.71413048298988
      ],
      [
        13.945450280408041,
        55.71418395521241
      ],
      [
        13.945448808993849,
        55.71423742746887
      ],
      [
        13.945447337573771,
        55.71429089975926
      ],
      [
        13.945445866147809,
        55.71434437208357
      ],
      [
        13.945444394715963,
        55.71439784444183
      ],
      [
        13.945442923278236,
        55.71445131683401
      ],
      [
        13.945441451834624,
        55.714504789260104
      ],
      [
        13.945439980385128,
        55.714558261720164
      ],
      [
        13.945438508929747,
        55.71461173421412
      ],
      [
        13.945437037468485,
        55.714665206742005
      ],
      [
        13.94533531824007,
        55.7147178204953
      ],
      [
        13.945333846597476,
        55.71477129310378
      ],
      [
        13.945232126798722,
        55.714823906880845
      ],
      [
        13.945230654974795,
        55.71487737956993
      ],
      [
        13.945229183144983,
        55.71493085229295
      ],
      [
        13.945227711309286,
        55.71498432504989
      ],
      [
        13.945226239467706,
        55.71503779784075
      ],
      [
        13.945124518572248,
        55.7150904117816
      ],
      [
        13.945123046549329,
        55.71514388465307
      ],
      [
        13.945121574520522,
        55.715197357558466
      ],
      [
        13.945120102485832,
        55.715250830497794
      ],
      [
        13.945118630445252,
        55.71530430347105
      ],
      [
        13.945016908453068,
        55.715356917575676
      ],
      [
        13.945015436231149,
        55.71541039062953
      ],
      [
        13.94501396400334,
        55.71546386371731
      ],
      [
        13.944912241265325,
        55.71551647789237
      ],
      [
        13.94491076885617,
        55.71556995106076
      ],
      [
        13.94490929644113,
        55.715623424263065
      ],
      [
        13.94480757295727,
        55.71567603850858
      ],
      [
        13.944806100360879,
        55.71572951179148
      ],
      [
        13.94470437630663,
        55.715782126060766
      ],
      [
        13.944702903528885,
        55.71583559942427
      ],
      [
        13.944601178904243,
        55.715888213717335
      ],
      [
        13.94459970594514,
        55.71594168716144
      ],
      [
        13.944497980750098,
        55.71599430147828
      ],
      [
        13.944496507609639,
        55.71604777500297
      ],
      [
        13.944394781844187,
        55.71610038934361
      ],
      [
        13.944393308522367,
        55.71615386294889
      ],
      [
        13.944291582186505,
        55.71620647731329
      ],
      [
        13.944189855455699,
        55.716259091654806
      ],
      [
        13.944188381777037,
        55.71631256538734
      ],
      [
        13.94408665447581,
        55.71636517975264
      ],
      [
        13.943984926779635,
        55.71641779409505
      ],
      [
        13.943983452744124,
        55.716471267954844
      ],
      [
        13.943881724477519,
        55.716523882321034
      ],
      [
        13.943880250260634,
        55.71657735626142
      ],
      [
        13.943778521423592,
        55.71662997065137
      ],
      [
        13.943777047025328,
        55.71668344467236
      ],
      [
        13.94377557262117,
        55.71673691872727
      ],
      [
        13.943774098211117,
        55.7167903928161
      ],
      [
        13.943772623795168,
        55.71684386693888
      ],
      [
        13.943771149373324,
        55.716897341095596
      ],
      [
        13.943769674945582,
        55.71695081528622
      ],
      [
        13.943768200511945,
        55.71700428951078
      ],
      [
        13.943766726072413,
        55.7170577637693
      ],
      [
        13.943765251626983,
        55.71711123806171
      ],
      [
        13.94376377717566,
        55.71716471238808
      ],
      [
        13.943762302718438,
        55.71721818674837
      ],
      [
        13.943760828255321,
        55.7172716611426
      ],
      [
        13.943759353786307,
        55.717325135570746
      ],
      [
        13.9437578793114,
        55.71737861003283
      ],
      [
        13.943756404830593,
        55.71743208452886
      ],
      [
        13.943754930343891,
        55.7174855590588
      ],
      [
        13.943753455851295,
        55.717539033622685
      ],
      [
        13.943751981352802,
        55.71759250822049
      ],
      [
        13.943750506848412,
        55.71764598285224
      ],
      [
        13.943749032338124,
        55.71769945751792
      ],
      [
        13.943747557821942,
        55.71775293221751
      ],
      [
        13.943746083299864,
        55.717806406951055
      ],
      [
        13.943844867286842,
        55.71786074101005
      ],
      [
        13.943843392922574,
        55.717914215798714
      ],
      [
        13.943841918552408,
        55.717967690621315
      ],
      [
        13.943840444176347,
        55.71802116547786
      ],
      [
        13.943939228937872,
        55.71807549952662
      ],
      [
        13.943937754719625,
        55.71812897443829
      ],
      [
        13.944036539928282,
        55.718183308434426
      ],
      [
        13.944135325420365,
        55.71823764235675
      ],
      [
        13.944133851523649,
        55.71829111734474
      ],
      [
        13.944232637462871,
        55.71834545121442
      ],
      [
        13.944331423685524,
        55.718399785010284
      ],
      [
        13.944329950110342,
        55.71845326007461
      ],
      [
        13.944428736780141,
        55.71850759381785
      ],
      [
        13.944527523733372,
        55.71856192748725
      ],
      [
        13.944626310970035,
        55.718616261082836
      ],
      [
        13.944725098490132,
        55.71867059460457
      ],
      [
        13.944723625563933,
        55.71872406978762
      ],
      [
        13.944822413531186,
        55.71877840325673
      ],
      [
        13.944921201781876,
        55.71883273665202
      ],
      [
        13.945019990316005,
        55.718887069973476
      ],
      [
        13.945118779133573,
        55.7189414032211
      ],
      [
        13.945217568234579,
        55.71899573639489
      ],
      [
        13.945317829562878,
        55.718996594184624
      ],
      [
        13.945416619067041,
        55.719050927189556
      ],
      [
        13.945515408854645,
        55.71910526012065
      ],
      [
        13.945513937238252,
        55.71915873547327
      ],
      [
        13.945512465615973,
        55.71921221085982
      ],
      [
        13.94551099398781,
        55.71926568628031
      ],
      [
        13.945509522353763,
        55.71931916173473
      ],
      [
        13.945508050713828,
        55.71937263722308
      ],
      [
        13.94550657906801,
        55.71942611274537
      ],
      [
        13.945505107416304,
        55.71947958830158
      ],
      [
        13.945403372834045,
        55.71953220639394
      ],
      [
        13.945401901000949,
        55.71958568203077
      ],
      [
        13.945300165848147,
        55.71963830014691
      ],
      [
        13.945298693833657,
        55.71969177586434
      ],
      [
        13.94519695811031,
        55.719744394004266
      ],
      [
        13.945195485914422,
        55.71979786980227
      ],
      [
        13.945093749620527,
        55.71985048796597
      ],
      [
        13.945092277243237,
        55.7199039638446
      ],
      [
        13.944990540378786,
        55.71995658203207
      ],
      [
        13.944989067820092,
        55.7200100579913
      ],
      [
        13.944887330385079,
        55.720062676202545
      ],
      [
        13.944885857644977,
        55.72011615224237
      ],
      [
        13.944884384898986,
        55.72016962831613
      ],
      [
        13.944782646717886,
        55.720222246597814
      ],
      [
        13.944781173790483,
        55.72027572275217
      ],
      [
        13.944779700857191,
        55.72032919894046
      ],
      [
        13.944677961929992,
        55.7203818172926
      ],
      [
        13.944676488815286,
        55.720435293561486
      ],
      [
        13.944675015694688,
        55.72048876986431
      ],
      [
        13.94457327602138,
        55.72054138828689
      ],
      [
        13.944571802719365,
        55.72059486467031
      ],
      [
        13.944570329411457,
        55.720648341087674
      ],
      [
        13.944468588992029,
        55.720700959580675
      ],
      [
        13.944467115502698,
        55.720754436078636
      ],
      [
        13.944465642007478,
        55.72080791261054
      ],
      [
        13.944464168506363,
        55.72086138917635
      ],
      [
        13.944362427165272,
        55.720914007786476
      ],
      [
        13.94436095348273,
        55.7209674844329
      ],
      [
        13.94445974796766,
        55.72102181907744
      ],
      [
        13.94445827444297,
        55.72107529577901
      ],
      [
        13.94445680091239,
        55.7211287725145
      ],
      [
        13.944455327375916,
        55.72118224928393
      ],
      [
        13.944453853833549,
        55.721235726087286
      ],
      [
        13.944452380285288,
        55.72128920292458
      ],
      [
        13.944450906731134,
        55.72134267979581
      ],
      [
        13.944449433171089,
        55.721396156700976
      ],
      [
        13.944347690074638,
        55.721448775777766
      ],
      [
        13.944346216333157,
        55.721502252763536
      ],
      [
        13.944344742585784,
        55.72155572978323
      ],
      [
        13.944343268832515,
        55.721609206836874
      ],
      [
        13.944341795073353,
        55.72166268392444
      ],
      [
        13.944240050879642,
        55.721715303165006
      ],
      [
        13.944238576939041,
        55.72176878033318
      ],
      [
        13.944237102992547,
        55.72182225753527
      ],
      [
        13.944235629040158,
        55.721875734771324
      ],
      [
        13.94413388392471,
        55.72192835412898
      ],
      [
        13.944132409790877,
        55.721981831445625
      ],
      [
        13.944030664104774,
        55.72203445082706
      ],
      [
        13.944029189789497,
        55.722087928224305
      ],
      [
        13.943927443532735,
        55.72214054762949
      ],
      [
        13.943925969036005,
        55.72219402510734
      ],
      [
        13.94382422220858,
        55.722246644536305
      ],
      [
        13.943822747530401,
        55.722300122094744
      ],
      [
        13.943821272846325,
        55.72235359968713
      ],
      [
        13.94371952527267,
        55.72240621918651
      ],
      [
        13.943718050407137,
        55.7224596968595
      ],
      [
        13.943716575535708,
        55.722513174566416
      ],
      [
        13.943715100658379,
        55.72256665230727
      ],
      [
        13.943813899337473,
        55.722620988158056
      ],
      [
        13.94381242461801,
        55.72267446595405
      ],
      [
        13.943810949892647,
        55.722727943783966
      ],
      [
        13.943809475161386,
        55.72278142164783
      ],
      [
        13.943908274615294,
        55.722835757488376
      ],
      [
        13.944007074352728,
        55.72289009325506
      ],
      [
        13.944107348613647,
        55.72289095102047
      ],
      [
        13.944207622824656,
        55.72289180870355
      ],
      [
        13.94430789698576,
        55.72289266630433
      ],
      [
        13.944406697365988,
        55.72294700171206
      ],
      [
        13.944506971596937,
        55.72294785913547
      ],
      [
        13.944607245777977,
        55.72294871647659
      ],
      [
        13.944707519909107,
        55.7229495737354
      ],
      [
        13.944807793990327,
        55.722950430911894
      ],
      [
        13.944908068021636,
        55.72295128800607
      ],
      [
        13.945009814716018,
        55.72289866720511
      ],
      [
        13.94511008847784,
        55.7228995241474
      ],
      [
        13.94521183455752,
        55.722846903253966
      ],
      [
        13.945313580242074,
        55.722794282337624
      ],
      [
        13.945415325531506,
        55.72274166139839
      ],
      [
        13.945517070425815,
        55.722689040436244
      ],
      [
        13.945618814925005,
        55.7226364194512
      ],
      [
        13.945720559029079,
        55.722583798443274
      ],
      [
        13.945822302738039,
        55.722531177412435
      ],
      [
        13.945823774046644,
        55.72247769997296
      ],
      [
        13.945925517184946,
        55.72242507896592
      ],
      [
        13.945926988312127,
        55.722371601607044
      ],
      [
        13.945928459433425,
        55.72231812428212
      ],
      [
        13.946030201825542,
        55.722265503345504
      ],
      [
        13.946031672765418,
        55.722212026101175
      ],
      [
        13.946133414586896,
        55.72215940518836
      ],
      [
        13.946235156013271,
        55.722106784252624
      ],
      [
        13.94633689704455,
        55.72205416329401
      ],
      [
        13.946437167442987,
        55.72205501937013
      ],
      [
        13.946538907859601,
        55.722002398319056
      ],
      [
        13.94664064788112,
        55.7219497772451
      ],
      [
        13.94674091779051,
        55.721950633099794
      ],
      [
        13.946842657197374,
        55.72189801193336
      ],
      [
        13.94694292683728,
        55.72189886763619
      ],
      [
        13.947044665629488,
        55.721846246377325
      ],
      [
        13.947144934999914,
        55.72184710192828
      ],
      [
        13.947245204320419,
        55.72184795739695
      ],
      [
        13.947346942278408,
        55.721795335976076
      ],
      [
        13.94744721132943,
        55.721796191292874
      ],
      [
        13.947547480330531,
        55.721797046527364
      ],
      [
        13.947647749281712,
        55.721797901679565
      ],
      [
        13.947749486185923,
        55.72174528002711
      ],
      [
        13.947849754867617,
        55.72174613502745
      ],
      [
        13.94795002349939,
        55.72174698994549
      ],
      [
        13.94805029208124,
        55.72174784478122
      ],
      [
        13.948152027931672,
        55.72169522289722
      ],
      [
        13.948252296244032,
        55.7216960775811
      ],
      [
        13.948352564506472,
        55.72169693218267
      ],
      [
        13.948452832718985,
        55.72169778670195
      ],
      [
        13.948554567515641,
        55.72164516458639
      ],
      [
        13.948654835458663,
        55.72164601895381
      ],
      [
        13.94875656964068,
        55.721593396745824
      ],
      [
        13.94885683731421,
        55.721594250961395
      ],
      [
        13.948957104937817,
        55.721595105094664
      ],
      [
        13.949058838285628,
        55.72154248272468
      ],
      [
        13.94915910563974,
        55.721543336706105
      ],
      [
        13.949259372943924,
        55.721544190605215
      ],
      [
        13.949361105457536,
        55.72149156807325
      ],
      [
        13.949461372492225,
        55.72149242182051
      ],
      [
        13.949561639476988,
        55.72149327548548
      ],
      [
        13.949661906411817,
        55.72149412906816
      ],
      [
        13.949763637871662,
        55.72144150630467
      ],
      [
        13.949863904536999,
        55.7214423597355
      ],
      [
        13.949964171152404,
        55.72144321308402
      ],
      [
        13.950064437717877,
        55.72144406635025
      ],
      [
        13.95016616812396,
        55.72139144335523
      ],
      [
        13.950266434419934,
        55.721392296469624
      ],
      [
        13.950368164211392,
        55.72133967338219
      ],
      [
        13.950469893607792,
        55.721287050271876
      ],
      [
        13.95057162260914,
        55.7212344271387
      ],
      [
        13.950673351215434,
        55.72118180398266
      ],
      [
        13.950775079426679,
        55.72112918080375
      ],
      [
        13.950876807242876,
        55.72107655760199
      ],
      [
        13.950978534664026,
        55.72102393437734
      ],
      [
        13.951080261690134,
        55.720971311129844
      ],
      [
        13.9511819883212,
        55.720918687859466
      ],
      [
        13.951283714557224,
        55.72086606456625
      ],
      [
        13.951285176517448,
        55.72081258890078
      ],
      [
        13.95138690218296,
        55.720759965631366
      ],
      [
        13.951488627453442,
        55.720707342339104
      ],
      [
        13.951590352328886,
        55.72065471902397
      ],
      [
        13.951692076809303,
        55.720602095685976
      ],
      [
        13.951793800894691,
        55.72054947232511
      ],
      [
        13.951895524585051,
        55.720496848941416
      ],
      [
        13.951995787148451,
        55.72049770087352
      ],
      [
        13.952097510224231,
        55.720445077397414
      ],
      [
        13.952199232904986,
        55.72039245389844
      ],
      [
        13.952300955190722,
        55.72033983037662
      ],
      [
        13.95240121704551,
        55.720340682017834
      ],
      [
        13.952502938716671,
        55.72028805840362
      ],
      [
        13.952603200301962,
        55.720288909893
      ],
      [
        13.952704921358551,
        55.72023628618639
      ],
      [
        13.952805182674343,
        55.72023713752395
      ],
      [
        13.952905443940194,
        55.72023798877922
      ],
      [
        13.953007164162655,
        55.72018536491069
      ],
      [
        13.953107425159008,
        55.720186216014135
      ],
      [
        13.953209144766902,
        55.720133592053216
      ],
      [
        13.953309405493755,
        55.720134443004824
      ],
      [
        13.953411124487086,
        55.72008181895153
      ],
      [
        13.953511384944438,
        55.720082669751335
      ],
      [
        13.953613103323207,
        55.72003004560565
      ],
      [
        13.953713363511058,
        55.720030896253625
      ],
      [
        13.953815081275268,
        55.71997827201556
      ],
      [
        13.953915341193618,
        55.71997912251171
      ],
      [
        13.95401705834327,
        55.71992649818127
      ],
      [
        13.95411731799212,
        55.71992734852562
      ],
      [
        13.954219034527219,
        55.719874724102795
      ],
      [
        13.954319293906563,
        55.71987557429532
      ],
      [
        13.954421009827112,
        55.719822949780124
      ],
      [
        13.954521268936954,
        55.719823799820844
      ],
      [
        13.954622984242953,
        55.71977117521327
      ],
      [
        13.954724699153964,
        55.71971855058285
      ],
      [
        13.954824957774747,
        55.71971940040223
      ],
      [
        13.954926672071213,
        55.71966677567944
      ],
      [
        13.955028385972696,
        55.719614150933836
      ],
      [
        13.955128644104418,
        55.71961500053187
      ],
      [
        13.955230357391363,
        55.71956237569389
      ],
      [
        13.955332070283328,
        55.71950975083306
      ],
      [
        13.955432327925989,
        55.71951060020976
      ],
      [
        13.955534040203421,
        55.71945797525657
      ],
      [
        13.955635752085875,
        55.71940535028056
      ],
      [
        13.95573600923948,
        55.719406199435916
      ],
      [
        13.95583772050741,
        55.71935357436754
      ],
      [
        13.955937977391507,
        55.7193544233711
      ],
      [
        13.956039688044909,
        55.71930179821037
      ],
      [
        13.956141398303343,
        55.71924917302679
      ],
      [
        13.956241654698383,
        55.71925002180904
      ],
      [
        13.956343364342295,
        55.71919739653312
      ],
      [
        13.956445073591246,
        55.71914477123436
      ],
      [
        13.956545329497224,
        55.71914561979528
      ],
      [
        13.956647038131662,
        55.71909299440416
      ],
      [
        13.956747293768133,
        55.719093842813294
      ],
      [
        13.956849001788058,
        55.719041217329845
      ],
      [
        13.956949257155022,
        55.71904206558716
      ],
      [
        13.957050964560437,
        55.71898944001138
      ],
      [
        13.957152671570897,
        55.71893681441275
      ],
      [
        13.9572529264488,
        55.71893766244876
      ],
      [
        13.957354632844758,
        55.71888503675779
      ],
      [
        13.957456338845764,
        55.718832411043984
      ],
      [
        13.957556593234608,
        55.7188332588587
      ],
      [
        13.957658298621116,
        55.71878063305257
      ],
      [
        13.957760003612679,
        55.7187280072236
      ],
      [
        13.957861708209297,
        55.718675381371824
      ],
      [
        13.95796341241097,
        55.718622755497236
      ],
      [
        13.958065116217707,
        55.71857012959981
      ],
      [
        13.958066566557951,
        55.71851665628195
      ],
      [
        13.958168269794362,
        55.7184640304084
      ],
      [
        13.958269972635836,
        55.71841140451204
      ],
      [
        13.958370225268295,
        55.718412251770644
      ],
      [
        13.95847047785079,
        55.718413098946954
      ],
      [
        13.958570730383325,
        55.71841394604101
      ],
      [
        13.958669533554769,
        55.718468266226196
      ],
      [
        13.958668084237841,
        55.718521739433555
      ],
      [
        13.95876688785648,
        55.71857605956605
      ],
      [
        13.958765438697545,
        55.71862953282849
      ],
      [
        13.958864242763386,
        55.71868385290828
      ],
      [
        13.95886279376244,
        55.71873732622581
      ],
      [
        13.958961598275486,
        55.71879164625289
      ],
      [
        13.959060403071948,
        55.71884596620611
      ],
      [
        13.959160656661394,
        55.7188468127044
      ],
      [
        13.959260910200872,
        55.718847659120414
      ],
      [
        13.959361163690385,
        55.71884850545414
      ],
      [
        13.959461417129928,
        55.71884935170562
      ],
      [
        13.959561670519504,
        55.718850197874815
      ],
      [
        13.95966192385911,
        55.71885104396172
      ],
      [
        13.959762177148749,
        55.71885188996638
      ],
      [
        13.959862430388418,
        55.718852735888746
      ],
      [
        13.959964130725183,
        55.71880010848386
      ],
      [
        13.960064383695325,
        55.71880095425444
      ],
      [
        13.960164636615493,
        55.71880179994275
      ],
      [
        13.960264889485694,
        55.718802645548806
      ],
      [
        13.960365142305921,
        55.71880349107257
      ],
      [
        13.960465395076177,
        55.718804336514076
      ],
      [
        13.960565647796459,
        55.7188051818733
      ],
      [
        13.960665900466768,
        55.71880602715024
      ],
      [
        13.960767598871692,
        55.718753399236
      ],
      [
        13.960867851272466,
        55.71875424436117
      ],
      [
        13.96096810362327,
        55.71875508940407
      ],
      [
        13.961068355924096,
        55.7187559343647
      ],
      [
        13.961168608174948,
        55.71875677924307
      ],
      [
        13.961268860375824,
        55.71875762403914
      ],
      [
        13.961367667759646,
        55.71881194178528
      ],
      [
        13.961467920030154,
        55.71881278640406
      ],
      [
        13.96156961667859,
        55.71876015793379
      ],
      [
        13.961669868679559,
        55.71876100240078
      ],
      [
        13.961770120630549,
        55.71876184678552
      ],
      [
        13.961870372531559,
        55.71876269108798
      ],
      [
        13.961970624382591,
        55.71876353530817
      ],
      [
        13.962070876183642,
        55.718764379446085
      ],
      [
        13.962171127934713,
        55.71876522350172
      ],
      [
        13.962271379635803,
        55.7187660674751
      ],
      [
        13.962373074352378,
        55.71871343849553
      ],
      [
        13.962473325783925,
        55.71871428231714
      ],
      [
        13.962575019886014,
        55.718661653245285
      ],
      [
        13.962675271048015,
        55.71866249691512
      ],
      [
        13.962775522160033,
        55.718663340502694
      ],
      [
        13.96287721542808,
        55.71861071126904
      ],
      [
        13.962978908301213,
        55.71855808201258
      ],
      [
        13.963080600779435,
        55.71850545273334
      ],
      [
        13.963082042628981,
        55.71845198012172
      ],
      [
        13.963083484472756,
        55.71839850754403
      ],
      [
        13.963185176205377,
        55.71834587833539
      ],
      [
        13.963286867543092,
        55.718293249103965
      ],
      [
        13.963388558485903,
        55.71824061984975
      ],
      [
        13.963490249033816,
        55.718187990572744
      ],
      [
        13.963591939186827,
        55.71813536127295
      ],
      [
        13.963593380148126,
        55.71808188896271
      ],
      [
        13.96359482110366,
        55.71802841668639
      ],
      [
        13.963596262053425,
        55.717974944444
      ],
      [
        13.963597702997426,
        55.71792147223554
      ],
      [
        13.963599143935662,
        55.71786800006102
      ],
      [
        13.963600584868134,
        55.7178145279204
      ],
      [
        13.963501777965458,
        55.71776021266716
      ],
      [
        13.963503219055964,
        55.71770674058165
      ],
      [
        13.963404412600477,
        55.71765242527567
      ],
      [
        13.96340585384902,
        55.717598953245236
      ],
      [
        13.963307047840717,
        55.717544637886554
      ],
      [
        13.963208242115796,
        55.71749032245397
      ],
      [
        13.963209683686168,
        55.71743685049978
      ],
      [
        13.963211125250774,
        55.71738337857951
      ],
      [
        13.963112320136828,
        55.71732906311538
      ],
      [
        13.96311376185946,
        55.71727559125019
      ],
      [
        13.963115203576326,
        55.717222119418956
      ],
      [
        13.963116645287423,
        55.71716864762163
      ],
      [
        13.96311808699275,
        55.71711517585824
      ],
      [
        13.963219774517285,
        55.71706254777046
      ],
      [
        13.96332146164695,
        55.71700991965991
      ],
      [
        13.963423148381748,
        55.71695729152652
      ],
      [
        13.96352339371766,
        55.716958134946964
      ],
      [
        13.96362363900359,
        55.71695897828515
      ],
      [
        13.963723884239542,
        55.71695982154106
      ],
      [
        13.963824129425507,
        55.71696066471469
      ],
      [
        13.963924374561492,
        55.71696150780609
      ],
      [
        13.96402461964749,
        55.71696235081522
      ],
      [
        13.964124864683509,
        55.71696319374208
      ],
      [
        13.96422510966954,
        55.71696403658669
      ],
      [
        13.964325354605588,
        55.71696487934904
      ],
      [
        13.96442559949165,
        55.71696572202913
      ],
      [
        13.964525844327726,
        55.71696656462695
      ],
      [
        13.964626089113816,
        55.71696740714251
      ],
      [
        13.964726333849919,
        55.71696824957581
      ],
      [
        13.964826578536035,
        55.71696909192686
      ],
      [
        13.964926823172163,
        55.71696993419564
      ],
      [
        13.965028506218971,
        55.716917304997196
      ],
      [
        13.965128750585565,
        55.716918147114235
      ],
      [
        13.965228994902175,
        55.71691898914902
      ],
      [
        13.96532923916879,
        55.71691983110155
      ],
      [
        13.965429483385417,
        55.7169206729718
      ],
      [
        13.965529727552056,
        55.7169215147598
      ],
      [
        13.965629971668701,
        55.716922356465545
      ],
      [
        13.965730215735356,
        55.716923198089034
      ],
      [
        13.965830459752018,
        55.716924039630264
      ],
      [
        13.965930703718689,
        55.71692488108923
      ],
      [
        13.966030947635367,
        55.71692572246593
      ],
      [
        13.96613119150205,
        55.716926563760396
      ],
      [
        13.966232871739003,
        55.71687393377488
      ],
      [
        13.966333115336147,
        55.7168747749176
      ],
      [
        13.966433358883293,
        55.71687561597805
      ],
      [
        13.966533602380448,
        55.71687645695625
      ],
      [
        13.966633845827607,
        55.71687729785219
      ],
      [
        13.966734089224769,
        55.71687813866587
      ],
      [
        13.966834332571935,
        55.71687897939729
      ],
      [
        13.966934575869104,
        55.71687982004646
      ],
      [
        13.967034819116273,
        55.71688066061338
      ],
      [
        13.967135062313446,
        55.71688150109803
      ],
      [
        13.96723530546062,
        55.71688234150042
      ],
      [
        13.967335548557797,
        55.71688318182057
      ],
      [
        13.967435791604974,
        55.71688402205845
      ],
      [
        13.967537468812493,
        55.71683139121646
      ],
      [
        13.96763771159012,
        55.71683223130261
      ],
      [
        13.967737954317746,
        55.7168330713065
      ],
      [
        13.96783819699537,
        55.71683391122816
      ],
      [
        13.967938439622992,
        55.71683475106755
      ],
      [
        13.968038682200614,
        55.71683559082469
      ],
      [
        13.96813892472823,
        55.716836430499555
      ],
      [
        13.968240600223606,
        55.71678379921795
      ],
      [
        13.96834084248167,
        55.71678463874109
      ],
      [
        13.968441084689728,
        55.71678547818199
      ],
      [
        13.968541326847781,
        55.71678631754063
      ],
      [
        13.968641568955833,
        55.71678715681702
      ],
      [
        13.968741811013876,
        55.71678799601115
      ],
      [
        13.968842053021914,
        55.716788835123026
      ],
      [
        13.968942294979948,
        55.71678967415265
      ],
      [
        13.96904396854362,
        55.716737042362
      ],
      [
        13.969144210232091,
        55.7167378812399
      ],
      [
        13.969244451870557,
        55.716738720035536
      ],
      [
        13.969344693459012,
        55.71673955874894
      ],
      [
        13.96944493499746,
        55.71674039738007
      ],
      [
        13.9695451764859,
        55.71674123592895
      ],
      [
        13.969645417924328,
        55.71674207439559
      ],
      [
        13.969747089775849,
        55.71668944216536
      ],
      [
        13.969847330944713,
        55.716690280480286
      ],
      [
        13.969947572063566,
        55.71669111871294
      ],
      [
        13.970047813132409,
        55.71669195686335
      ],
      [
        13.97014805415124,
        55.71669279493151
      ],
      [
        13.970248295120056,
        55.71669363291742
      ],
      [
        13.970349965478976,
        55.716641000317125
      ],
      [
        13.970450206178224,
        55.716641838151304
      ],
      [
        13.970550446827461,
        55.71664267590325
      ],
      [
        13.970650687426682,
        55.71664351357293
      ],
      [
        13.970752356732113,
        55.7165908807415
      ],
      [
        13.970852597061764,
        55.716591718259465
      ],
      [
        13.970952837341398,
        55.716592555695186
      ],
      [
        13.971053077571018,
        55.716593393048676
      ],
      [
        13.971154745822963,
        55.7165407599861
      ],
      [
        13.971254985783007,
        55.71654159718784
      ],
      [
        13.971355225693038,
        55.71654243430737
      ],
      [
        13.971455465553051,
        55.71654327134461
      ],
      [
        13.971554277968867,
        55.71659757858225
      ],
      [
        13.971654517898385,
        55.71659841544222
      ],
      [
        13.971753330717073,
        55.716652722510915
      ],
      [
        13.971852143819111,
        55.716707029505706
      ],
      [
        13.971850716916423,
        55.716760499851745
      ],
      [
        13.971849290008022,
        55.716813970231726
      ],
      [
        13.971948103721079,
        55.71686827719487
      ],
      [
        13.9719466769708,
        55.71692174762991
      ],
      [
        13.971945250214814,
        55.71697521809887
      ],
      [
        13.971943823453115,
        55.71702868860175
      ],
      [
        13.97204263794103,
        55.71708299555443
      ],
      [
        13.972041211337459,
        55.71713646611238
      ],
      [
        13.972039784728178,
        55.71718993670426
      ],
      [
        13.972038358113188,
        55.71724340733007
      ],
      [
        13.972137173375977,
        55.71729771427224
      ],
      [
        13.972135746919117,
        55.71735118495311
      ],
      [
        13.972234562629106,
        55.71740549184252
      ],
      [
        13.972233136330377,
        55.71745896257845
      ],
      [
        13.972331952487577,
        55.717513269415086
      ],
      [
        13.972432194899188,
        55.71751410539961
      ],
      [
        13.972531011459282,
        55.71756841206728
      ],
      [
        13.972631253940392,
        55.7175692478745
      ],
      [
        13.972730070903378,
        55.717623554373226
      ],
      [
        13.972830313453985,
        55.71762439000313
      ],
      [
        13.972930555954564,
        55.71762522555082
      ],
      [
        13.973029373439966,
        55.71767953178554
      ],
      [
        13.97312961601004,
        55.7176803671559
      ],
      [
        13.973229858530082,
        55.71768120244402
      ],
      [
        13.973330101000096,
        55.71768203764989
      ],
      [
        13.973430343420082,
        55.717682872773494
      ],
      [
        13.973530585790034,
        55.717683707814864
      ],
      [
        13.973630828109954,
        55.717684542773966
      ],
      [
        13.973732494158142,
        55.717631906971064
      ],
      [
        13.973832736208447,
        55.71763274177847
      ],
      [
        13.973932978208722,
        55.71763357650363
      ],
      [
        13.974034643422916,
        55.7175809405391
      ],
      [
        13.974136308242281,
        55.71752830455182
      ],
      [
        13.974237972666824,
        55.71747566854182
      ],
      [
        13.97433963669654,
        55.7174230325091
      ],
      [
        13.974439877768457,
        55.71742386687418
      ],
      [
        13.974540118790339,
        55.71742470115701
      ],
      [
        13.974641781986076,
        55.71737206496263
      ],
      [
        13.974742022738342,
        55.717372899093775
      ],
      [
        13.974842263440571,
        55.71737373314266
      ],
      [
        13.974943925802329,
        55.71732109678665
      ],
      [
        13.975044166234941,
        55.71732193068384
      ],
      [
        13.975144406617515,
        55.71732276449877
      ],
      [
        13.97524464695005,
        55.71732359823146
      ],
      [
        13.975346308258255,
        55.71727096164438
      ],
      [
        13.97544654832117,
        55.71727179522538
      ],
      [
        13.975546788334047,
        55.71727262872412
      ],
      [
        13.975648448808277,
        55.71721999197541
      ],
      [
        13.975748688551533,
        55.71722082532246
      ],
      [
        13.975848928244748,
        55.717221658587256
      ],
      [
        13.975950587885007,
        55.71716902167694
      ],
      [
        13.976050827308601,
        55.71716985479004
      ],
      [
        13.976151066682151,
        55.71717068782091
      ],
      [
        13.976251306005661,
        55.71717152076952
      ],
      [
        13.976351545279128,
        55.71717235363589
      ],
      [
        13.97645178450255,
        55.717173186420005
      ],
      [
        13.976552023675932,
        55.71717401912188
      ],
      [
        13.976653681603892,
        55.71712138177217
      ],
      [
        13.976753920507646,
        55.71712221432235
      ],
      [
        13.976854159361354,
        55.717123046790306
      ],
      [
        13.976954398165017,
        55.71712387917599
      ],
      [
        13.977056055039428,
        55.717071241595235
      ],
      [
        13.977156293573461,
        55.71707207382923
      ],
      [
        13.977256532057448,
        55.717072905981
      ],
      [
        13.977356770491388,
        55.71707373805051
      ],
      [
        13.977458426312253,
        55.71702110023871
      ],
      [
        13.977558664476563,
        55.71702193215654
      ],
      [
        13.977658902590822,
        55.71702276399213
      ],
      [
        13.977759140655031,
        55.71702359574548
      ],
      [
        13.977859378669194,
        55.717024427416575
      ],
      [
        13.97796103321693,
        55.71697178930431
      ],
      [
        13.978061270961456,
        55.71697262082372
      ],
      [
        13.97816292489482,
        55.7169199826193
      ],
      [
        13.97826316236971,
        55.716920813987024
      ],
      [
        13.978364815688703,
        55.716868175690465
      ],
      [
        13.978466468612911,
        55.71681553737118
      ],
      [
        13.978568121142338,
        55.716762899029206
      ],
      [
        13.978669773276984,
        55.71671026066451
      ],
      [
        13.978771425016854,
        55.71665762227712
      ],
      [
        13.978873076361946,
        55.71660498386702
      ],
      [
        13.978974727312265,
        55.71655234543423
      ],
      [
        13.979076377867813,
        55.716499706978716
      ],
      [
        13.97917802802859,
        55.71644706850053
      ],
      [
        13.979278263477186,
        55.716447899161096
      ],
      [
        13.97987684850011,
        55.71655981966855
      ],
      [
        13.980479672667178,
        55.71651132971502
      ],
      [
        13.982413717726548,
        55.71540424000687
      ],
      [
        13.984638448771504,
        55.71467389711853
      ],
      [
        13.986144653432353,
        55.71457935407952
      ],
      [
        13.986952064057006,
        55.71437208769862
      ],
      [
        13.987553412183539,
        55.714377035513635
      ],
      [
        13.988246588563902,
        55.71470360491934
      ],
      [
        13.988849336907878,
        55.71465507906898
      ],
      [
        13.989459066327,
        55.714339217557225
      ],
      [
        13.990366656776805,
        55.714132754546874
      ],
      [
        13.991985526438802,
        55.71355777409188
      ],
      [
        13.993121316476502,
        55.712283637098565
      ],
      [
        13.993832546391308,
        55.7119151262516
      ],
      [
        13.996040001912121,
        55.71182621591984
      ],
      [
        13.997454031694406,
        55.71140995171487
      ],
      [
        13.998673122152107,
        55.71077819190584
      ],
      [
        13.998700744469746,
        55.709708938324646
      ],
      [
        13.99992249404514,
        55.70897026299826
      ],
      [
        14.00052645482975,
        55.70886823241442
      ],
      [
        14.00212690328981,
        55.70898818812545
      ],
      [
        14.002829675177425,
        55.70894042191238
      ],
      [
        14.003135767049466,
        55.70872901668745
      ],
      [
        14.003349895348833,
        55.70819603340985
      ],
      [
        14.004261264806633,
        55.70782912409719
      ],
      [
        14.005363407753874,
        55.70783805587301
      ],
      [
        14.006156752386577,
        55.70816530708166
      ],
      [
        14.007357724275726,
        55.70822849091681
      ],
      [
        14.00844348912702,
        55.7088789174356
      ],
      [
        14.008322821710621,
        55.70968002041209
      ],
      [
        14.008617960701008,
        55.709896290186634
      ],
      [
        14.011623917685572,
        55.70992050302354
      ],
      [
        14.012115397388019,
        55.71029875692957
      ],
      [
        14.013220293664142,
        55.71020068943604
      ],
      [
        14.0137280606998,
        55.70993740800603
      ],
      [
        14.01442943678534,
        55.70994303494753
      ],
      [
        14.014516089830126,
        55.7104784439197
      ],
      [
        14.015309554504261,
        55.71080563237337
      ],
      [
        14.018032429778042,
        55.71013228983326
      ],
      [
        14.019349769736568,
        55.70955463383275
      ],
      [
        14.021460515918605,
        55.70930411246649
      ],
      [
        14.022270086908556,
        55.70898974061159
      ],
      [
        14.022972750561443,
        55.708941861748976
      ],
      [
        14.023885154698574,
        55.70852136303433
      ],
      [
        14.023996047326,
        55.70809449456156
      ],
      [
        14.023294747317037,
        55.708088919008475
      ],
      [
        14.022582720171346,
        55.708511005505116
      ],
      [
        14.020776647952614,
        55.708603558712284
      ],
      [
        14.019367269012129,
        55.70885966338211
      ],
      [
        14.016465779465214,
        55.708676056364695
      ],
      [
        14.015976988171763,
        55.708190911144776
      ],
      [
        14.013872985725662,
        55.70817403519982
      ],
      [
        14.013067385132848,
        55.70832797523865
      ],
      [
        14.011663332744947,
        55.70837015556568
      ],
      [
        14.010362182047144,
        55.70830620764879
      ],
      [
        14.007073541591655,
        55.707584540133865
      ],
      [
        14.005684528137603,
        55.707038590422016
      ],
      [
        14.001974644762692,
        55.70711543010277
      ],
      [
        14.001369350434606,
        55.707270922875686
      ],
      [
        13.99976622642664,
        55.70725787326673
      ],
      [
        13.999062095030903,
        55.7073590789975
      ],
      [
        13.994725853069113,
        55.70839311430231
      ],
      [
        13.994114919687645,
        55.70876242796123
      ],
      [
        13.994098254178521,
        55.70940397864965
      ],
      [
        13.99389506493178,
        55.7095092634585
      ],
      [
        13.993492851306284,
        55.70955944383334
      ],
      [
        13.992781669144524,
        55.70992793833744
      ],
      [
        13.990053710424695,
        55.71076115613225
      ],
      [
        13.990034169408625,
        55.711509657641706
      ],
      [
        13.988985903840828,
        55.71326577797152
      ],
      [
        13.988371992551825,
        55.713742030421834
      ],
      [
        13.986858846032938,
        55.714103928897096
      ],
      [
        13.985255254971856,
        55.7140907179116
      ],
      [
        13.984148560865963,
        55.71424202441236
      ],
      [
        13.983033402394486,
        55.71471412701401
      ],
      [
        13.98192525266314,
        55.71491888521922
      ],
      [
        13.981010486081198,
        55.71539263537938
      ],
      [
        13.980101339088307,
        55.715652509161984
      ],
      [
        13.979285335007633,
        55.71618055369297
      ],
      [
        13.9792796777946,
        55.71639442999962
      ],
      [
        13.97917802802859,
        55.71644706850053
      ],
      [
        13.979076377867813,
        55.716499706978716
      ],
      [
        13.978974727312265,
        55.71655234543423
      ],
      [
        13.978873076361946,
        55.71660498386702
      ],
      [
        13.978771425016854,
        55.71665762227712
      ],
      [
        13.978669773276984,
        55.71671026066451
      ],
      [
        13.978568121142338,
        55.716762899029206
      ],
      [
        13.978466468612911,
        55.71681553737118
      ],
      [
        13.978364815688703,
        55.716868175690465
      ],
      [
        13.97826316236971,
        55.716920813987024
      ],
      [
        13.97816292489482,
        55.7169199826193
      ],
      [
        13.978061270961456,
        55.71697262082372
      ],
      [
        13.97796103321693,
        55.71697178930431
      ],
      [
        13.977859378669194,
        55.717024427416575
      ],
      [
        13.977759140655031,
        55.71702359574548
      ],
      [
        13.977658902590822,
        55.71702276399213
      ],
      [
        13.977558664476563,
        55.71702193215654
      ],
      [
        13.977458426312253,
        55.71702110023871
      ],
      [
        13.977356770491388,
        55.71707373805051
      ],
      [
        13.977256532057448,
        55.717072905981
      ],
      [
        13.977156293573461,
        55.71707207382923
      ],
      [
        13.977056055039428,
        55.717071241595235
      ],
      [
        13.976954398165017,
        55.71712387917599
      ],
      [
        13.976854159361354,
        55.717123046790306
      ],
      [
        13.976753920507646,
        55.71712221432235
      ],
      [
        13.976653681603892,
        55.71712138177217
      ],
      [
        13.976552023675932,
        55.71717401912188
      ],
      [
        13.97645178450255,
        55.717173186420005
      ],
      [
        13.976351545279128,
        55.71717235363589
      ],
      [
        13.976251306005661,
        55.71717152076952
      ],
      [
        13.976151066682151,
        55.71717068782091
      ],
      [
        13.976050827308601,
        55.71716985479004
      ],
      [
        13.975950587885007,
        55.71716902167694
      ],
      [
        13.975848928244748,
        55.717221658587256
      ],
      [
        13.975748688551533,
        55.71722082532246
      ],
      [
        13.975648448808277,
        55.71721999197541
      ],
      [
        13.975546788334047,
        55.71727262872412
      ],
      [
        13.97544654832117,
        55.71727179522538
      ],
      [
        13.975346308258255,
        55.71727096164438
      ],
      [
        13.97524464695005,
        55.71732359823146
      ],
      [
        13.975144406617515,
        55.71732276449877
      ],
      [
        13.975044166234941,
        55.71732193068384
      ],
      [
        13.974943925802329,
        55.71732109678665
      ],
      [
        13.974842263440571,
        55.71737373314266
      ],
      [
        13.974742022738342,
        55.717372899093775
      ],
      [
        13.974641781986076,
        55.71737206496263
      ],
      [
        13.974540118790339,
        55.71742470115701
      ],
      [
        13.974439877768457,
        55.71742386687418
      ],
      [
        13.97433963669654,
        55.7174230325091
      ],
      [
        13.974237972666824,
        55.71747566854182
      ],
      [
        13.974136308242281,
        55.71752830455182
      ],
      [
        13.974034643422916,
        55.7175809405391
      ],
      [
        13.973932978208722,
        55.71763357650363
      ],
      [
        13.973832736208447,
        55.71763274177847
      ],
      [
        13.973732494158142,
        55.717631906971064
      ],
      [
        13.973630828109954,
        55.717684542773966
      ],
      [
        13.973530585790034,
        55.717683707814864
      ],
      [
        13.973430343420082,
        55.717682872773494
      ],
      [
        13.973330101000096,
        55.71768203764989
      ],
      [
        13.973229858530082,
        55.71768120244402
      ],
      [
        13.97312961601004,
        55.7176803671559
      ],
      [
        13.973029373439966,
        55.71767953178554
      ],
      [
        13.972930555954564,
        55.71762522555082
      ],
      [
        13.972830313453985,
        55.71762439000313
      ],
      [
        13.972730070903378,
        55.717623554373226
      ],
      [
        13.972631253940392,
        55.7175692478745
      ],
      [
        13.972531011459282,
        55.71756841206728
      ],
      [
        13.972432194899188,
        55.71751410539961
      ],
      [
        13.972331952487577,
        55.717513269415086
      ],
      [
        13.972233136330377,
        55.71745896257845
      ],
      [
        13.972234562629106,
        55.71740549184252
      ],
      [
        13.972135746919117,
        55.71735118495311
      ],
      [
        13.972137173375977,
        55.71729771427224
      ],
      [
        13.972038358113188,
        55.71724340733007
      ],
      [
        13.972039784728178,
        55.71718993670426
      ],
      [
        13.972041211337459,
        55.71713646611238
      ],
      [
        13.97204263794103,
        55.71708299555443
      ],
      [
        13.971943823453115,
        55.71702868860175
      ],
      [
        13.971945250214814,
        55.71697521809887
      ],
      [
        13.9719466769708,
        55.71692174762991
      ],
      [
        13.971948103721079,
        55.71686827719487
      ],
      [
        13.971849290008022,
        55.716813970231726
      ],
      [
        13.971850716916423,
        55.716760499851745
      ],
      [
        13.971852143819111,
        55.716707029505706
      ],
      [
        13.971753330717073,
        55.716652722510915
      ],
      [
        13.971654517898385,
        55.71659841544222
      ],
      [
        13.971554277968867,
        55.71659757858225
      ],
      [
        13.971455465553051,
        55.71654327134461
      ],
      [
        13.971355225693038,
        55.71654243430737
      ],
      [
        13.971254985783007,
        55.71654159718784
      ],
      [
        13.971154745822963,
        55.7165407599861
      ],
      [
        13.971053077571018,
        55.716593393048676
      ],
      [
        13.970952837341398,
        55.716592555695186
      ],
      [
        13.970852597061764,
        55.716591718259465
      ],
      [
        13.970752356732113,
        55.7165908807415
      ],
      [
        13.970650687426682,
        55.71664351357293
      ],
      [
        13.970550446827461,
        55.71664267590325
      ],
      [
        13.970450206178224,
        55.716641838151304
      ],
      [
        13.970349965478976,
        55.716641000317125
      ],
      [
        13.970248295120056,
        55.71669363291742
      ],
      [
        13.97014805415124,
        55.71669279493151
      ],
      [
        13.970047813132409,
        55.71669195686335
      ],
      [
        13.969947572063566,
        55.71669111871294
      ],
      [
        13.969847330944713,
        55.716690280480286
      ],
      [
        13.969747089775849,
        55.71668944216536
      ],
      [
        13.969645417924328,
        55.71674207439559
      ],
      [
        13.9695451764859,
        55.71674123592895
      ],
      [
        13.96944493499746,
        55.71674039738007
      ],
      [
        13.969344693459012,
        55.71673955874894
      ],
      [
        13.969244451870557,
        55.716738720035536
      ],
      [
        13.969144210232091,
        55.7167378812399
      ],
      [
        13.96904396854362,
        55.716737042362
      ],
      [
        13.968942294979948,
        55.71678967415265
      ],
      [
        13.968842053021914,
        55.716788835123026
      ],
      [
        13.968741811013876,
        55.71678799601115
      ],
      [
        13.968641568955833,
        55.71678715681702
      ],
      [
        13.968541326847781,
        55.71678631754063
      ],
      [
        13.968441084689728,
        55.71678547818199
      ],
      [
        13.96834084248167,
        55.71678463874109
      ],
      [
        13.968240600223606,
        55.71678379921795
      ],
      [
        13.96813892472823,
        55.716836430499555
      ],
      [
        13.968038682200614,
        55.71683559082469
      ],
      [
        13.967938439622992,
        55.71683475106755
      ],
      [
        13.96783819699537,
        55.71683391122816
      ],
      [
        13.967737954317746,
        55.7168330713065
      ],
      [
        13.96763771159012,
        55.71683223130261
      ],
      [
        13.967537468812493,
        55.71683139121646
      ],
      [
        13.967435791604974,
        55.71688402205845
      ],
      [
        13.967335548557797,
        55.71688318182057
      ],
      [
        13.96723530546062,
        55.71688234150042
      ],
      [
        13.967135062313446,
        55.71688150109803
      ],
      [
        13.967034819116273,
        55.71688066061338
      ],
      [
        13.966934575869104,
        55.71687982004646
      ],
      [
        13.966834332571935,
        55.71687897939729
      ],
      [
        13.966734089224769,
        55.71687813866587
      ],
      [
        13.966633845827607,
        55.71687729785219
      ],
      [
        13.966533602380448,
        55.71687645695625
      ],
      [
        13.966433358883293,
        55.71687561597805
      ],
      [
        13.966333115336147,
        55.7168747749176
      ],
      [
        13.966232871739003,
        55.71687393377488
      ],
      [
        13.96613119150205,
        55.716926563760396
      ],
      [
        13.966030947635367,
        55.71692572246593
      ],
      [
        13.965930703718689,
        55.71692488108923
      ],
      [
        13.965830459752018,
        55.716924039630264
      ],
      [
        13.965730215735356,
        55.716923198089034
      ],
      [
        13.965629971668701,
        55.716922356465545
      ],
      [
        13.965529727552056,
        55.7169215147598
      ],
      [
        13.965429483385417,
        55.7169206729718
      ],
      [
        13.96532923916879,
        55.71691983110155
      ],
      [
        13.965228994902175,
        55.71691898914902
      ],
      [
        13.965128750585565,
        55.716918147114235
      ],
      [
        13.965028506218971,
        55.716917304997196
      ],
      [
        13.964926823172163,
        55.71696993419564
      ],
      [
        13.964826578536035,
        55.71696909192686
      ],
      [
        13.964726333849919,
        55.71696824957581
      ],
      [
        13.964626089113816,
        55.71696740714251
      ],
      [
        13.964525844327726,
        55.71696656462695
      ],
      [
        13.96442559949165,
        55.71696572202913
      ],
      [
        13.964325354605588,
        55.71696487934904
      ],
      [
        13.96422510966954,
        55.71696403658669
      ],
      [
        13.964124864683509,
        55.71696319374208
      ],
      [
        13.96402461964749,
        55.71696235081522
      ],
      [
        13.963924374561492,
        55.71696150780609
      ],
      [
        13.963824129425507,
        55.71696066471469
      ],
      [
        13.963723884239542,
        55.71695982154106
      ],
      [
        13.96362363900359,
        55.71695897828515
      ],
      [
        13.96352339371766,
        55.716958134946964
      ],
      [
        13.963423148381748,
        55.71695729152652
      ],
      [
        13.96332146164695,
        55.71700991965991
      ],
      [
        13.963219774517285,
        55.71706254777046
      ],
      [
        13.96311808699275,
        55.71711517585824
      ],
      [
        13.963116645287423,
        55.71716864762163
      ],
      [
        13.963115203576326,
        55.717222119418956
      ],
      [
        13.96311376185946,
        55.71727559125019
      ],
      [
        13.963112320136828,
        55.71732906311538
      ],
      [
        13.963211125250774,
        55.71738337857951
      ],
      [
        13.963209683686168,
        55.71743685049978
      ],
      [
        13.963208242115796,
        55.71749032245397
      ],
      [
        13.963307047840717,
        55.717544637886554
      ],
      [
        13.96340585384902,
        55.717598953245236
      ],
      [
        13.963404412600477,
        55.71765242527567
      ],
      [
        13.963503219055964,
        55.71770674058165
      ],
      [
        13.963501777965458,
        55.71776021266716
      ],
      [
        13.963600584868134,
        55.7178145279204
      ],
      [
        13.963599143935662,
        55.71786800006102
      ],
      [
        13.963597702997426,
        55.71792147223554
      ],
      [
        13.963596262053425,
        55.717974944444
      ],
      [
        13.96359482110366,
        55.71802841668639
      ],
      [
        13.963593380148126,
        55.71808188896271
      ],
      [
        13.963591939186827,
        55.71813536127295
      ],
      [
        13.963490249033816,
        55.718187990572744
      ],
      [
        13.963388558485903,
        55.71824061984975
      ],
      [
        13.963286867543092,
        55.718293249103965
      ],
      [
        13.963185176205377,
        55.71834587833539
      ],
      [
        13.963083484472756,
        55.71839850754403
      ],
      [
        13.963082042628981,
        55.71845198012172
      ],
      [
        13.963080600779435,
        55.71850545273334
      ],
      [
        13.962978908301213,
        55.71855808201258
      ],
      [
        13.96287721542808,
        55.71861071126904
      ],
      [
        13.962775522160033,
        55.718663340502694
      ],
      [
        13.962675271048015,
        55.71866249691512
      ],
      [
        13.962575019886014,
        55.718661653245285
      ],
      [
        13.962473325783925,
        55.71871428231714
      ],
      [
        13.962373074352378,
        55.71871343849553
      ],
      [
        13.962271379635803,
        55.7187660674751
      ],
      [
        13.962171127934713,
        55.71876522350172
      ],
      [
        13.962070876183642,
        55.718764379446085
      ],
      [
        13.961970624382591,
        55.71876353530817
      ],
      [
        13.961870372531559,
        55.71876269108798
      ],
      [
        13.961770120630549,
        55.71876184678552
      ],
      [
        13.961669868679559,
        55.71876100240078
      ],
      [
        13.96156961667859,
        55.71876015793379
      ],
      [
        13.961467920030154,
        55.71881278640406
      ],
      [
        13.961367667759646,
        55.71881194178528
      ],
      [
        13.961268860375824,
        55.71875762403914
      ],
      [
        13.961168608174948,
        55.71875677924307
      ],
      [
        13.961068355924096,
        55.7187559343647
      ],
      [
        13.96096810362327,
        55.71875508940407
      ],
      [
        13.960867851272466,
        55.71875424436117
      ],
      [
        13.960767598871692,
        55.718753399236
      ],
      [
        13.96066879236933,
        55.71869908094079
      ],
      [
        13.96067023831193,
        55.71864560788697
      ],
      [
        13.960671684248748,
        55.71859213486707
      ],
      [
        13.960673130179782,
        55.71853866188111
      ],
      [
        13.960674576105026,
        55.71848518892906
      ],
      [
        13.96067602202449,
        55.718431716010954
      ],
      [
        13.960677467938167,
        55.718378243126786
      ],
      [
        13.96067891384606,
        55.71832477027654
      ],
      [
        13.960680359748165,
        55.71827129746021
      ],
      [
        13.960681805644489,
        55.71821782467783
      ],
      [
        13.960683251535027,
        55.71816435192937
      ]
    ]
  }
}
