<?xml version="1.0" encoding="UTF-8"?><gpx version="1.1" creator="Loppanalys route reconstruction"><trk><name>ÖST Naturloppet 5 km reconstructed</name><trkseg><trkpt lat="55.7168198" lon="13.9637195"></trkpt><trkpt lat="55.7167726" lon="13.9633924"></trkpt><trkpt lat="55.7167826" lon="13.9629664"></trkpt><trkpt lat="55.7169056" lon="13.9629987"></trkpt><trkpt lat="55.7172319" lon="13.9633437"></trkpt><trkpt lat="55.7176345" lon="13.9634177"></trkpt><trkpt lat="55.7178775" lon="13.9632452"></trkpt><trkpt lat="55.7176345" lon="13.9634177"></trkpt><trkpt lat="55.7172319" lon="13.9633437"></trkpt><trkpt lat="55.7169056" lon="13.9629987"></trkpt><trkpt lat="55.7167826" lon="13.9629664"></trkpt><trkpt lat="55.7167726" lon="13.9633924"></trkpt><trkpt lat="55.7168198" lon="13.9637195"></trkpt><trkpt lat="55.7168869" lon="13.9640465"></trkpt><trkpt lat="55.7170211" lon="13.9642367"></trkpt><trkpt lat="55.7171382" lon="13.9645232"></trkpt><trkpt lat="55.7172468" lon="13.9647717"></trkpt><trkpt lat="55.7173168" lon="13.9648833"></trkpt><trkpt lat="55.7173310" lon="13.9649771"></trkpt><trkpt lat="55.7172996" lon="13.9650633"></trkpt><trkpt lat="55.7172368" lon="13.9651723"></trkpt><trkpt lat="55.7172039" lon="13.9653041"></trkpt><trkpt lat="55.7171931" lon="13.9654247"></trkpt><trkpt lat="55.7172068" lon="13.9655204"></trkpt><trkpt lat="55.7172384" lon="13.9656150"></trkpt><trkpt lat="55.7172539" lon="13.9657306"></trkpt><trkpt lat="55.7172613" lon="13.9658252"></trkpt><trkpt lat="55.7172421" lon="13.9659594"></trkpt><trkpt lat="55.7171986" lon="13.9660913"></trkpt><trkpt lat="55.7171004" lon="13.9662925"></trkpt><trkpt lat="55.7170687" lon="13.9665178"></trkpt><trkpt lat="55.7170535" lon="13.9668477"></trkpt><trkpt lat="55.7169417" lon="13.9669845"></trkpt><trkpt lat="55.7168330" lon="13.9672098"></trkpt><trkpt lat="55.7167967" lon="13.9673922"></trkpt><trkpt lat="55.7167468" lon="13.9678589"></trkpt><trkpt lat="55.7166305" lon="13.9681915"></trkpt><trkpt lat="55.7165202" lon="13.9685295"></trkpt><trkpt lat="55.7163933" lon="13.9687387"></trkpt><trkpt lat="55.7162800" lon="13.9691705"></trkpt><trkpt lat="55.7161198" lon="13.9696372"></trkpt><trkpt lat="55.7160322" lon="13.9699752"></trkpt><trkpt lat="55.7159998" lon="13.9702748"></trkpt><trkpt lat="55.7160950" lon="13.9702957"></trkpt><trkpt lat="55.7162450" lon="13.9703806"></trkpt><trkpt lat="55.7163749" lon="13.9704563"></trkpt><trkpt lat="55.7164352" lon="13.9705007"></trkpt><trkpt lat="55.7168973" lon="13.9708410"></trkpt><trkpt lat="55.7173079" lon="13.9711851"></trkpt><trkpt lat="55.7176010" lon="13.9714228"></trkpt><trkpt lat="55.7177407" lon="13.9714419"></trkpt><trkpt lat="55.7178562" lon="13.9713799"></trkpt><trkpt lat="55.7179717" lon="13.9712177"></trkpt><trkpt lat="55.7183262" lon="13.9705167"></trkpt><trkpt lat="55.7184989" lon="13.9702060"></trkpt><trkpt lat="55.7184329" lon="13.9699742"></trkpt><trkpt lat="55.7175869" lon="13.9669487"></trkpt><trkpt lat="55.7184329" lon="13.9699742"></trkpt><trkpt lat="55.7184989" lon="13.9702060"></trkpt><trkpt lat="55.7185223" lon="13.9701639"></trkpt><trkpt lat="55.7187372" lon="13.9697490"></trkpt><trkpt lat="55.7189332" lon="13.9694295"></trkpt><trkpt lat="55.7191132" lon="13.9692149"></trkpt><trkpt lat="55.7193173" lon="13.9690623"></trkpt><trkpt lat="55.7195564" lon="13.9689574"></trkpt><trkpt lat="55.7198303" lon="13.9688859"></trkpt><trkpt lat="55.7195564" lon="13.9689574"></trkpt><trkpt lat="55.7193173" lon="13.9690623"></trkpt><trkpt lat="55.7191132" lon="13.9692149"></trkpt><trkpt lat="55.7189332" lon="13.9694295"></trkpt><trkpt lat="55.7187372" lon="13.9697490"></trkpt><trkpt lat="55.7185223" lon="13.9701639"></trkpt><trkpt lat="55.7184989" lon="13.9702060"></trkpt><trkpt lat="55.7183262" lon="13.9705167"></trkpt><trkpt lat="55.7179717" lon="13.9712177"></trkpt><trkpt lat="55.7178562" lon="13.9713799"></trkpt><trkpt lat="55.7177407" lon="13.9714419"></trkpt><trkpt lat="55.7176010" lon="13.9714228"></trkpt><trkpt lat="55.7173079" lon="13.9711851"></trkpt><trkpt lat="55.7168973" lon="13.9708410"></trkpt><trkpt lat="55.7164352" lon="13.9705007"></trkpt><trkpt lat="55.7163749" lon="13.9704563"></trkpt><trkpt lat="55.7162450" lon="13.9703806"></trkpt><trkpt lat="55.7160950" lon="13.9702957"></trkpt><trkpt lat="55.7159998" lon="13.9702748"></trkpt><trkpt lat="55.7160322" lon="13.9699752"></trkpt><trkpt lat="55.7161198" lon="13.9696372"></trkpt><trkpt lat="55.7162800" lon="13.9691705"></trkpt><trkpt lat="55.7163933" lon="13.9687387"></trkpt><trkpt lat="55.7165202" lon="13.9685295"></trkpt><trkpt lat="55.7166305" lon="13.9681915"></trkpt><trkpt lat="55.7167468" lon="13.9678589"></trkpt><trkpt lat="55.7167967" lon="13.9673922"></trkpt><trkpt lat="55.7168330" lon="13.9672098"></trkpt><trkpt lat="55.7169417" lon="13.9669845"></trkpt><trkpt lat="55.7170535" lon="13.9668477"></trkpt><trkpt lat="55.7170687" lon="13.9665178"></trkpt><trkpt lat="55.7171004" lon="13.9662925"></trkpt><trkpt lat="55.7171986" lon="13.9660913"></trkpt><trkpt lat="55.7172421" lon="13.9659594"></trkpt><trkpt lat="55.7172613" lon="13.9658252"></trkpt><trkpt lat="55.7172539" lon="13.9657306"></trkpt><trkpt lat="55.7172384" lon="13.9656150"></trkpt><trkpt lat="55.7172068" lon="13.9655204"></trkpt><trkpt lat="55.7171931" lon="13.9654247"></trkpt><trkpt lat="55.7172039" lon="13.9653041"></trkpt><trkpt lat="55.7172368" lon="13.9651723"></trkpt><trkpt lat="55.7172996" lon="13.9650633"></trkpt><trkpt lat="55.7173310" lon="13.9649771"></trkpt><trkpt lat="55.7173168" lon="13.9648833"></trkpt><trkpt lat="55.7172468" lon="13.9647717"></trkpt><trkpt lat="55.7171382" lon="13.9645232"></trkpt><trkpt lat="55.7170211" lon="13.9642367"></trkpt><trkpt lat="55.7168869" lon="13.9640465"></trkpt><trkpt lat="55.7168198" lon="13.9637195"></trkpt><trkpt lat="55.7167726" lon="13.9633924"></trkpt><trkpt lat="55.7167826" lon="13.9629664"></trkpt><trkpt lat="55.7169056" lon="13.9629987"></trkpt><trkpt lat="55.7172319" lon="13.9633437"></trkpt><trkpt lat="55.7176345" lon="13.9634177"></trkpt><trkpt lat="55.7178775" lon="13.9632452"></trkpt><trkpt lat="55.7180927" lon="13.9627768"></trkpt><trkpt lat="55.7182940" lon="13.9626289"></trkpt><trkpt lat="55.7183634" lon="13.9623578"></trkpt><trkpt lat="55.7184766" lon="13.9616043"></trkpt><trkpt lat="55.7184867" lon="13.9614428"></trkpt><trkpt lat="55.7189812" lon="13.9620744"></trkpt><trkpt lat="55.7195365" lon="13.9625180"></trkpt><trkpt lat="55.7204389" lon="13.9626166"></trkpt><trkpt lat="55.7207999" lon="13.9625673"></trkpt><trkpt lat="55.7204389" lon="13.9626166"></trkpt><trkpt lat="55.7195365" lon="13.9625180"></trkpt><trkpt lat="55.7189812" lon="13.9620744"></trkpt><trkpt lat="55.7184867" lon="13.9614428"></trkpt><trkpt lat="55.7184766" lon="13.9616043"></trkpt><trkpt lat="55.7183634" lon="13.9623578"></trkpt><trkpt lat="55.7182940" lon="13.9626289"></trkpt><trkpt lat="55.7180927" lon="13.9627768"></trkpt><trkpt lat="55.7178775" lon="13.9632452"></trkpt><trkpt lat="55.7176345" lon="13.9634177"></trkpt><trkpt lat="55.7172319" lon="13.9633437"></trkpt><trkpt lat="55.7169056" lon="13.9629987"></trkpt><trkpt lat="55.7167826" lon="13.9629664"></trkpt><trkpt lat="55.7167726" lon="13.9633924"></trkpt><trkpt lat="55.7168198" lon="13.9637195"></trkpt><trkpt lat="55.7168869" lon="13.9640465"></trkpt><trkpt lat="55.7170211" lon="13.9642367"></trkpt><trkpt lat="55.7171382" lon="13.9645232"></trkpt><trkpt lat="55.7172468" lon="13.9647717"></trkpt><trkpt lat="55.7173168" lon="13.9648833"></trkpt><trkpt lat="55.7173310" lon="13.9649771"></trkpt><trkpt lat="55.7172996" lon="13.9650633"></trkpt><trkpt lat="55.7172368" lon="13.9651723"></trkpt><trkpt lat="55.7172039" lon="13.9653041"></trkpt><trkpt lat="55.7171931" lon="13.9654247"></trkpt><trkpt lat="55.7172068" lon="13.9655204"></trkpt><trkpt lat="55.7172384" lon="13.9656150"></trkpt><trkpt lat="55.7172539" lon="13.9657306"></trkpt><trkpt lat="55.7172613" lon="13.9658252"></trkpt><trkpt lat="55.7172421" lon="13.9659594"></trkpt><trkpt lat="55.7171986" lon="13.9660913"></trkpt><trkpt lat="55.7171004" lon="13.9662925"></trkpt><trkpt lat="55.7170687" lon="13.9665178"></trkpt><trkpt lat="55.7170535" lon="13.9668477"></trkpt><trkpt lat="55.7169417" lon="13.9669845"></trkpt><trkpt lat="55.7168330" lon="13.9672098"></trkpt><trkpt lat="55.7167967" lon="13.9673922"></trkpt><trkpt lat="55.7167468" lon="13.9678589"></trkpt><trkpt lat="55.7166305" lon="13.9681915"></trkpt><trkpt lat="55.7165202" lon="13.9685295"></trkpt><trkpt lat="55.7163933" lon="13.9687387"></trkpt><trkpt lat="55.7162800" lon="13.9691705"></trkpt><trkpt lat="55.7161198" lon="13.9696372"></trkpt><trkpt lat="55.7160322" lon="13.9699752"></trkpt><trkpt lat="55.7159998" lon="13.9702748"></trkpt><trkpt lat="55.7160950" lon="13.9702957"></trkpt><trkpt lat="55.7162450" lon="13.9703806"></trkpt><trkpt lat="55.7163749" lon="13.9704563"></trkpt><trkpt lat="55.7164352" lon="13.9705007"></trkpt><trkpt lat="55.7168973" lon="13.9708410"></trkpt><trkpt lat="55.7173079" lon="13.9711851"></trkpt><trkpt lat="55.7176010" lon="13.9714228"></trkpt><trkpt lat="55.7177407" lon="13.9714419"></trkpt><trkpt lat="55.7178562" lon="13.9713799"></trkpt><trkpt lat="55.7179717" lon="13.9712177"></trkpt><trkpt lat="55.7183262" lon="13.9705167"></trkpt><trkpt lat="55.7184989" lon="13.9702060"></trkpt><trkpt lat="55.7185223" lon="13.9701639"></trkpt><trkpt lat="55.7187372" lon="13.9697490"></trkpt><trkpt lat="55.7189332" lon="13.9694295"></trkpt><trkpt lat="55.7191132" lon="13.9692149"></trkpt><trkpt lat="55.7193173" lon="13.9690623"></trkpt><trkpt lat="55.7195564" lon="13.9689574"></trkpt><trkpt lat="55.7198303" lon="13.9688859"></trkpt><trkpt lat="55.7203621" lon="13.9688763"></trkpt><trkpt lat="55.7207838" lon="13.9688334"></trkpt><trkpt lat="55.7210417" lon="13.9687476"></trkpt><trkpt lat="55.7212592" lon="13.9686474"></trkpt><trkpt lat="55.7214230" lon="13.9685044"></trkpt><trkpt lat="55.7215385" lon="13.9683518"></trkpt><trkpt lat="55.7217212" lon="13.9680275"></trkpt><trkpt lat="55.7218554" lon="13.9677509"></trkpt><trkpt lat="55.7220434" lon="13.9674267"></trkpt><trkpt lat="55.7222664" lon="13.9671358"></trkpt><trkpt lat="55.7227229" lon="13.9666589"></trkpt><trkpt lat="55.7234242" lon="13.9659029"></trkpt><trkpt lat="55.7227229" lon="13.9666589"></trkpt><trkpt lat="55.7222664" lon="13.9671358"></trkpt><trkpt lat="55.7220434" lon="13.9674267"></trkpt><trkpt lat="55.7218554" lon="13.9677509"></trkpt><trkpt lat="55.7217212" lon="13.9680275"></trkpt><trkpt lat="55.7215385" lon="13.9683518"></trkpt><trkpt lat="55.7214230" lon="13.9685044"></trkpt><trkpt lat="55.7212592" lon="13.9686474"></trkpt><trkpt lat="55.7210417" lon="13.9687476"></trkpt><trkpt lat="55.7207838" lon="13.9688334"></trkpt><trkpt lat="55.7203621" lon="13.9688763"></trkpt><trkpt lat="55.7198303" lon="13.9688859"></trkpt><trkpt lat="55.7195564" lon="13.9689574"></trkpt><trkpt lat="55.7193173" lon="13.9690623"></trkpt><trkpt lat="55.7191132" lon="13.9692149"></trkpt><trkpt lat="55.7189332" lon="13.9694295"></trkpt><trkpt lat="55.7187372" lon="13.9697490"></trkpt><trkpt lat="55.7185223" lon="13.9701639"></trkpt><trkpt lat="55.7184989" lon="13.9702060"></trkpt><trkpt lat="55.7183262" lon="13.9705167"></trkpt><trkpt lat="55.7179717" lon="13.9712177"></trkpt><trkpt lat="55.7178562" lon="13.9713799"></trkpt><trkpt lat="55.7177407" lon="13.9714419"></trkpt><trkpt lat="55.7176010" lon="13.9714228"></trkpt><trkpt lat="55.7173079" lon="13.9711851"></trkpt><trkpt lat="55.7168973" lon="13.9708410"></trkpt><trkpt lat="55.7164352" lon="13.9705007"></trkpt><trkpt lat="55.7163749" lon="13.9704563"></trkpt><trkpt lat="55.7162450" lon="13.9703806"></trkpt><trkpt lat="55.7160950" lon="13.9702957"></trkpt><trkpt lat="55.7159998" lon="13.9702748"></trkpt><trkpt lat="55.7160322" lon="13.9699752"></trkpt><trkpt lat="55.7161198" lon="13.9696372"></trkpt><trkpt lat="55.7162800" lon="13.9691705"></trkpt><trkpt lat="55.7163933" lon="13.9687387"></trkpt><trkpt lat="55.7165202" lon="13.9685295"></trkpt><trkpt lat="55.7166305" lon="13.9681915"></trkpt><trkpt lat="55.7167468" lon="13.9678589"></trkpt><trkpt lat="55.7167967" lon="13.9673922"></trkpt><trkpt lat="55.7168330" lon="13.9672098"></trkpt><trkpt lat="55.7169417" lon="13.9669845"></trkpt><trkpt lat="55.7170535" lon="13.9668477"></trkpt><trkpt lat="55.7170687" lon="13.9665178"></trkpt><trkpt lat="55.7171004" lon="13.9662925"></trkpt><trkpt lat="55.7171986" lon="13.9660913"></trkpt><trkpt lat="55.7172421" lon="13.9659594"></trkpt><trkpt lat="55.7172613" lon="13.9658252"></trkpt><trkpt lat="55.7172539" lon="13.9657306"></trkpt><trkpt lat="55.7172384" lon="13.9656150"></trkpt><trkpt lat="55.7172068" lon="13.9655204"></trkpt><trkpt lat="55.7171931" lon="13.9654247"></trkpt><trkpt lat="55.7172039" lon="13.9653041"></trkpt><trkpt lat="55.7172368" lon="13.9651723"></trkpt><trkpt lat="55.7172996" lon="13.9650633"></trkpt><trkpt lat="55.7173310" lon="13.9649771"></trkpt><trkpt lat="55.7173168" lon="13.9648833"></trkpt><trkpt lat="55.7172468" lon="13.9647717"></trkpt><trkpt lat="55.7171382" lon="13.9645232"></trkpt><trkpt lat="55.7170211" lon="13.9642367"></trkpt><trkpt lat="55.7168869" lon="13.9640465"></trkpt><trkpt lat="55.7168198" lon="13.9637195"></trkpt><trkpt lat="55.7167726" lon="13.9633924"></trkpt><trkpt lat="55.7167826" lon="13.9629664"></trkpt><trkpt lat="55.7169056" lon="13.9629987"></trkpt><trkpt lat="55.7172319" lon="13.9633437"></trkpt><trkpt lat="55.7176345" lon="13.9634177"></trkpt><trkpt lat="55.7178775" lon="13.9632452"></trkpt><trkpt lat="55.7180927" lon="13.9627768"></trkpt><trkpt lat="55.7182940" lon="13.9626289"></trkpt><trkpt lat="55.7183634" lon="13.9623578"></trkpt><trkpt lat="55.7184766" lon="13.9616043"></trkpt><trkpt lat="55.7184867" lon="13.9614428"></trkpt><trkpt lat="55.7189812" lon="13.9620744"></trkpt><trkpt lat="55.7195365" lon="13.9625180"></trkpt><trkpt lat="55.7204389" lon="13.9626166"></trkpt><trkpt lat="55.7207999" lon="13.9625673"></trkpt><trkpt lat="55.7211816" lon="13.9616307"></trkpt><trkpt lat="55.7212580" lon="13.9613226"></trkpt><trkpt lat="55.7214801" lon="13.9610638"></trkpt><trkpt lat="55.7215870" lon="13.9609591"></trkpt><trkpt lat="55.7216953" lon="13.9607433"></trkpt><trkpt lat="55.7217716" lon="13.9604722"></trkpt><trkpt lat="55.7221534" lon="13.9601518"></trkpt><trkpt lat="55.7224792" lon="13.9606612"></trkpt><trkpt lat="55.7226805" lon="13.9608584"></trkpt><trkpt lat="55.7229859" lon="13.9607721"></trkpt><trkpt lat="55.7232982" lon="13.9607228"></trkpt><trkpt lat="55.7235203" lon="13.9609076"></trkpt><trkpt lat="55.7237286" lon="13.9611048"></trkpt><trkpt lat="55.7238951" lon="13.9614253"></trkpt><trkpt lat="55.7239645" lon="13.9621154"></trkpt><trkpt lat="55.7240062" lon="13.9627686"></trkpt><trkpt lat="55.7239645" lon="13.9621154"></trkpt><trkpt lat="55.7238951" lon="13.9614253"></trkpt><trkpt lat="55.7237286" lon="13.9611048"></trkpt><trkpt lat="55.7235203" lon="13.9609076"></trkpt><trkpt lat="55.7232982" lon="13.9607228"></trkpt><trkpt lat="55.7229859" lon="13.9607721"></trkpt><trkpt lat="55.7226805" lon="13.9608584"></trkpt><trkpt lat="55.7224792" lon="13.9606612"></trkpt><trkpt lat="55.7221534" lon="13.9601518"></trkpt><trkpt lat="55.7217716" lon="13.9604722"></trkpt><trkpt lat="55.7216953" lon="13.9607433"></trkpt><trkpt lat="55.7215870" lon="13.9609591"></trkpt><trkpt lat="55.7214801" lon="13.9610638"></trkpt><trkpt lat="55.7212580" lon="13.9613226"></trkpt><trkpt lat="55.7214801" lon="13.9610638"></trkpt><trkpt lat="55.7215870" lon="13.9609591"></trkpt><trkpt lat="55.7216953" lon="13.9607433"></trkpt><trkpt lat="55.7217716" lon="13.9604722"></trkpt><trkpt lat="55.7221534" lon="13.9601518"></trkpt><trkpt lat="55.7224657" lon="13.9591658"></trkpt><trkpt lat="55.7225768" lon="13.9588824"></trkpt><trkpt lat="55.7225005" lon="13.9586113"></trkpt><trkpt lat="55.7221256" lon="13.9579334"></trkpt><trkpt lat="55.7214593" lon="13.9575637"></trkpt><trkpt lat="55.7212580" lon="13.9573788"></trkpt><trkpt lat="55.7211192" lon="13.9570954"></trkpt><trkpt lat="55.7207443" lon="13.9559862"></trkpt><trkpt lat="55.7205430" lon="13.9556534"></trkpt><trkpt lat="55.7202446" lon="13.9556534"></trkpt><trkpt lat="55.7199877" lon="13.9558506"></trkpt><trkpt lat="55.7194671" lon="13.9558506"></trkpt><trkpt lat="55.7191666" lon="13.9557025"></trkpt><trkpt lat="55.7191347" lon="13.9557528"></trkpt><trkpt lat="55.7189182" lon="13.9564882"></trkpt><trkpt lat="55.7191347" lon="13.9557528"></trkpt><trkpt lat="55.7191666" lon="13.9557025"></trkpt><trkpt lat="55.7194671" lon="13.9558506"></trkpt><trkpt lat="55.7191666" lon="13.9557025"></trkpt><trkpt lat="55.7192068" lon="13.9556390"></trkpt><trkpt lat="55.7193940" lon="13.9549220"></trkpt><trkpt lat="55.7196810" lon="13.9538974"></trkpt><trkpt lat="55.7200889" lon="13.9526528"></trkpt><trkpt lat="55.7203095" lon="13.9522344"></trkpt><trkpt lat="55.7206932" lon="13.9516228"></trkpt><trkpt lat="55.7211555" lon="13.9502871"></trkpt><trkpt lat="55.7212793" lon="13.9498311"></trkpt><trkpt lat="55.7214092" lon="13.9485329"></trkpt><trkpt lat="55.7214697" lon="13.9480072"></trkpt><trkpt lat="55.7216087" lon="13.9476263"></trkpt><trkpt lat="55.7221253" lon="13.9471006"></trkpt><trkpt lat="55.7216087" lon="13.9476263"></trkpt><trkpt lat="55.7214697" lon="13.9480072"></trkpt><trkpt lat="55.7216087" lon="13.9476263"></trkpt><trkpt lat="55.7221253" lon="13.9471006"></trkpt><trkpt lat="55.7224788" lon="13.9467198"></trkpt><trkpt lat="55.7225876" lon="13.9461780"></trkpt><trkpt lat="55.7225876" lon="13.9458024"></trkpt><trkpt lat="55.7224848" lon="13.9454484"></trkpt><trkpt lat="55.7223564" lon="13.9452124"></trkpt><trkpt lat="55.7222975" lon="13.9451694"></trkpt><trkpt lat="55.7217778" lon="13.9454001"></trkpt><trkpt lat="55.7211947" lon="13.9457488"></trkpt><trkpt lat="55.7208654" lon="13.9458400"></trkpt><trkpt lat="55.7203759" lon="13.9458454"></trkpt><trkpt lat="55.7200345" lon="13.9460063"></trkpt><trkpt lat="55.7195390" lon="13.9464301"></trkpt><trkpt lat="55.7191553" lon="13.9466822"></trkpt><trkpt lat="55.7189830" lon="13.9467198"></trkpt><trkpt lat="55.7183646" lon="13.9458432"></trkpt><trkpt lat="55.7182337" lon="13.9456576"></trkpt><trkpt lat="55.7178016" lon="13.9453733"></trkpt><trkpt lat="55.7173997" lon="13.9453679"></trkpt><trkpt lat="55.7165718" lon="13.9454001"></trkpt><trkpt lat="55.7161095" lon="13.9457381"></trkpt><trkpt lat="55.7160242" lon="13.9458062"></trkpt><trkpt lat="55.7154447" lon="13.9462691"></trkpt><trkpt lat="55.7148373" lon="13.9464515"></trkpt><trkpt lat="55.7138673" lon="13.9468646"></trkpt><trkpt lat="55.7136588" lon="13.9467466"></trkpt><trkpt lat="55.7133898" lon="13.9465320"></trkpt><trkpt lat="55.7132387" lon="13.9465856"></trkpt><trkpt lat="55.7127401" lon="13.9468163"></trkpt><trkpt lat="55.7122566" lon="13.9470684"></trkpt><trkpt lat="55.7121024" lon="13.9472562"></trkpt><trkpt lat="55.7123291" lon="13.9476854"></trkpt><trkpt lat="55.7129063" lon="13.9483881"></trkpt><trkpt lat="55.7133173" lon="13.9487636"></trkpt><trkpt lat="55.7134926" lon="13.9490908"></trkpt><trkpt lat="55.7133173" lon="13.9487636"></trkpt><trkpt lat="55.7129063" lon="13.9483881"></trkpt><trkpt lat="55.7123291" lon="13.9476854"></trkpt><trkpt lat="55.7129063" lon="13.9483881"></trkpt><trkpt lat="55.7133173" lon="13.9487636"></trkpt><trkpt lat="55.7134926" lon="13.9490908"></trkpt><trkpt lat="55.7139307" lon="13.9500833"></trkpt><trkpt lat="55.7142148" lon="13.9508182"></trkpt><trkpt lat="55.7143780" lon="13.9511937"></trkpt><trkpt lat="55.7146651" lon="13.9515424"></trkpt><trkpt lat="55.7149461" lon="13.9517945"></trkpt><trkpt lat="55.7152180" lon="13.9519501"></trkpt><trkpt lat="55.7154478" lon="13.9520817"></trkpt><trkpt lat="55.7154350" lon="13.9521668"></trkpt><trkpt lat="55.7153764" lon="13.9525574"></trkpt><trkpt lat="55.7149562" lon="13.9529776"></trkpt><trkpt lat="55.7149165" lon="13.9531759"></trkpt><trkpt lat="55.7149799" lon="13.9533344"></trkpt><trkpt lat="55.7148101" lon="13.9539336"></trkpt><trkpt lat="55.7146866" lon="13.9539370"></trkpt><trkpt lat="55.7148076" lon="13.9539563"></trkpt><trkpt lat="55.7149324" lon="13.9540322"></trkpt><trkpt lat="55.7151281" lon="13.9542844"></trkpt><trkpt lat="55.7152220" lon="13.9548994"></trkpt><trkpt lat="55.7152971" lon="13.9552453"></trkpt><trkpt lat="55.7154098" lon="13.9554675"></trkpt><trkpt lat="55.7155342" lon="13.9555936"></trkpt><trkpt lat="55.7155977" lon="13.9556810"></trkpt><trkpt lat="55.7156395" lon="13.9559550"></trkpt><trkpt lat="55.7156539" lon="13.9561809"></trkpt><trkpt lat="55.7155112" lon="13.9568707"></trkpt><trkpt lat="55.7155429" lon="13.9579808"></trkpt><trkpt lat="55.7156698" lon="13.9584803"></trkpt><trkpt lat="55.7159156" lon="13.9590988"></trkpt><trkpt lat="55.7159552" lon="13.9595587"></trkpt><trkpt lat="55.7159845" lon="13.9604370"></trkpt><trkpt lat="55.7168448" lon="13.9604187"></trkpt><trkpt lat="55.7167547" lon="13.9614415"></trkpt><trkpt lat="55.7167069" lon="13.9617443"></trkpt><trkpt lat="55.7167483" lon="13.9620029"></trkpt><trkpt lat="55.7167026" lon="13.9624086"></trkpt><trkpt lat="55.7167312" lon="13.9626672"></trkpt><trkpt lat="55.7167826" lon="13.9629664"></trkpt><trkpt lat="55.7167726" lon="13.9633924"></trkpt><trkpt lat="55.7168198" lon="13.9637195"></trkpt></trkseg></trk></gpx>
