{
  "type": "Feature",
  "properties": {
    "name": "ÖST Naturloppet 5 km reconstructed",
    "status": "validated_reconstruction_candidate",
    "provenance": "organizer raster snapped to OpenStreetMap",
    "distance_km": 5.481,
    "osm_way_ids": [
      1237245924,
      68423856,
      1237245921,
      1237245922,
      1237245923,
      1071346477,
      1075199983,
      1075199979,
      1075199980,
      1075199981,
      295016553,
      203894157,
      450631364,
      1083251567
    ]
  },
  "geometry": {
    "type": "LineString",
    "coordinates": [
      [
        13.960306,
        55.718009699999996
      ],
      [
        13.9605987,
        55.7181288
      ],
      [
        13.9606963,
        55.7182433
      ],
      [
        13.9607163,
        55.71853209999999
      ],
      [
        13.9614428,
        55.7184867
      ],
      [
        13.962074400000002,
        55.718981199999995
      ],
      [
        13.962518,
        55.7195365
      ],
      [
        13.9626166,
        55.7204389
      ],
      [
        13.9625673,
        55.72079989999999
      ],
      [
        13.9616307,
        55.721181599999994
      ],
      [
        13.9613226,
        55.721257999999985
      ],
      [
        13.961063800000002,
        55.72148010000001
      ],
      [
        13.9609591,
        55.72158699999999
      ],
      [
        13.9607433,
        55.7216953
      ],
      [
        13.9604722,
        55.7217716
      ],
      [
        13.9601518,
        55.7221534
      ],
      [
        13.9606612,
        55.72247920000001
      ],
      [
        13.9608584,
        55.722680499999996
      ],
      [
        13.9607721,
        55.72298589999999
      ],
      [
        13.9607228,
        55.7232982
      ],
      [
        13.9609076,
        55.7235203
      ],
      [
        13.9611048,
        55.7237286
      ],
      [
        13.9614253,
        55.72389510000001
      ],
      [
        13.9621154,
        55.7239645
      ],
      [
        13.9627686,
        55.7240062
      ],
      [
        13.9631383,
        55.724207499999984
      ],
      [
        13.9633602,
        55.7244504
      ],
      [
        13.9634341,
        55.724609999999984
      ],
      [
        13.9632492,
        55.724616999999995
      ],
      [
        13.9619799,
        55.724575300000005
      ],
      [
        13.9611541,
        55.724471199999996
      ],
      [
        13.9606612,
        55.72413809999999
      ],
      [
        13.9604886,
        55.7238951
      ],
      [
        13.9603531,
        55.7235481
      ],
      [
        13.9602298,
        55.7234023
      ],
      [
        13.9599464,
        55.7232705
      ],
      [
        13.9598108,
        55.7229859
      ],
      [
        13.959662900000001,
        55.722798499999996
      ],
      [
        13.9588824,
        55.722576800000006
      ],
      [
        13.9586113,
        55.72250050000001
      ],
      [
        13.9579334,
        55.722125600000005
      ],
      [
        13.9575637,
        55.7214593
      ],
      [
        13.9573788,
        55.721258
      ],
      [
        13.9570954,
        55.721119200000004
      ],
      [
        13.9559862,
        55.72074430000001
      ],
      [
        13.9556534,
        55.720543
      ],
      [
        13.9556534,
        55.7202446
      ],
      [
        13.955850600000002,
        55.7199877
      ],
      [
        13.955850600000002,
        55.719467099999996
      ],
      [
        13.9557025,
        55.7191666
      ],
      [
        13.955639,
        55.7192068
      ],
      [
        13.954922,
        55.719393999999994
      ],
      [
        13.9538974,
        55.71968100000001
      ],
      [
        13.9526528,
        55.72008889999999
      ],
      [
        13.952234400000002,
        55.72030949999999
      ],
      [
        13.9516228,
        55.720693199999985
      ],
      [
        13.9502871,
        55.721155499999995
      ],
      [
        13.9498311,
        55.721279300000006
      ],
      [
        13.9485329,
        55.72140919999999
      ],
      [
        13.948007200000001,
        55.721469699999986
      ],
      [
        13.9476263,
        55.7216087
      ],
      [
        13.9471006,
        55.722125299999995
      ],
      [
        13.946719800000002,
        55.72247879999999
      ],
      [
        13.946178000000002,
        55.722587600000004
      ],
      [
        13.9458024,
        55.72258759999999
      ],
      [
        13.9454484,
        55.72248479999998
      ],
      [
        13.9452124,
        55.722356399999995
      ],
      [
        13.9451694,
        55.722297499999996
      ],
      [
        13.9454001,
        55.72177779999999
      ],
      [
        13.9457488,
        55.7211947
      ],
      [
        13.94584,
        55.720865399999994
      ],
      [
        13.9458454,
        55.72037590000001
      ],
      [
        13.9460063,
        55.7200345
      ],
      [
        13.9464301,
        55.71953899999999
      ],
      [
        13.9466822,
        55.7191553
      ],
      [
        13.946719800000002,
        55.71898300000001
      ],
      [
        13.9458432,
        55.718364599999994
      ],
      [
        13.9455879,
        55.718414999999986
      ],
      [
        13.9452338,
        55.71840890000001
      ],
      [
        13.9448315,
        55.7182881
      ],
      [
        13.9452338,
        55.71840890000001
      ],
      [
        13.9455879,
        55.718414999999986
      ],
      [
        13.9458432,
        55.718364599999994
      ],
      [
        13.945657600000002,
        55.718233700000006
      ],
      [
        13.9453733,
        55.71780160000001
      ],
      [
        13.9453679,
        55.7173997
      ],
      [
        13.9454001,
        55.7165718
      ],
      [
        13.9457381,
        55.7161095
      ],
      [
        13.9458062,
        55.7160242
      ],
      [
        13.945762,
        55.716013000000004
      ],
      [
        13.9453196,
        55.715900999999995
      ],
      [
        13.9446115,
        55.7156592
      ],
      [
        13.9453196,
        55.715900999999995
      ],
      [
        13.945762,
        55.716013000000004
      ],
      [
        13.9458062,
        55.7160242
      ],
      [
        13.9462691,
        55.71544469999999
      ],
      [
        13.9464515,
        55.714837299999985
      ],
      [
        13.9468646,
        55.7138673
      ],
      [
        13.9467466,
        55.71365879999999
      ],
      [
        13.946532,
        55.7133898
      ],
      [
        13.9465856,
        55.713238699999984
      ],
      [
        13.9468163,
        55.71274009999999
      ],
      [
        13.9470684,
        55.7122566
      ],
      [
        13.9472562,
        55.712102400000006
      ],
      [
        13.9476854,
        55.71232909999999
      ],
      [
        13.9483881,
        55.7129063
      ],
      [
        13.9487636,
        55.7133173
      ],
      [
        13.9490908,
        55.7134926
      ],
      [
        13.9500833,
        55.7139307
      ],
      [
        13.9508182,
        55.71421479999999
      ],
      [
        13.951193700000001,
        55.714377999999996
      ],
      [
        13.9515424,
        55.71466509999999
      ],
      [
        13.9517945,
        55.714946100000006
      ],
      [
        13.9519501,
        55.715218
      ],
      [
        13.9520817,
        55.71544779999999
      ],
      [
        13.952959400000001,
        55.71607839999998
      ],
      [
        13.9533904,
        55.7161561
      ],
      [
        13.954387900000002,
        55.7160319
      ],
      [
        13.9558767,
        55.71584649999999
      ],
      [
        13.957214,
        55.71658310000001
      ],
      [
        13.9577397,
        55.71669190000001
      ],
      [
        13.9584301,
        55.7170249
      ],
      [
        13.9589955,
        55.71697160000001
      ],
      [
        13.9604187,
        55.7168448
      ],
      [
        13.960426,
        55.716925299999986
      ],
      [
        13.9604913,
        55.71755829999999
      ],
      [
        13.9605499,
        55.71755590000001
      ],
      [
        13.9606069,
        55.717563899999995
      ],
      [
        13.9606567,
        55.7175814
      ],
      [
        13.9606944,
        55.7176068
      ],
      [
        13.9607163,
        55.717637499999995
      ],
      [
        13.9607201,
        55.717670500000004
      ],
      [
        13.9607056,
        55.7177026
      ],
      [
        13.9606742,
        55.71773049999999
      ],
      [
        13.9606289,
        55.71775159999999
      ],
      [
        13.9605742,
        55.7177637
      ],
      [
        13.9605096,
        55.7177653
      ],
      [
        13.9604479,
        55.71775439999998
      ],
      [
        13.9603965,
        55.7177323
      ],
      [
        13.960302000000002,
        55.717803599999996
      ],
      [
        13.960306,
        55.718009699999996
      ]
    ]
  }
}
