<?xml version="1.0" encoding="UTF-8"?><gpx version="1.1" creator="Loppanalys"><trk><name>ÖST Trail 13/14 raster topology</name><trkseg><trkpt lat="55.7178435" lon="13.9606919"></trkpt><trkpt lat="55.7177900" lon="13.9606934"></trkpt><trkpt lat="55.7177357" lon="13.9605946"></trkpt><trkpt lat="55.7176823" lon="13.9605960"></trkpt><trkpt lat="55.7176288" lon="13.9605975"></trkpt><trkpt lat="55.7175753" lon="13.9605989"></trkpt><trkpt lat="55.7175218" lon="13.9606004"></trkpt><trkpt lat="55.7174684" lon="13.9606018"></trkpt><trkpt lat="55.7174149" lon="13.9606032"></trkpt><trkpt lat="55.7173606" lon="13.9605044"></trkpt><trkpt lat="55.7173071" lon="13.9605059"></trkpt><trkpt lat="55.7172536" lon="13.9605073"></trkpt><trkpt lat="55.7171993" lon="13.9604085"></trkpt><trkpt lat="55.7171450" lon="13.9603097"></trkpt><trkpt lat="55.7171441" lon="13.9602095"></trkpt><trkpt lat="55.7171433" lon="13.9601092"></trkpt><trkpt lat="55.7171425" lon="13.9600090"></trkpt><trkpt lat="55.7171416" lon="13.9599087"></trkpt><trkpt lat="55.7171408" lon="13.9598085"></trkpt><trkpt lat="55.7171934" lon="13.9597068"></trkpt><trkpt lat="55.7172460" lon="13.9596051"></trkpt><trkpt lat="55.7172986" lon="13.9595034"></trkpt><trkpt lat="55.7172978" lon="13.9594032"></trkpt><trkpt lat="55.7172969" lon="13.9593029"></trkpt><trkpt lat="55.7172961" lon="13.9592027"></trkpt><trkpt lat="55.7173487" lon="13.9591010"></trkpt><trkpt lat="55.7173479" lon="13.9590007"></trkpt><trkpt lat="55.7173470" lon="13.9589005"></trkpt><trkpt lat="55.7173462" lon="13.9588002"></trkpt><trkpt lat="55.7172919" lon="13.9587014"></trkpt><trkpt lat="55.7172910" lon="13.9586012"></trkpt><trkpt lat="55.7172902" lon="13.9585009"></trkpt><trkpt lat="55.7172893" lon="13.9584007"></trkpt><trkpt lat="55.7172350" lon="13.9583019"></trkpt><trkpt lat="55.7172342" lon="13.9582016"></trkpt><trkpt lat="55.7172333" lon="13.9581014"></trkpt><trkpt lat="55.7171790" lon="13.9580026"></trkpt><trkpt lat="55.7171781" lon="13.9579023"></trkpt><trkpt lat="55.7171238" lon="13.9578035"></trkpt><trkpt lat="55.7170695" lon="13.9577047"></trkpt><trkpt lat="55.7170686" lon="13.9576045"></trkpt><trkpt lat="55.7170143" lon="13.9575057"></trkpt><trkpt lat="55.7169600" lon="13.9574069"></trkpt><trkpt lat="55.7169065" lon="13.9574083"></trkpt><trkpt lat="55.7168522" lon="13.9573095"></trkpt><trkpt lat="55.7167979" lon="13.9572107"></trkpt><trkpt lat="55.7167436" lon="13.9571119"></trkpt><trkpt lat="55.7166893" lon="13.9570132"></trkpt><trkpt lat="55.7166349" lon="13.9569144"></trkpt><trkpt lat="55.7166341" lon="13.9568141"></trkpt><trkpt lat="55.7166332" lon="13.9567139"></trkpt><trkpt lat="55.7165789" lon="13.9566151"></trkpt><trkpt lat="55.7165781" lon="13.9565148"></trkpt><trkpt lat="55.7165237" lon="13.9564160"></trkpt><trkpt lat="55.7165229" lon="13.9563158"></trkpt><trkpt lat="55.7164686" lon="13.9562170"></trkpt><trkpt lat="55.7164677" lon="13.9561167"></trkpt><trkpt lat="55.7164134" lon="13.9560179"></trkpt><trkpt lat="55.7163591" lon="13.9559191"></trkpt><trkpt lat="55.7163048" lon="13.9558204"></trkpt><trkpt lat="55.7162513" lon="13.9558218"></trkpt><trkpt lat="55.7161970" lon="13.9557230"></trkpt><trkpt lat="55.7161961" lon="13.9556228"></trkpt><trkpt lat="55.7161418" lon="13.9555240"></trkpt><trkpt lat="55.7161409" lon="13.9554237"></trkpt><trkpt lat="55.7160866" lon="13.9553249"></trkpt><trkpt lat="55.7160858" lon="13.9552247"></trkpt><trkpt lat="55.7160849" lon="13.9551244"></trkpt><trkpt lat="55.7160841" lon="13.9550242"></trkpt><trkpt lat="55.7160832" lon="13.9549239"></trkpt><trkpt lat="55.7160824" lon="13.9548237"></trkpt><trkpt lat="55.7160815" lon="13.9547235"></trkpt><trkpt lat="55.7160807" lon="13.9546232"></trkpt><trkpt lat="55.7160798" lon="13.9545230"></trkpt><trkpt lat="55.7160790" lon="13.9544227"></trkpt><trkpt lat="55.7160781" lon="13.9543225"></trkpt><trkpt lat="55.7160773" lon="13.9542222"></trkpt><trkpt lat="55.7160764" lon="13.9541220"></trkpt><trkpt lat="55.7160756" lon="13.9540217"></trkpt><trkpt lat="55.7161282" lon="13.9539200"></trkpt><trkpt lat="55.7161273" lon="13.9538198"></trkpt><trkpt lat="55.7161265" lon="13.9537195"></trkpt><trkpt lat="55.7161256" lon="13.9536193"></trkpt><trkpt lat="55.7161248" lon="13.9535190"></trkpt><trkpt lat="55.7161239" lon="13.9534188"></trkpt><trkpt lat="55.7161231" lon="13.9533185"></trkpt><trkpt lat="55.7161757" lon="13.9532168"></trkpt><trkpt lat="55.7161748" lon="13.9531166"></trkpt><trkpt lat="55.7161740" lon="13.9530163"></trkpt><trkpt lat="55.7161731" lon="13.9529161"></trkpt><trkpt lat="55.7162257" lon="13.9528144"></trkpt><trkpt lat="55.7162249" lon="13.9527141"></trkpt><trkpt lat="55.7162240" lon="13.9526139"></trkpt><trkpt lat="55.7162232" lon="13.9525136"></trkpt><trkpt lat="55.7162223" lon="13.9524134"></trkpt><trkpt lat="55.7162215" lon="13.9523131"></trkpt><trkpt lat="55.7162206" lon="13.9522129"></trkpt><trkpt lat="55.7162198" lon="13.9521126"></trkpt><trkpt lat="55.7162189" lon="13.9520124"></trkpt><trkpt lat="55.7161646" lon="13.9519136"></trkpt><trkpt lat="55.7161637" lon="13.9518133"></trkpt><trkpt lat="55.7161094" lon="13.9517146"></trkpt><trkpt lat="55.7160551" lon="13.9516158"></trkpt><trkpt lat="55.7160016" lon="13.9516172"></trkpt><trkpt lat="55.7159473" lon="13.9515184"></trkpt><trkpt lat="55.7158938" lon="13.9515199"></trkpt><trkpt lat="55.7158395" lon="13.9514211"></trkpt><trkpt lat="55.7157860" lon="13.9514226"></trkpt><trkpt lat="55.7157326" lon="13.9514240"></trkpt><trkpt lat="55.7156782" lon="13.9513252"></trkpt><trkpt lat="55.7156239" lon="13.9512265"></trkpt><trkpt lat="55.7155704" lon="13.9512279"></trkpt><trkpt lat="55.7155161" lon="13.9511291"></trkpt><trkpt lat="55.7154626" lon="13.9511306"></trkpt><trkpt lat="55.7154083" lon="13.9510318"></trkpt><trkpt lat="55.7153548" lon="13.9510333"></trkpt><trkpt lat="55.7153005" lon="13.9509345"></trkpt><trkpt lat="55.7152470" lon="13.9509360"></trkpt><trkpt lat="55.7151936" lon="13.9509374"></trkpt><trkpt lat="55.7151392" lon="13.9508386"></trkpt><trkpt lat="55.7150858" lon="13.9508401"></trkpt><trkpt lat="55.7150323" lon="13.9508416"></trkpt><trkpt lat="55.7149788" lon="13.9508430"></trkpt><trkpt lat="55.7149245" lon="13.9507442"></trkpt><trkpt lat="55.7148710" lon="13.9507457"></trkpt><trkpt lat="55.7148176" lon="13.9507472"></trkpt><trkpt lat="55.7147632" lon="13.9506484"></trkpt><trkpt lat="55.7147089" lon="13.9505496"></trkpt><trkpt lat="55.7146546" lon="13.9504508"></trkpt><trkpt lat="55.7146002" lon="13.9503520"></trkpt><trkpt lat="55.7145468" lon="13.9503535"></trkpt><trkpt lat="55.7144924" lon="13.9502547"></trkpt><trkpt lat="55.7144916" lon="13.9501545"></trkpt><trkpt lat="55.7144373" lon="13.9500557"></trkpt><trkpt lat="55.7143829" lon="13.9499569"></trkpt><trkpt lat="55.7143286" lon="13.9498581"></trkpt><trkpt lat="55.7143278" lon="13.9497579"></trkpt><trkpt lat="55.7142734" lon="13.9496591"></trkpt><trkpt lat="55.7142191" lon="13.9495603"></trkpt><trkpt lat="55.7141648" lon="13.9494615"></trkpt><trkpt lat="55.7141104" lon="13.9493628"></trkpt><trkpt lat="55.7140561" lon="13.9492640"></trkpt><trkpt lat="55.7140018" lon="13.9491652"></trkpt><trkpt lat="55.7140009" lon="13.9490650"></trkpt><trkpt lat="55.7139466" lon="13.9489662"></trkpt><trkpt lat="55.7139458" lon="13.9488659"></trkpt><trkpt lat="55.7138914" lon="13.9487672"></trkpt><trkpt lat="55.7138906" lon="13.9486669"></trkpt><trkpt lat="55.7138362" lon="13.9485681"></trkpt><trkpt lat="55.7138354" lon="13.9484679"></trkpt><trkpt lat="55.7137811" lon="13.9483691"></trkpt><trkpt lat="55.7137267" lon="13.9482703"></trkpt><trkpt lat="55.7137259" lon="13.9481701"></trkpt><trkpt lat="55.7136715" lon="13.9480713"></trkpt><trkpt lat="55.7136172" lon="13.9479726"></trkpt><trkpt lat="55.7135629" lon="13.9478738"></trkpt><trkpt lat="55.7135086" lon="13.9477750"></trkpt><trkpt lat="55.7134542" lon="13.9476762"></trkpt><trkpt lat="55.7134008" lon="13.9476777"></trkpt><trkpt lat="55.7133464" lon="13.9475789"></trkpt><trkpt lat="55.7132921" lon="13.9474801"></trkpt><trkpt lat="55.7132386" lon="13.9474816"></trkpt><trkpt lat="55.7131843" lon="13.9473828"></trkpt><trkpt lat="55.7131308" lon="13.9473843"></trkpt><trkpt lat="55.7130765" lon="13.9472855"></trkpt><trkpt lat="55.7130230" lon="13.9472870"></trkpt><trkpt lat="55.7129687" lon="13.9471882"></trkpt><trkpt lat="55.7129152" lon="13.9471897"></trkpt><trkpt lat="55.7128609" lon="13.9470909"></trkpt><trkpt lat="55.7128074" lon="13.9470924"></trkpt><trkpt lat="55.7127531" lon="13.9469936"></trkpt><trkpt lat="55.7126996" lon="13.9469951"></trkpt><trkpt lat="55.7126453" lon="13.9468963"></trkpt><trkpt lat="55.7125918" lon="13.9468978"></trkpt><trkpt lat="55.7125375" lon="13.9467990"></trkpt><trkpt lat="55.7124832" lon="13.9467002"></trkpt><trkpt lat="55.7124297" lon="13.9467017"></trkpt><trkpt lat="55.7123754" lon="13.9466029"></trkpt><trkpt lat="55.7123210" lon="13.9465042"></trkpt><trkpt lat="55.7122667" lon="13.9464054"></trkpt><trkpt lat="55.7122658" lon="13.9463052"></trkpt><trkpt lat="55.7122115" lon="13.9462064"></trkpt><trkpt lat="55.7122107" lon="13.9461062"></trkpt><trkpt lat="55.7122098" lon="13.9460059"></trkpt><trkpt lat="55.7122089" lon="13.9459057"></trkpt><trkpt lat="55.7122616" lon="13.9458040"></trkpt><trkpt lat="55.7123142" lon="13.9457023"></trkpt><trkpt lat="55.7123668" lon="13.9456005"></trkpt><trkpt lat="55.7124202" lon="13.9455991"></trkpt><trkpt lat="55.7124729" lon="13.9454974"></trkpt><trkpt lat="55.7125263" lon="13.9454959"></trkpt><trkpt lat="55.7125798" lon="13.9454944"></trkpt><trkpt lat="55.7126333" lon="13.9454929"></trkpt><trkpt lat="55.7126867" lon="13.9454915"></trkpt><trkpt lat="55.7127402" lon="13.9454900"></trkpt><trkpt lat="55.7127937" lon="13.9454885"></trkpt><trkpt lat="55.7128472" lon="13.9454871"></trkpt><trkpt lat="55.7129006" lon="13.9454856"></trkpt><trkpt lat="55.7129541" lon="13.9454841"></trkpt><trkpt lat="55.7130076" lon="13.9454827"></trkpt><trkpt lat="55.7130610" lon="13.9454812"></trkpt><trkpt lat="55.7131145" lon="13.9454797"></trkpt><trkpt lat="55.7131671" lon="13.9453780"></trkpt><trkpt lat="55.7132206" lon="13.9453765"></trkpt><trkpt lat="55.7132741" lon="13.9453751"></trkpt><trkpt lat="55.7133267" lon="13.9452733"></trkpt><trkpt lat="55.7133802" lon="13.9452719"></trkpt><trkpt lat="55.7134336" lon="13.9452704"></trkpt><trkpt lat="55.7134871" lon="13.9452689"></trkpt><trkpt lat="55.7135397" lon="13.9451672"></trkpt><trkpt lat="55.7135940" lon="13.9452660"></trkpt><trkpt lat="55.7136475" lon="13.9452645"></trkpt><trkpt lat="55.7137010" lon="13.9452630"></trkpt><trkpt lat="55.7137545" lon="13.9452616"></trkpt><trkpt lat="55.7138088" lon="13.9453603"></trkpt><trkpt lat="55.7138623" lon="13.9453589"></trkpt><trkpt lat="55.7139166" lon="13.9454576"></trkpt><trkpt lat="55.7139701" lon="13.9454562"></trkpt><trkpt lat="55.7140235" lon="13.9454547"></trkpt><trkpt lat="55.7140770" lon="13.9454532"></trkpt><trkpt lat="55.7141305" lon="13.9454518"></trkpt><trkpt lat="55.7141840" lon="13.9454503"></trkpt><trkpt lat="55.7142374" lon="13.9454488"></trkpt><trkpt lat="55.7142909" lon="13.9454473"></trkpt><trkpt lat="55.7143444" lon="13.9454459"></trkpt><trkpt lat="55.7143978" lon="13.9454444"></trkpt><trkpt lat="55.7144513" lon="13.9454429"></trkpt><trkpt lat="55.7145048" lon="13.9454415"></trkpt><trkpt lat="55.7145583" lon="13.9454400"></trkpt><trkpt lat="55.7146117" lon="13.9454385"></trkpt><trkpt lat="55.7146652" lon="13.9454370"></trkpt><trkpt lat="55.7147178" lon="13.9453353"></trkpt><trkpt lat="55.7147713" lon="13.9453338"></trkpt><trkpt lat="55.7148239" lon="13.9452321"></trkpt><trkpt lat="55.7148774" lon="13.9452307"></trkpt><trkpt lat="55.7149309" lon="13.9452292"></trkpt><trkpt lat="55.7149843" lon="13.9452277"></trkpt><trkpt lat="55.7150378" lon="13.9452262"></trkpt><trkpt lat="55.7150904" lon="13.9451245"></trkpt><trkpt lat="55.7151439" lon="13.9451230"></trkpt><trkpt lat="55.7151974" lon="13.9451216"></trkpt><trkpt lat="55.7152508" lon="13.9451201"></trkpt><trkpt lat="55.7153043" lon="13.9451186"></trkpt><trkpt lat="55.7153569" lon="13.9450169"></trkpt><trkpt lat="55.7154104" lon="13.9450154"></trkpt><trkpt lat="55.7154639" lon="13.9450140"></trkpt><trkpt lat="55.7155165" lon="13.9449122"></trkpt><trkpt lat="55.7155700" lon="13.9449108"></trkpt><trkpt lat="55.7156234" lon="13.9449093"></trkpt><trkpt lat="55.7156760" lon="13.9448076"></trkpt><trkpt lat="55.7157295" lon="13.9448061"></trkpt><trkpt lat="55.7157821" lon="13.9447044"></trkpt><trkpt lat="55.7158356" lon="13.9447029"></trkpt><trkpt lat="55.7158882" lon="13.9446012"></trkpt><trkpt lat="55.7159417" lon="13.9445997"></trkpt><trkpt lat="55.7159943" lon="13.9444980"></trkpt><trkpt lat="55.7160478" lon="13.9444965"></trkpt><trkpt lat="55.7161004" lon="13.9443948"></trkpt><trkpt lat="55.7161539" lon="13.9443933"></trkpt><trkpt lat="55.7162065" lon="13.9442916"></trkpt><trkpt lat="55.7162591" lon="13.9441899"></trkpt><trkpt lat="55.7163126" lon="13.9441884"></trkpt><trkpt lat="55.7163652" lon="13.9440867"></trkpt><trkpt lat="55.7164178" lon="13.9439849"></trkpt><trkpt lat="55.7164713" lon="13.9439835"></trkpt><trkpt lat="55.7165239" lon="13.9438817"></trkpt><trkpt lat="55.7165774" lon="13.9438803"></trkpt><trkpt lat="55.7166300" lon="13.9437785"></trkpt><trkpt lat="55.7166834" lon="13.9437770"></trkpt><trkpt lat="55.7167369" lon="13.9437756"></trkpt><trkpt lat="55.7167904" lon="13.9437741"></trkpt><trkpt lat="55.7168439" lon="13.9437726"></trkpt><trkpt lat="55.7168973" lon="13.9437711"></trkpt><trkpt lat="55.7169508" lon="13.9437697"></trkpt><trkpt lat="55.7170043" lon="13.9437682"></trkpt><trkpt lat="55.7170578" lon="13.9437667"></trkpt><trkpt lat="55.7171112" lon="13.9437653"></trkpt><trkpt lat="55.7171647" lon="13.9437638"></trkpt><trkpt lat="55.7172182" lon="13.9437623"></trkpt><trkpt lat="55.7172717" lon="13.9437608"></trkpt><trkpt lat="55.7173251" lon="13.9437594"></trkpt><trkpt lat="55.7173786" lon="13.9437579"></trkpt><trkpt lat="55.7174321" lon="13.9437564"></trkpt><trkpt lat="55.7174856" lon="13.9437549"></trkpt><trkpt lat="55.7175390" lon="13.9437535"></trkpt><trkpt lat="55.7175925" lon="13.9437520"></trkpt><trkpt lat="55.7176460" lon="13.9437505"></trkpt><trkpt lat="55.7176995" lon="13.9437490"></trkpt><trkpt lat="55.7177529" lon="13.9437476"></trkpt><trkpt lat="55.7178064" lon="13.9437461"></trkpt><trkpt lat="55.7178607" lon="13.9438449"></trkpt><trkpt lat="55.7179142" lon="13.9438434"></trkpt><trkpt lat="55.7179677" lon="13.9438419"></trkpt><trkpt lat="55.7180212" lon="13.9438404"></trkpt><trkpt lat="55.7180755" lon="13.9439392"></trkpt><trkpt lat="55.7181290" lon="13.9439378"></trkpt><trkpt lat="55.7181833" lon="13.9440365"></trkpt><trkpt lat="55.7182376" lon="13.9441353"></trkpt><trkpt lat="55.7182911" lon="13.9441339"></trkpt><trkpt lat="55.7183455" lon="13.9442326"></trkpt><trkpt lat="55.7183998" lon="13.9443314"></trkpt><trkpt lat="55.7184533" lon="13.9443300"></trkpt><trkpt lat="55.7185076" lon="13.9444287"></trkpt><trkpt lat="55.7185619" lon="13.9445275"></trkpt><trkpt lat="55.7186163" lon="13.9446263"></trkpt><trkpt lat="55.7186706" lon="13.9447251"></trkpt><trkpt lat="55.7187241" lon="13.9447236"></trkpt><trkpt lat="55.7187784" lon="13.9448224"></trkpt><trkpt lat="55.7188327" lon="13.9449212"></trkpt><trkpt lat="55.7188871" lon="13.9450200"></trkpt><trkpt lat="55.7189414" lon="13.9451188"></trkpt><trkpt lat="55.7189957" lon="13.9452176"></trkpt><trkpt lat="55.7189966" lon="13.9453178"></trkpt><trkpt lat="55.7190509" lon="13.9454166"></trkpt><trkpt lat="55.7191053" lon="13.9455154"></trkpt><trkpt lat="55.7191587" lon="13.9455139"></trkpt><trkpt lat="55.7192122" lon="13.9455125"></trkpt><trkpt lat="55.7192657" lon="13.9455110"></trkpt><trkpt lat="55.7193192" lon="13.9455095"></trkpt><trkpt lat="55.7193726" lon="13.9455081"></trkpt><trkpt lat="55.7194261" lon="13.9455066"></trkpt><trkpt lat="55.7194796" lon="13.9455051"></trkpt><trkpt lat="55.7195322" lon="13.9454034"></trkpt><trkpt lat="55.7195857" lon="13.9454019"></trkpt><trkpt lat="55.7196383" lon="13.9453002"></trkpt><trkpt lat="55.7196918" lon="13.9452987"></trkpt><trkpt lat="55.7197444" lon="13.9451970"></trkpt><trkpt lat="55.7197979" lon="13.9451955"></trkpt><trkpt lat="55.7198505" lon="13.9450937"></trkpt><trkpt lat="55.7199040" lon="13.9450923"></trkpt><trkpt lat="55.7199566" lon="13.9449905"></trkpt><trkpt lat="55.7200101" lon="13.9449891"></trkpt><trkpt lat="55.7200627" lon="13.9448873"></trkpt><trkpt lat="55.7201162" lon="13.9448859"></trkpt><trkpt lat="55.7201696" lon="13.9448844"></trkpt><trkpt lat="55.7202222" lon="13.9447826"></trkpt><trkpt lat="55.7202757" lon="13.9447812"></trkpt><trkpt lat="55.7203292" lon="13.9447797"></trkpt><trkpt lat="55.7203818" lon="13.9446780"></trkpt><trkpt lat="55.7204353" lon="13.9446765"></trkpt><trkpt lat="55.7204888" lon="13.9446750"></trkpt><trkpt lat="55.7205414" lon="13.9445733"></trkpt><trkpt lat="55.7205949" lon="13.9445718"></trkpt><trkpt lat="55.7206483" lon="13.9445703"></trkpt><trkpt lat="55.7207010" lon="13.9444686"></trkpt><trkpt lat="55.7207544" lon="13.9444671"></trkpt><trkpt lat="55.7208079" lon="13.9444656"></trkpt><trkpt lat="55.7208614" lon="13.9444642"></trkpt><trkpt lat="55.7209140" lon="13.9443624"></trkpt><trkpt lat="55.7209675" lon="13.9443610"></trkpt><trkpt lat="55.7210218" lon="13.9444597"></trkpt><trkpt lat="55.7210753" lon="13.9444583"></trkpt><trkpt lat="55.7211288" lon="13.9444568"></trkpt><trkpt lat="55.7211822" lon="13.9444553"></trkpt><trkpt lat="55.7212357" lon="13.9444539"></trkpt><trkpt lat="55.7212892" lon="13.9444524"></trkpt><trkpt lat="55.7213427" lon="13.9444509"></trkpt><trkpt lat="55.7213962" lon="13.9444494"></trkpt><trkpt lat="55.7214488" lon="13.9443477"></trkpt><trkpt lat="55.7215023" lon="13.9443462"></trkpt><trkpt lat="55.7215557" lon="13.9443447"></trkpt><trkpt lat="55.7216092" lon="13.9443433"></trkpt><trkpt lat="55.7216627" lon="13.9443418"></trkpt><trkpt lat="55.7217153" lon="13.9442401"></trkpt><trkpt lat="55.7217688" lon="13.9442386"></trkpt><trkpt lat="55.7218223" lon="13.9442371"></trkpt><trkpt lat="55.7218757" lon="13.9442356"></trkpt><trkpt lat="55.7219284" lon="13.9441339"></trkpt><trkpt lat="55.7219818" lon="13.9441324"></trkpt><trkpt lat="55.7220345" lon="13.9440307"></trkpt><trkpt lat="55.7220879" lon="13.9440292"></trkpt><trkpt lat="55.7221405" lon="13.9439274"></trkpt><trkpt lat="55.7221940" lon="13.9439260"></trkpt><trkpt lat="55.7222466" lon="13.9438242"></trkpt><trkpt lat="55.7223001" lon="13.9438227"></trkpt><trkpt lat="55.7223536" lon="13.9438213"></trkpt><trkpt lat="55.7224062" lon="13.9437195"></trkpt><trkpt lat="55.7224597" lon="13.9437181"></trkpt><trkpt lat="55.7225132" lon="13.9437166"></trkpt><trkpt lat="55.7225667" lon="13.9437151"></trkpt><trkpt lat="55.7226210" lon="13.9438139"></trkpt><trkpt lat="55.7226745" lon="13.9438124"></trkpt><trkpt lat="55.7227279" lon="13.9438109"></trkpt><trkpt lat="55.7227814" lon="13.9438095"></trkpt><trkpt lat="55.7228358" lon="13.9439083"></trkpt><trkpt lat="55.7228901" lon="13.9440071"></trkpt><trkpt lat="55.7228910" lon="13.9441073"></trkpt><trkpt lat="55.7228918" lon="13.9442076"></trkpt><trkpt lat="55.7228927" lon="13.9443079"></trkpt><trkpt lat="55.7229470" lon="13.9444067"></trkpt><trkpt lat="55.7229479" lon="13.9445070"></trkpt><trkpt lat="55.7229487" lon="13.9446072"></trkpt><trkpt lat="55.7229496" lon="13.9447075"></trkpt><trkpt lat="55.7229504" lon="13.9448078"></trkpt><trkpt lat="55.7229513" lon="13.9449081"></trkpt><trkpt lat="55.7228987" lon="13.9450098"></trkpt><trkpt lat="55.7228995" lon="13.9451101"></trkpt><trkpt lat="55.7228469" lon="13.9452118"></trkpt><trkpt lat="55.7227943" lon="13.9453136"></trkpt><trkpt lat="55.7227417" lon="13.9454153"></trkpt><trkpt lat="55.7226890" lon="13.9455171"></trkpt><trkpt lat="55.7226364" lon="13.9456188"></trkpt><trkpt lat="55.7225838" lon="13.9457206"></trkpt><trkpt lat="55.7225312" lon="13.9458223"></trkpt><trkpt lat="55.7224777" lon="13.9458238"></trkpt><trkpt lat="55.7224251" lon="13.9459255"></trkpt><trkpt lat="55.7223716" lon="13.9459270"></trkpt><trkpt lat="55.7223181" lon="13.9459285"></trkpt><trkpt lat="55.7222655" lon="13.9460302"></trkpt><trkpt lat="55.7222120" lon="13.9460317"></trkpt><trkpt lat="55.7221594" lon="13.9461334"></trkpt><trkpt lat="55.7221068" lon="13.9462352"></trkpt><trkpt lat="55.7220542" lon="13.9463369"></trkpt><trkpt lat="55.7220550" lon="13.9464372"></trkpt><trkpt lat="55.7220024" lon="13.9465389"></trkpt><trkpt lat="55.7219498" lon="13.9466406"></trkpt><trkpt lat="55.7219506" lon="13.9467409"></trkpt><trkpt lat="55.7218980" lon="13.9468427"></trkpt><trkpt lat="55.7218989" lon="13.9469429"></trkpt><trkpt lat="55.7218462" lon="13.9470447"></trkpt><trkpt lat="55.7218471" lon="13.9471449"></trkpt><trkpt lat="55.7218480" lon="13.9472452"></trkpt><trkpt lat="55.7217953" lon="13.9473469"></trkpt><trkpt lat="55.7217962" lon="13.9474472"></trkpt><trkpt lat="55.7217970" lon="13.9475475"></trkpt><trkpt lat="55.7217979" lon="13.9476477"></trkpt><trkpt lat="55.7217453" lon="13.9477495"></trkpt><trkpt lat="55.7217461" lon="13.9478498"></trkpt><trkpt lat="55.7217470" lon="13.9479500"></trkpt><trkpt lat="55.7217478" lon="13.9480503"></trkpt><trkpt lat="55.7216952" lon="13.9481520"></trkpt><trkpt lat="55.7216961" lon="13.9482523"></trkpt><trkpt lat="55.7216969" lon="13.9483526"></trkpt><trkpt lat="55.7216978" lon="13.9484528"></trkpt><trkpt lat="55.7216452" lon="13.9485546"></trkpt><trkpt lat="55.7216460" lon="13.9486548"></trkpt><trkpt lat="55.7215934" lon="13.9487566"></trkpt><trkpt lat="55.7215943" lon="13.9488568"></trkpt><trkpt lat="55.7215951" lon="13.9489571"></trkpt><trkpt lat="55.7215425" lon="13.9490588"></trkpt><trkpt lat="55.7215433" lon="13.9491591"></trkpt><trkpt lat="55.7215442" lon="13.9492594"></trkpt><trkpt lat="55.7214916" lon="13.9493611"></trkpt><trkpt lat="55.7214924" lon="13.9494614"></trkpt><trkpt lat="55.7214933" lon="13.9495616"></trkpt><trkpt lat="55.7214941" lon="13.9496619"></trkpt><trkpt lat="55.7214415" lon="13.9497636"></trkpt><trkpt lat="55.7214424" lon="13.9498639"></trkpt><trkpt lat="55.7214432" lon="13.9499642"></trkpt><trkpt lat="55.7214441" lon="13.9500644"></trkpt><trkpt lat="55.7213914" lon="13.9501662"></trkpt><trkpt lat="55.7213923" lon="13.9502664"></trkpt><trkpt lat="55.7213397" lon="13.9503682"></trkpt><trkpt lat="55.7212871" lon="13.9504699"></trkpt><trkpt lat="55.7212344" lon="13.9505716"></trkpt><trkpt lat="55.7211818" lon="13.9506734"></trkpt><trkpt lat="55.7211292" lon="13.9507751"></trkpt><trkpt lat="55.7210766" lon="13.9508768"></trkpt><trkpt lat="55.7210239" lon="13.9509785"></trkpt><trkpt lat="55.7209713" lon="13.9510803"></trkpt><trkpt lat="55.7209187" lon="13.9511820"></trkpt><trkpt lat="55.7208661" lon="13.9512837"></trkpt><trkpt lat="55.7208126" lon="13.9512852"></trkpt><trkpt lat="55.7207600" lon="13.9513869"></trkpt><trkpt lat="55.7207073" lon="13.9514886"></trkpt><trkpt lat="55.7206547" lon="13.9515904"></trkpt><trkpt lat="55.7206021" lon="13.9516921"></trkpt><trkpt lat="55.7205495" lon="13.9517938"></trkpt><trkpt lat="55.7204968" lon="13.9518955"></trkpt><trkpt lat="55.7204977" lon="13.9519958"></trkpt><trkpt lat="55.7204451" lon="13.9520975"></trkpt><trkpt lat="55.7203925" lon="13.9521992"></trkpt><trkpt lat="55.7203398" lon="13.9523010"></trkpt><trkpt lat="55.7203407" lon="13.9524012"></trkpt><trkpt lat="55.7202881" lon="13.9525029"></trkpt><trkpt lat="55.7202889" lon="13.9526032"></trkpt><trkpt lat="55.7202363" lon="13.9527049"></trkpt><trkpt lat="55.7202371" lon="13.9528052"></trkpt><trkpt lat="55.7202380" lon="13.9529054"></trkpt><trkpt lat="55.7201854" lon="13.9530072"></trkpt><trkpt lat="55.7201862" lon="13.9531074"></trkpt><trkpt lat="55.7201336" lon="13.9532091"></trkpt><trkpt lat="55.7201344" lon="13.9533094"></trkpt><trkpt lat="55.7200818" lon="13.9534111"></trkpt><trkpt lat="55.7200827" lon="13.9535114"></trkpt><trkpt lat="55.7200300" lon="13.9536131"></trkpt><trkpt lat="55.7200309" lon="13.9537134"></trkpt><trkpt lat="55.7199783" lon="13.9538151"></trkpt><trkpt lat="55.7199791" lon="13.9539153"></trkpt><trkpt lat="55.7199265" lon="13.9540171"></trkpt><trkpt lat="55.7199273" lon="13.9541173"></trkpt><trkpt lat="55.7198747" lon="13.9542190"></trkpt><trkpt lat="55.7198756" lon="13.9543193"></trkpt><trkpt lat="55.7198229" lon="13.9544210"></trkpt><trkpt lat="55.7198238" lon="13.9545213"></trkpt><trkpt lat="55.7197712" lon="13.9546230"></trkpt><trkpt lat="55.7197186" lon="13.9547247"></trkpt><trkpt lat="55.7197194" lon="13.9548250"></trkpt><trkpt lat="55.7196668" lon="13.9549267"></trkpt><trkpt lat="55.7196142" lon="13.9550284"></trkpt><trkpt lat="55.7196150" lon="13.9551286"></trkpt><trkpt lat="55.7195624" lon="13.9552304"></trkpt><trkpt lat="55.7195098" lon="13.9553321"></trkpt><trkpt lat="55.7195106" lon="13.9554323"></trkpt><trkpt lat="55.7194580" lon="13.9555340"></trkpt><trkpt lat="55.7194054" lon="13.9556358"></trkpt><trkpt lat="55.7194062" lon="13.9557360"></trkpt><trkpt lat="55.7193536" lon="13.9558377"></trkpt><trkpt lat="55.7193544" lon="13.9559380"></trkpt><trkpt lat="55.7193018" lon="13.9560397"></trkpt><trkpt lat="55.7192492" lon="13.9561414"></trkpt><trkpt lat="55.7192500" lon="13.9562417"></trkpt><trkpt lat="55.7191974" lon="13.9563434"></trkpt><trkpt lat="55.7191448" lon="13.9564451"></trkpt><trkpt lat="55.7191456" lon="13.9565453"></trkpt><trkpt lat="55.7190930" lon="13.9566470"></trkpt><trkpt lat="55.7190938" lon="13.9567473"></trkpt><trkpt lat="55.7190412" lon="13.9568490"></trkpt><trkpt lat="55.7190421" lon="13.9569493"></trkpt><trkpt lat="55.7189894" lon="13.9570510"></trkpt><trkpt lat="55.7189368" lon="13.9571527"></trkpt><trkpt lat="55.7189377" lon="13.9572529"></trkpt><trkpt lat="55.7188850" lon="13.9573546"></trkpt><trkpt lat="55.7188324" lon="13.9574563"></trkpt><trkpt lat="55.7188333" lon="13.9575566"></trkpt><trkpt lat="55.7187806" lon="13.9576583"></trkpt><trkpt lat="55.7187280" lon="13.9577600"></trkpt><trkpt lat="55.7186754" lon="13.9578617"></trkpt><trkpt lat="55.7186228" lon="13.9579634"></trkpt><trkpt lat="55.7185701" lon="13.9580651"></trkpt><trkpt lat="55.7185167" lon="13.9580666"></trkpt><trkpt lat="55.7184640" lon="13.9581683"></trkpt><trkpt lat="55.7184114" lon="13.9582700"></trkpt><trkpt lat="55.7184123" lon="13.9583702"></trkpt><trkpt lat="55.7184131" lon="13.9584705"></trkpt><trkpt lat="55.7184139" lon="13.9585707"></trkpt><trkpt lat="55.7184683" lon="13.9586695"></trkpt><trkpt lat="55.7185217" lon="13.9586681"></trkpt><trkpt lat="55.7185761" lon="13.9587669"></trkpt><trkpt lat="55.7186295" lon="13.9587654"></trkpt><trkpt lat="55.7186839" lon="13.9588642"></trkpt><trkpt lat="55.7187373" lon="13.9588628"></trkpt><trkpt lat="55.7187916" lon="13.9589616"></trkpt><trkpt lat="55.7188460" lon="13.9590604"></trkpt><trkpt lat="55.7188468" lon="13.9591607"></trkpt><trkpt lat="55.7188477" lon="13.9592609"></trkpt><trkpt lat="55.7188485" lon="13.9593612"></trkpt><trkpt lat="55.7188494" lon="13.9594614"></trkpt><trkpt lat="55.7188502" lon="13.9595617"></trkpt><trkpt lat="55.7188510" lon="13.9596619"></trkpt><trkpt lat="55.7188519" lon="13.9597622"></trkpt><trkpt lat="55.7188527" lon="13.9598624"></trkpt><trkpt lat="55.7188001" lon="13.9599641"></trkpt><trkpt lat="55.7188010" lon="13.9600644"></trkpt><trkpt lat="55.7188018" lon="13.9601646"></trkpt><trkpt lat="55.7188026" lon="13.9602649"></trkpt><trkpt lat="55.7188035" lon="13.9603651"></trkpt><trkpt lat="55.7188043" lon="13.9604654"></trkpt><trkpt lat="55.7188052" lon="13.9605656"></trkpt><trkpt lat="55.7188060" lon="13.9606659"></trkpt><trkpt lat="55.7187534" lon="13.9607676"></trkpt><trkpt lat="55.7187542" lon="13.9608679"></trkpt><trkpt lat="55.7187551" lon="13.9609681"></trkpt><trkpt lat="55.7187559" lon="13.9610684"></trkpt><trkpt lat="55.7187568" lon="13.9611686"></trkpt><trkpt lat="55.7187576" lon="13.9612689"></trkpt><trkpt lat="55.7188119" lon="13.9613677"></trkpt><trkpt lat="55.7188128" lon="13.9614679"></trkpt><trkpt lat="55.7187602" lon="13.9615696"></trkpt><trkpt lat="55.7187610" lon="13.9616699"></trkpt><trkpt lat="55.7187618" lon="13.9617701"></trkpt><trkpt lat="55.7187627" lon="13.9618704"></trkpt><trkpt lat="55.7187635" lon="13.9619706"></trkpt><trkpt lat="55.7187644" lon="13.9620709"></trkpt><trkpt lat="55.7187652" lon="13.9621711"></trkpt><trkpt lat="55.7187661" lon="13.9622714"></trkpt><trkpt lat="55.7187134" lon="13.9623731"></trkpt><trkpt lat="55.7187143" lon="13.9624733"></trkpt><trkpt lat="55.7186617" lon="13.9625750"></trkpt><trkpt lat="55.7186625" lon="13.9626753"></trkpt><trkpt lat="55.7186633" lon="13.9627755"></trkpt><trkpt lat="55.7186107" lon="13.9628772"></trkpt><trkpt lat="55.7185581" lon="13.9629789"></trkpt><trkpt lat="55.7185055" lon="13.9630806"></trkpt><trkpt lat="55.7184520" lon="13.9630820"></trkpt><trkpt lat="55.7183985" lon="13.9630835"></trkpt><trkpt lat="55.7183459" lon="13.9631852"></trkpt><trkpt lat="55.7182932" lon="13.9632869"></trkpt><trkpt lat="55.7182406" lon="13.9633886"></trkpt><trkpt lat="55.7181880" lon="13.9634902"></trkpt><trkpt lat="55.7181354" lon="13.9635919"></trkpt><trkpt lat="55.7180819" lon="13.9635934"></trkpt><trkpt lat="55.7180284" lon="13.9635948"></trkpt><trkpt lat="55.7179749" lon="13.9635963"></trkpt><trkpt lat="55.7179215" lon="13.9635977"></trkpt><trkpt lat="55.7178680" lon="13.9635991"></trkpt><trkpt lat="55.7178145" lon="13.9636006"></trkpt><trkpt lat="55.7177602" lon="13.9635018"></trkpt><trkpt lat="55.7177067" lon="13.9635032"></trkpt><trkpt lat="55.7176524" lon="13.9634044"></trkpt><trkpt lat="55.7175990" lon="13.9634059"></trkpt><trkpt lat="55.7175446" lon="13.9633070"></trkpt><trkpt lat="55.7174903" lon="13.9632082"></trkpt><trkpt lat="55.7174369" lon="13.9632097"></trkpt><trkpt lat="55.7173834" lon="13.9632111"></trkpt><trkpt lat="55.7173291" lon="13.9631123"></trkpt><trkpt lat="55.7172756" lon="13.9631138"></trkpt><trkpt lat="55.7172221" lon="13.9631152"></trkpt><trkpt lat="55.7171686" lon="13.9631166"></trkpt><trkpt lat="55.7171152" lon="13.9631181"></trkpt><trkpt lat="55.7170625" lon="13.9632198"></trkpt><trkpt lat="55.7170099" lon="13.9633215"></trkpt><trkpt lat="55.7169573" lon="13.9634231"></trkpt><trkpt lat="55.7169581" lon="13.9635234"></trkpt><trkpt lat="55.7169590" lon="13.9636236"></trkpt><trkpt lat="55.7169598" lon="13.9637239"></trkpt><trkpt lat="55.7169607" lon="13.9638241"></trkpt><trkpt lat="55.7169615" lon="13.9639244"></trkpt><trkpt lat="55.7169624" lon="13.9640246"></trkpt><trkpt lat="55.7169632" lon="13.9641249"></trkpt><trkpt lat="55.7169640" lon="13.9642251"></trkpt><trkpt lat="55.7169649" lon="13.9643254"></trkpt><trkpt lat="55.7169657" lon="13.9644256"></trkpt><trkpt lat="55.7169666" lon="13.9645258"></trkpt><trkpt lat="55.7169674" lon="13.9646261"></trkpt><trkpt lat="55.7169682" lon="13.9647263"></trkpt><trkpt lat="55.7169691" lon="13.9648266"></trkpt><trkpt lat="55.7169699" lon="13.9649268"></trkpt><trkpt lat="55.7169173" lon="13.9650285"></trkpt><trkpt lat="55.7169181" lon="13.9651288"></trkpt><trkpt lat="55.7169190" lon="13.9652290"></trkpt><trkpt lat="55.7169198" lon="13.9653292"></trkpt><trkpt lat="55.7169207" lon="13.9654295"></trkpt><trkpt lat="55.7169215" lon="13.9655297"></trkpt><trkpt lat="55.7169224" lon="13.9656300"></trkpt><trkpt lat="55.7169232" lon="13.9657302"></trkpt><trkpt lat="55.7169240" lon="13.9658305"></trkpt><trkpt lat="55.7169249" lon="13.9659307"></trkpt><trkpt lat="55.7169257" lon="13.9660309"></trkpt><trkpt lat="55.7169266" lon="13.9661312"></trkpt><trkpt lat="55.7168739" lon="13.9662329"></trkpt><trkpt lat="55.7168748" lon="13.9663331"></trkpt><trkpt lat="55.7168756" lon="13.9664334"></trkpt><trkpt lat="55.7168765" lon="13.9665336"></trkpt><trkpt lat="55.7168773" lon="13.9666338"></trkpt><trkpt lat="55.7168781" lon="13.9667341"></trkpt><trkpt lat="55.7168790" lon="13.9668343"></trkpt><trkpt lat="55.7168798" lon="13.9669346"></trkpt><trkpt lat="55.7168807" lon="13.9670348"></trkpt><trkpt lat="55.7168815" lon="13.9671351"></trkpt><trkpt lat="55.7168823" lon="13.9672353"></trkpt><trkpt lat="55.7168832" lon="13.9673355"></trkpt><trkpt lat="55.7168840" lon="13.9674358"></trkpt><trkpt lat="55.7168314" lon="13.9675375"></trkpt><trkpt lat="55.7168322" lon="13.9676377"></trkpt><trkpt lat="55.7168331" lon="13.9677380"></trkpt><trkpt lat="55.7168339" lon="13.9678382"></trkpt><trkpt lat="55.7168348" lon="13.9679384"></trkpt><trkpt lat="55.7168356" lon="13.9680387"></trkpt><trkpt lat="55.7168364" lon="13.9681389"></trkpt><trkpt lat="55.7167838" lon="13.9682406"></trkpt><trkpt lat="55.7167846" lon="13.9683408"></trkpt><trkpt lat="55.7167855" lon="13.9684411"></trkpt><trkpt lat="55.7167863" lon="13.9685413"></trkpt><trkpt lat="55.7167872" lon="13.9686416"></trkpt><trkpt lat="55.7167880" lon="13.9687418"></trkpt><trkpt lat="55.7167888" lon="13.9688421"></trkpt><trkpt lat="55.7167897" lon="13.9689423"></trkpt><trkpt lat="55.7167370" lon="13.9690440"></trkpt><trkpt lat="55.7167379" lon="13.9691442"></trkpt><trkpt lat="55.7167387" lon="13.9692445"></trkpt><trkpt lat="55.7167396" lon="13.9693447"></trkpt><trkpt lat="55.7167404" lon="13.9694449"></trkpt><trkpt lat="55.7167412" lon="13.9695452"></trkpt><trkpt lat="55.7167421" lon="13.9696454"></trkpt><trkpt lat="55.7166894" lon="13.9697471"></trkpt><trkpt lat="55.7166903" lon="13.9698473"></trkpt><trkpt lat="55.7166911" lon="13.9699476"></trkpt><trkpt lat="55.7166920" lon="13.9700478"></trkpt><trkpt lat="55.7166928" lon="13.9701481"></trkpt><trkpt lat="55.7166936" lon="13.9702483"></trkpt><trkpt lat="55.7166410" lon="13.9703500"></trkpt><trkpt lat="55.7166418" lon="13.9704502"></trkpt><trkpt lat="55.7166427" lon="13.9705504"></trkpt><trkpt lat="55.7166435" lon="13.9706507"></trkpt><trkpt lat="55.7165909" lon="13.9707524"></trkpt><trkpt lat="55.7165917" lon="13.9708526"></trkpt><trkpt lat="55.7165926" lon="13.9709528"></trkpt><trkpt lat="55.7165934" lon="13.9710531"></trkpt><trkpt lat="55.7165408" lon="13.9711547"></trkpt><trkpt lat="55.7165416" lon="13.9712550"></trkpt><trkpt lat="55.7165424" lon="13.9713552"></trkpt><trkpt lat="55.7165433" lon="13.9714555"></trkpt><trkpt lat="55.7165976" lon="13.9715543"></trkpt><trkpt lat="55.7165984" lon="13.9716545"></trkpt><trkpt lat="55.7166527" lon="13.9717533"></trkpt><trkpt lat="55.7167070" lon="13.9718521"></trkpt><trkpt lat="55.7167605" lon="13.9718507"></trkpt><trkpt lat="55.7168140" lon="13.9718493"></trkpt><trkpt lat="55.7168683" lon="13.9719481"></trkpt><trkpt lat="55.7169217" lon="13.9719467"></trkpt><trkpt lat="55.7169752" lon="13.9719453"></trkpt><trkpt lat="55.7170287" lon="13.9719438"></trkpt><trkpt lat="55.7170830" lon="13.9720426"></trkpt><trkpt lat="55.7171365" lon="13.9720412"></trkpt><trkpt lat="55.7171899" lon="13.9720398"></trkpt><trkpt lat="55.7172434" lon="13.9720384"></trkpt><trkpt lat="55.7172977" lon="13.9721372"></trkpt><trkpt lat="55.7173512" lon="13.9721357"></trkpt><trkpt lat="55.7174055" lon="13.9722346"></trkpt><trkpt lat="55.7174590" lon="13.9722331"></trkpt><trkpt lat="55.7175133" lon="13.9723320"></trkpt><trkpt lat="55.7175141" lon="13.9724322"></trkpt><trkpt lat="55.7175684" lon="13.9725310"></trkpt><trkpt lat="55.7175692" lon="13.9726313"></trkpt><trkpt lat="55.7176236" lon="13.9727301"></trkpt><trkpt lat="55.7176244" lon="13.9728303"></trkpt><trkpt lat="55.7176252" lon="13.9729306"></trkpt><trkpt lat="55.7176795" lon="13.9730294"></trkpt><trkpt lat="55.7176804" lon="13.9731296"></trkpt><trkpt lat="55.7176812" lon="13.9732299"></trkpt><trkpt lat="55.7176820" lon="13.9733301"></trkpt><trkpt lat="55.7176829" lon="13.9734303"></trkpt><trkpt lat="55.7176837" lon="13.9735306"></trkpt><trkpt lat="55.7176845" lon="13.9736308"></trkpt><trkpt lat="55.7176319" lon="13.9737325"></trkpt><trkpt lat="55.7176327" lon="13.9738327"></trkpt><trkpt lat="55.7176336" lon="13.9739330"></trkpt><trkpt lat="55.7175809" lon="13.9740346"></trkpt><trkpt lat="55.7175283" lon="13.9741363"></trkpt><trkpt lat="55.7174757" lon="13.9742380"></trkpt><trkpt lat="55.7174230" lon="13.9743396"></trkpt><trkpt lat="55.7174239" lon="13.9744399"></trkpt><trkpt lat="55.7174247" lon="13.9745401"></trkpt><trkpt lat="55.7173721" lon="13.9746418"></trkpt><trkpt lat="55.7173729" lon="13.9747420"></trkpt><trkpt lat="55.7173737" lon="13.9748423"></trkpt><trkpt lat="55.7173211" lon="13.9749439"></trkpt><trkpt lat="55.7173219" lon="13.9750442"></trkpt><trkpt lat="55.7173228" lon="13.9751444"></trkpt><trkpt lat="55.7173236" lon="13.9752446"></trkpt><trkpt lat="55.7172710" lon="13.9753463"></trkpt><trkpt lat="55.7172718" lon="13.9754465"></trkpt><trkpt lat="55.7172726" lon="13.9755468"></trkpt><trkpt lat="55.7172200" lon="13.9756484"></trkpt><trkpt lat="55.7172208" lon="13.9757487"></trkpt><trkpt lat="55.7172217" lon="13.9758489"></trkpt><trkpt lat="55.7171690" lon="13.9759506"></trkpt><trkpt lat="55.7171699" lon="13.9760508"></trkpt><trkpt lat="55.7171707" lon="13.9761511"></trkpt><trkpt lat="55.7171715" lon="13.9762513"></trkpt><trkpt lat="55.7171724" lon="13.9763515"></trkpt><trkpt lat="55.7171732" lon="13.9764518"></trkpt><trkpt lat="55.7171740" lon="13.9765520"></trkpt><trkpt lat="55.7171214" lon="13.9766537"></trkpt><trkpt lat="55.7171222" lon="13.9767539"></trkpt><trkpt lat="55.7171230" lon="13.9768542"></trkpt><trkpt lat="55.7171239" lon="13.9769544"></trkpt><trkpt lat="55.7170712" lon="13.9770561"></trkpt><trkpt lat="55.7170721" lon="13.9771563"></trkpt><trkpt lat="55.7170729" lon="13.9772565"></trkpt><trkpt lat="55.7170737" lon="13.9773568"></trkpt><trkpt lat="55.7170211" lon="13.9774584"></trkpt><trkpt lat="55.7170219" lon="13.9775587"></trkpt><trkpt lat="55.7170228" lon="13.9776589"></trkpt><trkpt lat="55.7170236" lon="13.9777591"></trkpt><trkpt lat="55.7170244" lon="13.9778594"></trkpt><trkpt lat="55.7169718" lon="13.9779610"></trkpt><trkpt lat="55.7169726" lon="13.9780613"></trkpt><trkpt lat="55.7169200" lon="13.9781629"></trkpt><trkpt lat="55.7169208" lon="13.9782632"></trkpt><trkpt lat="55.7168682" lon="13.9783648"></trkpt><trkpt lat="55.7168155" lon="13.9784665"></trkpt><trkpt lat="55.7167629" lon="13.9785681"></trkpt><trkpt lat="55.7167103" lon="13.9786698"></trkpt><trkpt lat="55.7166576" lon="13.9787714"></trkpt><trkpt lat="55.7166050" lon="13.9788731"></trkpt><trkpt lat="55.7165523" lon="13.9789747"></trkpt><trkpt lat="55.7164997" lon="13.9790764"></trkpt><trkpt lat="55.7164471" lon="13.9791780"></trkpt><trkpt lat="55.7164479" lon="13.9792783"></trkpt><trkpt lat="55.7165598" lon="13.9798768"></trkpt><trkpt lat="55.7165113" lon="13.9804797"></trkpt><trkpt lat="55.7154042" lon="13.9824137"></trkpt><trkpt lat="55.7146739" lon="13.9846384"></trkpt><trkpt lat="55.7145794" lon="13.9861447"></trkpt><trkpt lat="55.7143721" lon="13.9869521"></trkpt><trkpt lat="55.7143770" lon="13.9875534"></trkpt><trkpt lat="55.7147036" lon="13.9882466"></trkpt><trkpt lat="55.7146551" lon="13.9888493"></trkpt><trkpt lat="55.7143392" lon="13.9894591"></trkpt><trkpt lat="55.7141328" lon="13.9903667"></trkpt><trkpt lat="55.7135578" lon="13.9919855"></trkpt><trkpt lat="55.7122836" lon="13.9931213"></trkpt><trkpt lat="55.7119151" lon="13.9938325"></trkpt><trkpt lat="55.7118262" lon="13.9960400"></trkpt><trkpt lat="55.7114100" lon="13.9974540"></trkpt><trkpt lat="55.7107782" lon="13.9986731"></trkpt><trkpt lat="55.7097089" lon="13.9987007"></trkpt><trkpt lat="55.7089703" lon="13.9999225"></trkpt><trkpt lat="55.7088682" lon="14.0005265"></trkpt><trkpt lat="55.7089882" lon="14.0021269"></trkpt><trkpt lat="55.7089404" lon="14.0028297"></trkpt><trkpt lat="55.7087290" lon="14.0031358"></trkpt><trkpt lat="55.7081960" lon="14.0033499"></trkpt><trkpt lat="55.7078291" lon="14.0042613"></trkpt><trkpt lat="55.7078381" lon="14.0053634"></trkpt><trkpt lat="55.7081653" lon="14.0061568"></trkpt><trkpt lat="55.7082285" lon="14.0073577"></trkpt><trkpt lat="55.7088789" lon="14.0084435"></trkpt><trkpt lat="55.7096800" lon="14.0083228"></trkpt><trkpt lat="55.7098963" lon="14.0086180"></trkpt><trkpt lat="55.7099205" lon="14.0116239"></trkpt><trkpt lat="55.7102988" lon="14.0121154"></trkpt><trkpt lat="55.7102007" lon="14.0132203"></trkpt><trkpt lat="55.7099374" lon="14.0137281"></trkpt><trkpt lat="55.7099430" lon="14.0144294"></trkpt><trkpt lat="55.7104784" lon="14.0145161"></trkpt><trkpt lat="55.7108056" lon="14.0153096"></trkpt><trkpt lat="55.7101323" lon="14.0180324"></trkpt><trkpt lat="55.7095546" lon="14.0193498"></trkpt><trkpt lat="55.7093041" lon="14.0214605"></trkpt><trkpt lat="55.7089897" lon="14.0222701"></trkpt><trkpt lat="55.7089419" lon="14.0229728"></trkpt><trkpt lat="55.7085214" lon="14.0238852"></trkpt><trkpt lat="55.7080945" lon="14.0239960"></trkpt><trkpt lat="55.7080889" lon="14.0232947"></trkpt><trkpt lat="55.7085110" lon="14.0225827"></trkpt><trkpt lat="55.7086036" lon="14.0207766"></trkpt><trkpt lat="55.7088597" lon="14.0193673"></trkpt><trkpt lat="55.7086761" lon="14.0164658"></trkpt><trkpt lat="55.7081909" lon="14.0159770"></trkpt><trkpt lat="55.7081740" lon="14.0138730"></trkpt><trkpt lat="55.7083280" lon="14.0130674"></trkpt><trkpt lat="55.7083702" lon="14.0116633"></trkpt><trkpt lat="55.7083062" lon="14.0103622"></trkpt><trkpt lat="55.7075845" lon="14.0070735"></trkpt><trkpt lat="55.7070386" lon="14.0056845"></trkpt><trkpt lat="55.7071154" lon="14.0019746"></trkpt><trkpt lat="55.7072709" lon="14.0013694"></trkpt><trkpt lat="55.7072579" lon="13.9997662"></trkpt><trkpt lat="55.7073591" lon="13.9990621"></trkpt><trkpt lat="55.7083931" lon="13.9947259"></trkpt><trkpt lat="55.7087624" lon="13.9941149"></trkpt><trkpt lat="55.7094040" lon="13.9940983"></trkpt><trkpt lat="55.7095093" lon="13.9938951"></trkpt><trkpt lat="55.7095594" lon="13.9934929"></trkpt><trkpt lat="55.7099279" lon="13.9927817"></trkpt><trkpt lat="55.7107612" lon="13.9900537"></trkpt><trkpt lat="55.7115097" lon="13.9900342"></trkpt><trkpt lat="55.7132658" lon="13.9889859"></trkpt><trkpt lat="55.7137420" lon="13.9883720"></trkpt><trkpt lat="55.7141039" lon="13.9868588"></trkpt><trkpt lat="55.7140907" lon="13.9852553"></trkpt><trkpt lat="55.7142420" lon="13.9841486"></trkpt><trkpt lat="55.7147141" lon="13.9830334"></trkpt><trkpt lat="55.7149189" lon="13.9819253"></trkpt><trkpt lat="55.7153926" lon="13.9810105"></trkpt><trkpt lat="55.7156525" lon="13.9801013"></trkpt><trkpt lat="55.7161806" lon="13.9792853"></trkpt><trkpt lat="55.7163944" lon="13.9792797"></trkpt><trkpt lat="55.7164471" lon="13.9791780"></trkpt><trkpt lat="55.7164997" lon="13.9790764"></trkpt><trkpt lat="55.7165523" lon="13.9789747"></trkpt><trkpt lat="55.7166050" lon="13.9788731"></trkpt><trkpt lat="55.7166576" lon="13.9787714"></trkpt><trkpt lat="55.7167103" lon="13.9786698"></trkpt><trkpt lat="55.7167629" lon="13.9785681"></trkpt><trkpt lat="55.7168155" lon="13.9784665"></trkpt><trkpt lat="55.7168682" lon="13.9783648"></trkpt><trkpt lat="55.7169208" lon="13.9782632"></trkpt><trkpt lat="55.7169200" lon="13.9781629"></trkpt><trkpt lat="55.7169726" lon="13.9780613"></trkpt><trkpt lat="55.7169718" lon="13.9779610"></trkpt><trkpt lat="55.7170244" lon="13.9778594"></trkpt><trkpt lat="55.7170236" lon="13.9777591"></trkpt><trkpt lat="55.7170228" lon="13.9776589"></trkpt><trkpt lat="55.7170219" lon="13.9775587"></trkpt><trkpt lat="55.7170211" lon="13.9774584"></trkpt><trkpt lat="55.7170737" lon="13.9773568"></trkpt><trkpt lat="55.7170729" lon="13.9772565"></trkpt><trkpt lat="55.7170721" lon="13.9771563"></trkpt><trkpt lat="55.7170712" lon="13.9770561"></trkpt><trkpt lat="55.7171239" lon="13.9769544"></trkpt><trkpt lat="55.7171230" lon="13.9768542"></trkpt><trkpt lat="55.7171222" lon="13.9767539"></trkpt><trkpt lat="55.7171214" lon="13.9766537"></trkpt><trkpt lat="55.7171740" lon="13.9765520"></trkpt><trkpt lat="55.7171732" lon="13.9764518"></trkpt><trkpt lat="55.7171724" lon="13.9763515"></trkpt><trkpt lat="55.7171715" lon="13.9762513"></trkpt><trkpt lat="55.7171707" lon="13.9761511"></trkpt><trkpt lat="55.7171699" lon="13.9760508"></trkpt><trkpt lat="55.7171690" lon="13.9759506"></trkpt><trkpt lat="55.7172217" lon="13.9758489"></trkpt><trkpt lat="55.7172208" lon="13.9757487"></trkpt><trkpt lat="55.7172200" lon="13.9756484"></trkpt><trkpt lat="55.7172726" lon="13.9755468"></trkpt><trkpt lat="55.7172718" lon="13.9754465"></trkpt><trkpt lat="55.7172710" lon="13.9753463"></trkpt><trkpt lat="55.7173236" lon="13.9752446"></trkpt><trkpt lat="55.7173228" lon="13.9751444"></trkpt><trkpt lat="55.7173219" lon="13.9750442"></trkpt><trkpt lat="55.7173211" lon="13.9749439"></trkpt><trkpt lat="55.7173737" lon="13.9748423"></trkpt><trkpt lat="55.7173729" lon="13.9747420"></trkpt><trkpt lat="55.7173721" lon="13.9746418"></trkpt><trkpt lat="55.7174247" lon="13.9745401"></trkpt><trkpt lat="55.7174239" lon="13.9744399"></trkpt><trkpt lat="55.7174230" lon="13.9743396"></trkpt><trkpt lat="55.7174757" lon="13.9742380"></trkpt><trkpt lat="55.7175283" lon="13.9741363"></trkpt><trkpt lat="55.7175809" lon="13.9740346"></trkpt><trkpt lat="55.7176336" lon="13.9739330"></trkpt><trkpt lat="55.7176327" lon="13.9738327"></trkpt><trkpt lat="55.7176319" lon="13.9737325"></trkpt><trkpt lat="55.7176845" lon="13.9736308"></trkpt><trkpt lat="55.7176837" lon="13.9735306"></trkpt><trkpt lat="55.7176829" lon="13.9734303"></trkpt><trkpt lat="55.7176820" lon="13.9733301"></trkpt><trkpt lat="55.7176812" lon="13.9732299"></trkpt><trkpt lat="55.7176804" lon="13.9731296"></trkpt><trkpt lat="55.7176795" lon="13.9730294"></trkpt><trkpt lat="55.7176252" lon="13.9729306"></trkpt><trkpt lat="55.7176244" lon="13.9728303"></trkpt><trkpt lat="55.7176236" lon="13.9727301"></trkpt><trkpt lat="55.7175692" lon="13.9726313"></trkpt><trkpt lat="55.7175684" lon="13.9725310"></trkpt><trkpt lat="55.7175141" lon="13.9724322"></trkpt><trkpt lat="55.7175133" lon="13.9723320"></trkpt><trkpt lat="55.7174590" lon="13.9722331"></trkpt><trkpt lat="55.7174055" lon="13.9722346"></trkpt><trkpt lat="55.7173512" lon="13.9721357"></trkpt><trkpt lat="55.7172977" lon="13.9721372"></trkpt><trkpt lat="55.7172434" lon="13.9720384"></trkpt><trkpt lat="55.7171899" lon="13.9720398"></trkpt><trkpt lat="55.7171365" lon="13.9720412"></trkpt><trkpt lat="55.7170830" lon="13.9720426"></trkpt><trkpt lat="55.7170287" lon="13.9719438"></trkpt><trkpt lat="55.7169752" lon="13.9719453"></trkpt><trkpt lat="55.7169217" lon="13.9719467"></trkpt><trkpt lat="55.7168683" lon="13.9719481"></trkpt><trkpt lat="55.7168140" lon="13.9718493"></trkpt><trkpt lat="55.7167605" lon="13.9718507"></trkpt><trkpt lat="55.7167070" lon="13.9718521"></trkpt><trkpt lat="55.7166527" lon="13.9717533"></trkpt><trkpt lat="55.7165984" lon="13.9716545"></trkpt><trkpt lat="55.7165976" lon="13.9715543"></trkpt><trkpt lat="55.7165433" lon="13.9714555"></trkpt><trkpt lat="55.7165424" lon="13.9713552"></trkpt><trkpt lat="55.7165416" lon="13.9712550"></trkpt><trkpt lat="55.7165408" lon="13.9711547"></trkpt><trkpt lat="55.7165934" lon="13.9710531"></trkpt><trkpt lat="55.7165926" lon="13.9709528"></trkpt><trkpt lat="55.7165917" lon="13.9708526"></trkpt><trkpt lat="55.7165909" lon="13.9707524"></trkpt><trkpt lat="55.7166435" lon="13.9706507"></trkpt><trkpt lat="55.7166427" lon="13.9705504"></trkpt><trkpt lat="55.7166418" lon="13.9704502"></trkpt><trkpt lat="55.7166410" lon="13.9703500"></trkpt><trkpt lat="55.7166936" lon="13.9702483"></trkpt><trkpt lat="55.7166928" lon="13.9701481"></trkpt><trkpt lat="55.7166920" lon="13.9700478"></trkpt><trkpt lat="55.7166911" lon="13.9699476"></trkpt><trkpt lat="55.7166903" lon="13.9698473"></trkpt><trkpt lat="55.7166894" lon="13.9697471"></trkpt><trkpt lat="55.7167421" lon="13.9696454"></trkpt><trkpt lat="55.7167412" lon="13.9695452"></trkpt><trkpt lat="55.7167404" lon="13.9694449"></trkpt><trkpt lat="55.7167396" lon="13.9693447"></trkpt><trkpt lat="55.7167387" lon="13.9692445"></trkpt><trkpt lat="55.7167379" lon="13.9691442"></trkpt><trkpt lat="55.7167370" lon="13.9690440"></trkpt><trkpt lat="55.7167897" lon="13.9689423"></trkpt><trkpt lat="55.7167888" lon="13.9688421"></trkpt><trkpt lat="55.7167880" lon="13.9687418"></trkpt><trkpt lat="55.7167872" lon="13.9686416"></trkpt><trkpt lat="55.7167863" lon="13.9685413"></trkpt><trkpt lat="55.7167855" lon="13.9684411"></trkpt><trkpt lat="55.7167846" lon="13.9683408"></trkpt><trkpt lat="55.7167838" lon="13.9682406"></trkpt><trkpt lat="55.7168364" lon="13.9681389"></trkpt><trkpt lat="55.7168356" lon="13.9680387"></trkpt><trkpt lat="55.7168348" lon="13.9679384"></trkpt><trkpt lat="55.7168339" lon="13.9678382"></trkpt><trkpt lat="55.7168331" lon="13.9677380"></trkpt><trkpt lat="55.7168322" lon="13.9676377"></trkpt><trkpt lat="55.7168314" lon="13.9675375"></trkpt><trkpt lat="55.7168840" lon="13.9674358"></trkpt><trkpt lat="55.7168832" lon="13.9673355"></trkpt><trkpt lat="55.7168823" lon="13.9672353"></trkpt><trkpt lat="55.7168815" lon="13.9671351"></trkpt><trkpt lat="55.7168807" lon="13.9670348"></trkpt><trkpt lat="55.7168798" lon="13.9669346"></trkpt><trkpt lat="55.7168790" lon="13.9668343"></trkpt><trkpt lat="55.7168781" lon="13.9667341"></trkpt><trkpt lat="55.7168773" lon="13.9666338"></trkpt><trkpt lat="55.7168765" lon="13.9665336"></trkpt><trkpt lat="55.7168756" lon="13.9664334"></trkpt><trkpt lat="55.7168748" lon="13.9663331"></trkpt><trkpt lat="55.7168739" lon="13.9662329"></trkpt><trkpt lat="55.7169266" lon="13.9661312"></trkpt><trkpt lat="55.7169257" lon="13.9660309"></trkpt><trkpt lat="55.7169249" lon="13.9659307"></trkpt><trkpt lat="55.7169240" lon="13.9658305"></trkpt><trkpt lat="55.7169232" lon="13.9657302"></trkpt><trkpt lat="55.7169224" lon="13.9656300"></trkpt><trkpt lat="55.7169215" lon="13.9655297"></trkpt><trkpt lat="55.7169207" lon="13.9654295"></trkpt><trkpt lat="55.7169198" lon="13.9653292"></trkpt><trkpt lat="55.7169190" lon="13.9652290"></trkpt><trkpt lat="55.7169181" lon="13.9651288"></trkpt><trkpt lat="55.7169173" lon="13.9650285"></trkpt><trkpt lat="55.7169699" lon="13.9649268"></trkpt><trkpt lat="55.7169691" lon="13.9648266"></trkpt><trkpt lat="55.7169682" lon="13.9647263"></trkpt><trkpt lat="55.7169674" lon="13.9646261"></trkpt><trkpt lat="55.7169666" lon="13.9645258"></trkpt><trkpt lat="55.7169657" lon="13.9644256"></trkpt><trkpt lat="55.7169649" lon="13.9643254"></trkpt><trkpt lat="55.7169640" lon="13.9642251"></trkpt><trkpt lat="55.7169632" lon="13.9641249"></trkpt><trkpt lat="55.7169624" lon="13.9640246"></trkpt><trkpt lat="55.7169615" lon="13.9639244"></trkpt><trkpt lat="55.7169607" lon="13.9638241"></trkpt><trkpt lat="55.7169598" lon="13.9637239"></trkpt><trkpt lat="55.7169590" lon="13.9636236"></trkpt><trkpt lat="55.7169581" lon="13.9635234"></trkpt><trkpt lat="55.7169573" lon="13.9634231"></trkpt><trkpt lat="55.7170099" lon="13.9633215"></trkpt><trkpt lat="55.7170625" lon="13.9632198"></trkpt><trkpt lat="55.7171152" lon="13.9631181"></trkpt><trkpt lat="55.7171686" lon="13.9631166"></trkpt><trkpt lat="55.7172221" lon="13.9631152"></trkpt><trkpt lat="55.7172756" lon="13.9631138"></trkpt><trkpt lat="55.7173291" lon="13.9631123"></trkpt><trkpt lat="55.7173834" lon="13.9632111"></trkpt><trkpt lat="55.7174369" lon="13.9632097"></trkpt><trkpt lat="55.7174903" lon="13.9632082"></trkpt><trkpt lat="55.7175446" lon="13.9633070"></trkpt><trkpt lat="55.7175990" lon="13.9634059"></trkpt><trkpt lat="55.7176524" lon="13.9634044"></trkpt><trkpt lat="55.7177067" lon="13.9635032"></trkpt><trkpt lat="55.7177602" lon="13.9635018"></trkpt><trkpt lat="55.7178145" lon="13.9636006"></trkpt><trkpt lat="55.7178680" lon="13.9635991"></trkpt><trkpt lat="55.7179215" lon="13.9635977"></trkpt><trkpt lat="55.7179749" lon="13.9635963"></trkpt><trkpt lat="55.7180284" lon="13.9635948"></trkpt><trkpt lat="55.7180819" lon="13.9635934"></trkpt><trkpt lat="55.7181354" lon="13.9635919"></trkpt><trkpt lat="55.7181880" lon="13.9634902"></trkpt><trkpt lat="55.7182406" lon="13.9633886"></trkpt><trkpt lat="55.7182932" lon="13.9632869"></trkpt><trkpt lat="55.7183459" lon="13.9631852"></trkpt><trkpt lat="55.7183985" lon="13.9630835"></trkpt><trkpt lat="55.7184520" lon="13.9630820"></trkpt><trkpt lat="55.7185055" lon="13.9630806"></trkpt><trkpt lat="55.7185581" lon="13.9629789"></trkpt><trkpt lat="55.7186107" lon="13.9628772"></trkpt><trkpt lat="55.7186633" lon="13.9627755"></trkpt><trkpt lat="55.7186625" lon="13.9626753"></trkpt><trkpt lat="55.7186617" lon="13.9625750"></trkpt><trkpt lat="55.7187143" lon="13.9624733"></trkpt><trkpt lat="55.7187134" lon="13.9623731"></trkpt><trkpt lat="55.7187661" lon="13.9622714"></trkpt><trkpt lat="55.7187652" lon="13.9621711"></trkpt><trkpt lat="55.7187644" lon="13.9620709"></trkpt><trkpt lat="55.7187635" lon="13.9619706"></trkpt><trkpt lat="55.7187627" lon="13.9618704"></trkpt><trkpt lat="55.7187618" lon="13.9617701"></trkpt><trkpt lat="55.7187610" lon="13.9616699"></trkpt><trkpt lat="55.7187602" lon="13.9615696"></trkpt><trkpt lat="55.7188128" lon="13.9614679"></trkpt><trkpt lat="55.7188119" lon="13.9613677"></trkpt><trkpt lat="55.7187576" lon="13.9612689"></trkpt><trkpt lat="55.7187568" lon="13.9611686"></trkpt><trkpt lat="55.7187559" lon="13.9610684"></trkpt><trkpt lat="55.7187551" lon="13.9609681"></trkpt><trkpt lat="55.7187542" lon="13.9608679"></trkpt><trkpt lat="55.7187534" lon="13.9607676"></trkpt><trkpt lat="55.7186991" lon="13.9606688"></trkpt><trkpt lat="55.7186456" lon="13.9606702"></trkpt><trkpt lat="55.7185921" lon="13.9606717"></trkpt><trkpt lat="55.7185387" lon="13.9606731"></trkpt><trkpt lat="55.7184852" lon="13.9606746"></trkpt><trkpt lat="55.7184317" lon="13.9606760"></trkpt><trkpt lat="55.7183782" lon="13.9606775"></trkpt><trkpt lat="55.7183248" lon="13.9606789"></trkpt><trkpt lat="55.7182713" lon="13.9606804"></trkpt><trkpt lat="55.7182178" lon="13.9606818"></trkpt><trkpt lat="55.7181644" lon="13.9606833"></trkpt></trkseg></trk></gpx>
