{
  "type": "Feature",
  "properties": {
    "name": "ÖST Trail 13/14 km reconstructed",
    "status": "validated_reconstruction_candidate",
    "provenance": "organizer raster cross-registered to Trail5 and snapped to OpenStreetMap",
    "distance_km": 10.091,
    "osm_way_ids": [
      1083251567,
      1237245924,
      68423856,
      1237245920,
      1083243888,
      45137814,
      38780919,
      51096673,
      741759096,
      65046738,
      741759098,
      1004686725,
      50321315,
      1004689110,
      220636739,
      1462376249,
      1462383783,
      68423850,
      1084194487,
      450631366,
      450631369,
      831799245,
      823057354,
      68423852,
      312654228,
      312654229,
      68423853,
      68423849,
      694131273,
      694131274,
      164681929,
      200662295,
      164681928,
      68423854,
      450631364
    ]
  },
  "geometry": {
    "type": "LineString",
    "coordinates": [
      [
        13.9605742,
        55.7177637
      ],
      [
        13.9605096,
        55.7177653
      ],
      [
        13.9604479,
        55.71775439999998
      ],
      [
        13.9603965,
        55.7177323
      ],
      [
        13.960302000000002,
        55.717803599999996
      ],
      [
        13.960306,
        55.718009699999996
      ],
      [
        13.9605987,
        55.7181288
      ],
      [
        13.9606963,
        55.7182433
      ],
      [
        13.9607163,
        55.71853209999999
      ],
      [
        13.9614428,
        55.7184867
      ],
      [
        13.9616043,
        55.718476599999995
      ],
      [
        13.9623578,
        55.718363399999994
      ],
      [
        13.9626289,
        55.71829399999999
      ],
      [
        13.9627768,
        55.7180927
      ],
      [
        13.9632452,
        55.7178775
      ],
      [
        13.9634177,
        55.7176345
      ],
      [
        13.9633437,
        55.7172319
      ],
      [
        13.962998700000002,
        55.71690559999999
      ],
      [
        13.9629664,
        55.7167826
      ],
      [
        13.9633924,
        55.71677259999999
      ],
      [
        13.9637195,
        55.716819799999996
      ],
      [
        13.9640465,
        55.7168869
      ],
      [
        13.9642367,
        55.717021100000004
      ],
      [
        13.9645232,
        55.7171382
      ],
      [
        13.9647717,
        55.7172468
      ],
      [
        13.964883300000002,
        55.717316800000006
      ],
      [
        13.9649771,
        55.71733100000001
      ],
      [
        13.9650633,
        55.71729959999999
      ],
      [
        13.9651723,
        55.7172368
      ],
      [
        13.9653041,
        55.717203899999994
      ],
      [
        13.9654247,
        55.7171931
      ],
      [
        13.9655204,
        55.71720679999999
      ],
      [
        13.965615,
        55.71723840000001
      ],
      [
        13.9657306,
        55.71725390000001
      ],
      [
        13.9658252,
        55.717261300000004
      ],
      [
        13.9659594,
        55.7172421
      ],
      [
        13.9660913,
        55.71719859999999
      ],
      [
        13.9662925,
        55.71710039999999
      ],
      [
        13.9665178,
        55.7170687
      ],
      [
        13.9668477,
        55.717053500000006
      ],
      [
        13.966984500000002,
        55.71694169999999
      ],
      [
        13.9672098,
        55.716832999999994
      ],
      [
        13.9673922,
        55.7167967
      ],
      [
        13.9678589,
        55.716746799999996
      ],
      [
        13.9681915,
        55.71663050000001
      ],
      [
        13.9685295,
        55.71652019999999
      ],
      [
        13.9687387,
        55.71639329999999
      ],
      [
        13.9691705,
        55.71628
      ],
      [
        13.9696372,
        55.716119799999994
      ],
      [
        13.9699752,
        55.7160322
      ],
      [
        13.9702748,
        55.71599979999999
      ],
      [
        13.9702957,
        55.716095
      ],
      [
        13.9703806,
        55.716245
      ],
      [
        13.9704563,
        55.7163749
      ],
      [
        13.9705007,
        55.71643520000001
      ],
      [
        13.970841000000002,
        55.71689729999999
      ],
      [
        13.9711851,
        55.717307899999994
      ],
      [
        13.971403700000002,
        55.71733509999999
      ],
      [
        13.971747,
        55.71743179999999
      ],
      [
        13.9720045,
        55.71749620000001
      ],
      [
        13.9722001,
        55.71752039999999
      ],
      [
        13.9724576,
        55.71747740000001
      ],
      [
        13.972839100000002,
        55.7173217
      ],
      [
        13.973158600000001,
        55.717189999999995
      ],
      [
        13.973960000000002,
        55.71700299999999
      ],
      [
        13.974475,
        55.716891799999985
      ],
      [
        13.9746757,
        55.7168602
      ],
      [
        13.9750501,
        55.71677149999999
      ],
      [
        13.9757182,
        55.7166985
      ],
      [
        13.9766912,
        55.7165921
      ],
      [
        13.9769619,
        55.7165329
      ],
      [
        13.9772662,
        55.7162774
      ],
      [
        13.9774404,
        55.716109900000006
      ],
      [
        13.9776028,
        55.71619219999999
      ],
      [
        13.9777709,
        55.7164043
      ],
      [
        13.9778633,
        55.7164494
      ],
      [
        13.9783055,
        55.7163588
      ],
      [
        13.978520000000001,
        55.7162726
      ],
      [
        13.9786756,
        55.7161321
      ],
      [
        13.9789626,
        55.7158798
      ],
      [
        13.9793032,
        55.7156124
      ],
      [
        13.9796922,
        55.7153858
      ],
      [
        13.979971100000002,
        55.715218
      ],
      [
        13.9803278,
        55.7150534
      ],
      [
        13.980867,
        55.714838799999995
      ],
      [
        13.9812049,
        55.714711900000005
      ],
      [
        13.9815724,
        55.71451699999999
      ],
      [
        13.9818433,
        55.7144565
      ],
      [
        13.9824977,
        55.71428579999999
      ],
      [
        13.9830878,
        55.71410749999999
      ],
      [
        13.9832978,
        55.7140318
      ],
      [
        13.9833628,
        55.7140084
      ],
      [
        13.9837884,
        55.71405709999999
      ],
      [
        13.984138,
        55.71406609999999
      ],
      [
        13.9842665,
        55.71406439999999
      ],
      [
        13.9842911,
        55.714060399999994
      ],
      [
        13.9844545,
        55.71403359999999
      ],
      [
        13.9846463,
        55.713987799999984
      ],
      [
        13.9849237,
        55.71422979999999
      ],
      [
        13.9853821,
        55.714481499999984
      ],
      [
        13.9857096,
        55.7146474
      ],
      [
        13.9859997,
        55.714546
      ],
      [
        13.9862564,
        55.71441279999999
      ],
      [
        13.9865141,
        55.7142817
      ],
      [
        13.9867058,
        55.71421429999999
      ],
      [
        13.9871882,
        55.7140662
      ],
      [
        13.9874931,
        55.71389209999999
      ],
      [
        13.987968,
        55.713653699999995
      ],
      [
        13.9883947,
        55.7135163
      ],
      [
        13.9886856,
        55.713501599999994
      ],
      [
        13.9889109,
        55.7135198
      ],
      [
        13.9890216,
        55.7134475
      ],
      [
        13.989189700000003,
        55.713212299999995
      ],
      [
        13.9893324,
        55.71299919999999
      ],
      [
        13.9894044,
        55.71273399999999
      ],
      [
        13.9895707,
        55.71244389999999
      ],
      [
        13.989737,
        55.712256599999996
      ],
      [
        13.989885600000001,
        55.712092099999985
      ],
      [
        13.990171400000001,
        55.7119103
      ],
      [
        13.9906007,
        55.7118002
      ],
      [
        13.9910047,
        55.7117624
      ],
      [
        13.9915824,
        55.7118456
      ],
      [
        13.9924638,
        55.71186509999999
      ],
      [
        13.9929986,
        55.7118335
      ],
      [
        13.9934164,
        55.71176479999999
      ],
      [
        13.9939533,
        55.711636299999995
      ],
      [
        13.9943783,
        55.711506099999994
      ],
      [
        13.994929,
        55.7112284
      ],
      [
        13.9950424,
        55.71100239999999
      ],
      [
        13.9950789,
        55.7107418
      ],
      [
        13.9950912,
        55.71040709999998
      ],
      [
        13.9951661,
        55.70998939999999
      ],
      [
        13.9953055,
        55.70969319999999
      ],
      [
        13.995557400000001,
        55.70951240000001
      ],
      [
        13.9957661,
        55.709346899999986
      ],
      [
        13.9959437,
        55.709149799999985
      ],
      [
        13.9960934,
        55.70901
      ],
      [
        13.996506900000002,
        55.70895939999999
      ],
      [
        13.9969156,
        55.70891139999999
      ],
      [
        13.9974581,
        55.70890279999999
      ],
      [
        13.9978051,
        55.708954
      ],
      [
        13.9980733,
        55.7090893
      ],
      [
        13.9982557,
        55.709161899999984
      ],
      [
        13.998507200000002,
        55.70918079999999
      ],
      [
        13.9988458,
        55.709038
      ],
      [
        13.9990069,
        55.70889809999999
      ],
      [
        13.9991498,
        55.708685499999994
      ],
      [
        13.9992106,
        55.708481799999994
      ],
      [
        13.999207400000001,
        55.7084157
      ],
      [
        13.9993622,
        55.70840630000001
      ],
      [
        13.9994513,
        55.70840320000001
      ],
      [
        13.999586400000002,
        55.70837019999999
      ],
      [
        13.9997604,
        55.70832080000001
      ],
      [
        13.999888500000003,
        55.70831299999999
      ],
      [
        14.0000583,
        55.70834909999999
      ],
      [
        14.0001725,
        55.7083389
      ],
      [
        14.0003772,
        55.708284
      ],
      [
        14.000594000000001,
        55.7082447
      ],
      [
        14.0007823,
        55.708208
      ],
      [
        14.0008957,
        55.7082152
      ],
      [
        14.001001600000002,
        55.7082399
      ],
      [
        14.0011717,
        55.708252
      ],
      [
        14.0014991,
        55.70828929999999
      ],
      [
        14.001595,
        55.7082699
      ],
      [
        14.0017515,
        55.70830229999999
      ],
      [
        14.0019106,
        55.7084037
      ],
      [
        14.0019863,
        55.7085683
      ],
      [
        14.001926300000001,
        55.70869619999999
      ],
      [
        14.0020046,
        55.70879169999999
      ],
      [
        14.0022446,
        55.708899
      ],
      [
        14.0024976,
        55.7090328
      ],
      [
        14.0026542,
        55.70910189999999
      ],
      [
        14.0029333,
        55.70926059999999
      ],
      [
        14.0030194,
        55.709384099999994
      ],
      [
        14.0032594,
        55.70948250000001
      ],
      [
        14.0035855,
        55.70968539999999
      ],
      [
        14.0039778,
        55.70991519999999
      ],
      [
        14.0044772,
        55.7100515
      ],
      [
        14.0046004,
        55.7100689
      ],
      [
        14.0047654,
        55.71004659999999
      ],
      [
        14.0054077,
        55.7100639
      ],
      [
        14.0058279,
        55.71008249999999
      ],
      [
        14.0060545,
        55.710062699999995
      ],
      [
        14.0062547,
        55.710091199999994
      ],
      [
        14.0065209,
        55.7101383
      ],
      [
        14.006817300000002,
        55.7101562
      ],
      [
        14.0071016,
        55.710177300000005
      ],
      [
        14.0074989,
        55.710228699999995
      ],
      [
        14.0078849,
        55.71021059999999
      ],
      [
        14.0081141,
        55.7101934
      ],
      [
        14.0093077,
        55.70975299999998
      ],
      [
        14.0094147,
        55.709776699999985
      ],
      [
        14.0095633,
        55.7097025
      ],
      [
        14.0098816,
        55.709454
      ],
      [
        14.0102067,
        55.7091726
      ],
      [
        14.0104327,
        55.708961300000006
      ],
      [
        14.0106525,
        55.708849199999996
      ],
      [
        14.0108408,
        55.70878899999999
      ],
      [
        14.011029,
        55.70873569999999
      ],
      [
        14.010905300000001,
        55.708423499999995
      ],
      [
        14.010873800000002,
        55.70834399999999
      ],
      [
        14.0108045,
        55.7081691
      ],
      [
        14.0115636,
        55.70809760000001
      ],
      [
        14.0121108,
        55.708112799999995
      ],
      [
        14.0124059,
        55.70816109999999
      ],
      [
        14.0126848,
        55.70827599999999
      ],
      [
        14.0131193,
        55.70838779999999
      ],
      [
        14.013409,
        55.70839079999999
      ],
      [
        14.014122500000001,
        55.70825479999999
      ],
      [
        14.0146589,
        55.70818229999999
      ],
      [
        14.0152114,
        55.7081037
      ],
      [
        14.0157506,
        55.7080689
      ],
      [
        14.0163111,
        55.70804019999999
      ],
      [
        14.0167483,
        55.708008500000005
      ],
      [
        14.0171216,
        55.7080729
      ],
      [
        14.0172039,
        55.708099
      ],
      [
        14.017195,
        55.708105599999996
      ],
      [
        14.0170919,
        55.70819279999999
      ],
      [
        14.017099900000002,
        55.708311699999996
      ],
      [
        14.017219000000003,
        55.7083567
      ],
      [
        14.017423,
        55.7083654
      ],
      [
        14.017528,
        55.708375200000006
      ],
      [
        14.0177969,
        55.708318199999994
      ],
      [
        14.0179933,
        55.7083292
      ],
      [
        14.0181465,
        55.7083435
      ],
      [
        14.0190187,
        55.708438599999994
      ],
      [
        14.019476,
        55.70880780000001
      ],
      [
        14.0182541,
        55.7084817
      ],
      [
        14.017836000000003,
        55.7085179
      ],
      [
        14.0175305,
        55.70861759999998
      ],
      [
        14.017501300000001,
        55.70865109999998
      ],
      [
        14.017316100000002,
        55.708863300000004
      ],
      [
        14.0166058,
        55.70906699999999
      ],
      [
        14.0161961,
        55.7091161
      ],
      [
        14.0144366,
        55.709233
      ],
      [
        14.0137122,
        55.70912779999998
      ],
      [
        14.0132481,
        55.70901659999999
      ],
      [
        14.0125927,
        55.708930200000005
      ],
      [
        14.0119593,
        55.708906299999995
      ],
      [
        14.011029,
        55.70873569999999
      ],
      [
        14.010905300000001,
        55.708423499999995
      ],
      [
        14.010873800000002,
        55.70834399999999
      ],
      [
        14.0108045,
        55.7081691
      ],
      [
        14.0088026,
        55.708334
      ],
      [
        14.0076971,
        55.70854829999999
      ],
      [
        14.0074027,
        55.70855729999999
      ],
      [
        14.006951400000002,
        55.708512099999986
      ],
      [
        14.0064837,
        55.70850459999999
      ],
      [
        14.0060369,
        55.7084813
      ],
      [
        14.0054921,
        55.708392399999994
      ],
      [
        14.0049201,
        55.70825839999999
      ],
      [
        14.004796500000001,
        55.7082416
      ],
      [
        14.0041351,
        55.70800429999999
      ],
      [
        14.0031695,
        55.7077958
      ],
      [
        14.0025419,
        55.7076719
      ],
      [
        14.0021503,
        55.7074694
      ],
      [
        14.0015639,
        55.7072898
      ],
      [
        14.0008196,
        55.7071756
      ],
      [
        14.0003394,
        55.7071793
      ],
      [
        13.9998382,
        55.707242699999995
      ],
      [
        13.9992911,
        55.7072941
      ],
      [
        13.998819,
        55.70730609999999
      ],
      [
        13.9981826,
        55.7072455
      ],
      [
        13.9979045,
        55.707198099999985
      ],
      [
        13.9976773,
        55.707388099999996
      ],
      [
        13.9975185,
        55.7073477
      ],
      [
        13.9973009,
        55.7073817
      ],
      [
        13.9970541,
        55.7073605
      ],
      [
        13.9967859,
        55.7073515
      ],
      [
        13.9963567,
        55.70742400000001
      ],
      [
        13.9959598,
        55.70754489999999
      ],
      [
        13.9954126,
        55.707687
      ],
      [
        13.9947367,
        55.7078472
      ],
      [
        13.9942378,
        55.707965
      ],
      [
        13.9937657,
        55.70814639999999
      ],
      [
        13.9934331,
        55.708255199999996
      ],
      [
        13.993004,
        55.708297499999986
      ],
      [
        13.9926177,
        55.708385099999994
      ],
      [
        13.992371,
        55.70841229999999
      ],
      [
        13.9916544,
        55.70838299999999
      ],
      [
        13.9910971,
        55.7084453
      ],
      [
        13.9907441,
        55.7085171
      ],
      [
        13.9906262,
        55.708637
      ],
      [
        13.9907455,
        55.70884449999999
      ],
      [
        13.9908528,
        55.7090833
      ],
      [
        13.9908582,
        55.70922230000001
      ],
      [
        13.9906007,
        55.70936129999999
      ],
      [
        13.9902949,
        55.70949729999999
      ],
      [
        13.989737,
        55.70980260000001
      ],
      [
        13.9892381,
        55.7100051
      ],
      [
        13.9888251,
        55.71018639999998
      ],
      [
        13.988202800000002,
        55.71041000000001
      ],
      [
        13.9876342,
        55.71068199999999
      ],
      [
        13.9874947,
        55.7108513
      ],
      [
        13.9874732,
        55.711159499999994
      ],
      [
        13.9874464,
        55.7114406
      ],
      [
        13.987366,
        55.7116914
      ],
      [
        13.9873445,
        55.712048
      ],
      [
        13.9873123,
        55.712368399999995
      ],
      [
        13.9872533,
        55.71273399999999
      ],
      [
        13.9872479,
        55.7130393
      ],
      [
        13.9871943,
        55.7132448
      ],
      [
        13.98691,
        55.7134019
      ],
      [
        13.9866418,
        55.71352279999999
      ],
      [
        13.9865237,
        55.71361339999999
      ],
      [
        13.986159,
        55.7137978
      ],
      [
        13.985837100000001,
        55.713803799999994
      ],
      [
        13.9854401,
        55.7138658
      ],
      [
        13.9850458,
        55.7139035
      ],
      [
        13.9846463,
        55.713987799999984
      ],
      [
        13.984498300000002,
        55.71375629999999
      ],
      [
        13.9843768,
        55.71351790000001
      ],
      [
        13.9843281,
        55.7132796
      ],
      [
        13.9843087,
        55.71306599999999
      ],
      [
        13.9842941,
        55.71282769999999
      ],
      [
        13.9843281,
        55.71258109999999
      ],
      [
        13.9844546,
        55.712244199999994
      ],
      [
        13.9846053,
        55.711909999999996
      ],
      [
        13.9846053,
        55.7118388
      ],
      [
        13.984508,
        55.7117676
      ],
      [
        13.9843184,
        55.71172369999999
      ],
      [
        13.983739800000002,
        55.71167989999999
      ],
      [
        13.9829884,
        55.711650199999994
      ],
      [
        13.982546,
        55.71164739999999
      ],
      [
        13.9819381,
        55.71168029999999
      ],
      [
        13.9815151,
        55.711710499999995
      ],
      [
        13.981218,
        55.711705300000006
      ],
      [
        13.9810143,
        55.71178439999999
      ],
      [
        13.980761400000002,
        55.711861099999986
      ],
      [
        13.9804162,
        55.711929600000005
      ],
      [
        13.9795663,
        55.71209189999999
      ],
      [
        13.9776239,
        55.71252939999999
      ],
      [
        13.9755121,
        55.712916199999995
      ],
      [
        13.9730441,
        55.7133703
      ],
      [
        13.9724671,
        55.7134643
      ],
      [
        13.9709841,
        55.71368459999999
      ],
      [
        13.969897400000002,
        55.71382859999999
      ],
      [
        13.969558,
        55.7138909
      ],
      [
        13.9687619,
        55.714036899999996
      ],
      [
        13.967858,
        55.71431340000001
      ],
      [
        13.965219600000001,
        55.71517140000001
      ],
      [
        13.9650828,
        55.7152031
      ],
      [
        13.9649192,
        55.7152198
      ],
      [
        13.9647046,
        55.71523340000001
      ],
      [
        13.960692100000001,
        55.715192000000016
      ],
      [
        13.960486500000002,
        55.715226699999995
      ],
      [
        13.960341,
        55.715305
      ],
      [
        13.960437,
        55.715984500000005
      ],
      [
        13.9604187,
        55.7168448
      ],
      [
        13.960426,
        55.716925299999986
      ],
      [
        13.9604913,
        55.71755829999999
      ],
      [
        13.9605499,
        55.71755590000001
      ],
      [
        13.9606069,
        55.717563899999995
      ],
      [
        13.9606567,
        55.7175814
      ],
      [
        13.9606944,
        55.7176068
      ],
      [
        13.9607163,
        55.717637499999995
      ],
      [
        13.9607201,
        55.717670500000004
      ],
      [
        13.9607056,
        55.7177026
      ],
      [
        13.9606742,
        55.71773049999999
      ],
      [
        13.9606289,
        55.71775159999999
      ],
      [
        13.9605742,
        55.7177637
      ]
    ]
  }
}
