<?xml version='1.0' encoding='utf-8'?>
<gpx xmlns="http://www.topografix.com/GPX/1/1" version="1.1" creator="ÖST Analys derived route materializer"><metadata><name>trail22-2022-2024</name><desc>Derived from dataTrace.geometry embedded in the public Trace de Trail map; not an organizer-direct or authenticated-export GPX.</desc><link href="https://tracedetrail.fr/fr/trace/165617"><text>Trace de Trail public map page</text></link></metadata><trk><trkseg><trkpt lat="55.7172368" lon="13.9606028"><ele>119.0</ele></trkpt><trkpt lat="55.7171518" lon="13.9605885" /><trkpt lat="55.7169479" lon="13.9605750"><ele>120.0</ele></trkpt><trkpt lat="55.7168978" lon="13.9605561" /><trkpt lat="55.7168588" lon="13.9605229" /><trkpt lat="55.7168375" lon="13.9604726" /><trkpt lat="55.7168355" lon="13.9603325"><ele>120.0</ele></trkpt><trkpt lat="55.7168892" lon="13.9599848"><ele>120.0</ele></trkpt><trkpt lat="55.7169509" lon="13.9595833"><ele>119.0</ele></trkpt><trkpt lat="55.7169838" lon="13.9593344" /><trkpt lat="55.7170248" lon="13.9587748"><ele>117.0</ele></trkpt><trkpt lat="55.7170197" lon="13.9587065" /><trkpt lat="55.7170076" lon="13.9586346" /><trkpt lat="55.7169337" lon="13.9584244"><ele>117.0</ele></trkpt><trkpt lat="55.7167809" lon="13.9580974"><ele>115.0</ele></trkpt><trkpt lat="55.7167536" lon="13.9580310" /><trkpt lat="55.7166650" lon="13.9577794"><ele>114.0</ele></trkpt><trkpt lat="55.7165076" lon="13.9572952"><ele>112.0</ele></trkpt><trkpt lat="55.7164758" lon="13.9572225" /><trkpt lat="55.7163548" lon="13.9569575"><ele>111.0</ele></trkpt><trkpt lat="55.7161276" lon="13.9565317"><ele>111.0</ele></trkpt><trkpt lat="55.7160087" lon="13.9562828"><ele>111.0</ele></trkpt><trkpt lat="55.7158589" lon="13.9560313"><ele>111.0</ele></trkpt><trkpt lat="55.7158346" lon="13.9559765" /><trkpt lat="55.7158149" lon="13.9558355" /><trkpt lat="55.7158367" lon="13.9554932"><ele>110.0</ele></trkpt><trkpt lat="55.7158458" lon="13.9554115" /><trkpt lat="55.7159126" lon="13.9549219"><ele>109.0</ele></trkpt><trkpt lat="55.7159758" lon="13.9545392"><ele>109.0</ele></trkpt><trkpt lat="55.7160310" lon="13.9541655"><ele>109.0</ele></trkpt><trkpt lat="55.7160856" lon="13.9537244"><ele>109.0</ele></trkpt><trkpt lat="55.7160988" lon="13.9535744" /><trkpt lat="55.7160957" lon="13.9534163"><ele>109.0</ele></trkpt><trkpt lat="55.7160897" lon="13.9533382" /><trkpt lat="55.7160689" lon="13.9531864" /><trkpt lat="55.7160537" lon="13.9531145"><ele>110.0</ele></trkpt><trkpt lat="55.7160148" lon="13.9529797" /><trkpt lat="55.7159915" lon="13.9529187" /><trkpt lat="55.7159627" lon="13.9528612"><ele>110.0</ele></trkpt><trkpt lat="55.7158640" lon="13.9527004" /><trkpt lat="55.7155857" lon="13.9523213"><ele>111.0</ele></trkpt><trkpt lat="55.7155148" lon="13.9522323" /><trkpt lat="55.7154430" lon="13.9521542"><ele>111.0</ele></trkpt><trkpt lat="55.7153235" lon="13.9520832" /><trkpt lat="55.7152426" lon="13.9520446"><ele>111.0</ele></trkpt><trkpt lat="55.7152036" lon="13.9520392" /><trkpt lat="55.7151196" lon="13.9520096" /><trkpt lat="55.7149956" lon="13.9519476"><ele>111.0</ele></trkpt><trkpt lat="55.7148028" lon="13.9517859"><ele>111.0</ele></trkpt><trkpt lat="55.7145549" lon="13.9515784"><ele>111.0</ele></trkpt><trkpt lat="55.7143545" lon="13.9513538"><ele>111.0</ele></trkpt><trkpt lat="55.7143206" lon="13.9513026" /><trkpt lat="55.7141718" lon="13.9510097"><ele>111.0</ele></trkpt><trkpt lat="55.7140828" lon="13.9508229" /><trkpt lat="55.7140008" lon="13.9505624"><ele>111.0</ele></trkpt><trkpt lat="55.7139537" lon="13.9504339" /><trkpt lat="55.7138758" lon="13.9502480"><ele>110.0</ele></trkpt><trkpt lat="55.7137660" lon="13.9500117"><ele>110.0</ele></trkpt><trkpt lat="55.7136820" lon="13.9498455" /><trkpt lat="55.7135878" lon="13.9496775"><ele>110.0</ele></trkpt><trkpt lat="55.7134644" lon="13.9493955"><ele>111.0</ele></trkpt><trkpt lat="55.7133247" lon="13.9490757"><ele>111.0</ele></trkpt><trkpt lat="55.7132619" lon="13.9489715" /><trkpt lat="55.7131329" lon="13.9487990"><ele>111.0</ele></trkpt><trkpt lat="55.7129846" lon="13.9486355"><ele>111.0</ele></trkpt><trkpt lat="55.7127969" lon="13.9484783"><ele>112.0</ele></trkpt><trkpt lat="55.7126435" lon="13.9483786"><ele>112.0</ele></trkpt><trkpt lat="55.7124168" lon="13.9481145"><ele>113.0</ele></trkpt><trkpt lat="55.7122139" lon="13.9478593"><ele>113.0</ele></trkpt><trkpt lat="55.7120788" lon="13.9475952"><ele>114.0</ele></trkpt><trkpt lat="55.7120555" lon="13.9475386" /><trkpt lat="55.7120459" lon="13.9474129" /><trkpt lat="55.7120550" lon="13.9473590" /><trkpt lat="55.7120737" lon="13.9472961"><ele>115.0</ele></trkpt><trkpt lat="55.7121248" lon="13.9471973" /><trkpt lat="55.7121926" lon="13.9471407" /><trkpt lat="55.7124887" lon="13.9469835"><ele>116.0</ele></trkpt><trkpt lat="55.7128166" lon="13.9467993"><ele>116.0</ele></trkpt><trkpt lat="55.7129416" lon="13.9467373" /><trkpt lat="55.7131997" lon="13.9465523"><ele>117.0</ele></trkpt><trkpt lat="55.7132377" lon="13.9465361" /><trkpt lat="55.7132756" lon="13.9465271" /><trkpt lat="55.7133788" lon="13.9465316"><ele>117.0</ele></trkpt><trkpt lat="55.7134117" lon="13.9465451" /><trkpt lat="55.7135959" lon="13.9466888"><ele>118.0</ele></trkpt><trkpt lat="55.7137619" lon="13.9467625"><ele>118.0</ele></trkpt><trkpt lat="55.7138717" lon="13.9467347" /><trkpt lat="55.7141465" lon="13.9466305"><ele>119.0</ele></trkpt><trkpt lat="55.7143520" lon="13.9465927"><ele>119.0</ele></trkpt><trkpt lat="55.7145498" lon="13.9465173"><ele>120.0</ele></trkpt><trkpt lat="55.7148459" lon="13.9464175"><ele>120.0</ele></trkpt><trkpt lat="55.7150255" lon="13.9463681"><ele>121.0</ele></trkpt><trkpt lat="55.7153519" lon="13.9462550"><ele>122.0</ele></trkpt><trkpt lat="55.7155128" lon="13.9461678"><ele>123.0</ele></trkpt><trkpt lat="55.7156717" lon="13.9460439"><ele>124.0</ele></trkpt><trkpt lat="55.7158286" lon="13.9459082"><ele>125.0</ele></trkpt><trkpt lat="55.7159880" lon="13.9457483"><ele>126.0</ele></trkpt><trkpt lat="55.7162359" lon="13.9455237"><ele>126.0</ele></trkpt><trkpt lat="55.7164297" lon="13.9453683"><ele>126.0</ele></trkpt><trkpt lat="55.7166109" lon="13.9452704"><ele>126.0</ele></trkpt><trkpt lat="55.7168628" lon="13.9452515"><ele>125.0</ele></trkpt><trkpt lat="55.7171796" lon="13.9452408"><ele>125.0</ele></trkpt><trkpt lat="55.7173527" lon="13.9452228"><ele>125.0</ele></trkpt><trkpt lat="55.7174200" lon="13.9452255" /><trkpt lat="55.7175667" lon="13.9452659"><ele>125.0</ele></trkpt><trkpt lat="55.7176507" lon="13.9453027" /><trkpt lat="55.7177615" lon="13.9453692"><ele>125.0</ele></trkpt><trkpt lat="55.7179027" lon="13.9454716"><ele>126.0</ele></trkpt><trkpt lat="55.7180226" lon="13.9456261" /><trkpt lat="55.7181739" lon="13.9458660"><ele>126.0</ele></trkpt><trkpt lat="55.7184426" lon="13.9462136"><ele>126.0</ele></trkpt><trkpt lat="55.7186065" lon="13.9464382"><ele>127.0</ele></trkpt><trkpt lat="55.7187836" lon="13.9466134"><ele>127.0</ele></trkpt><trkpt lat="55.7188160" lon="13.9466305" /><trkpt lat="55.7189708" lon="13.9466215"><ele>127.0</ele></trkpt><trkpt lat="55.7191408" lon="13.9465182"><ele>127.0</ele></trkpt><trkpt lat="55.7191717" lon="13.9464876" /><trkpt lat="55.7194859" lon="13.9462765"><ele>128.0</ele></trkpt><trkpt lat="55.7195319" lon="13.9462559" /><trkpt lat="55.7198558" lon="13.9459935"><ele>129.0</ele></trkpt><trkpt lat="55.7200278" lon="13.9458768"><ele>130.0</ele></trkpt><trkpt lat="55.7202489" lon="13.9457806"><ele>130.0</ele></trkpt><trkpt lat="55.7204518" lon="13.9457600"><ele>131.0</ele></trkpt><trkpt lat="55.7206107" lon="13.9457708"><ele>132.0</ele></trkpt><trkpt lat="55.7209375" lon="13.9457582"><ele>133.0</ele></trkpt><trkpt lat="55.7209770" lon="13.9457519" /><trkpt lat="55.7211637" lon="13.9456612"><ele>134.0</ele></trkpt><trkpt lat="55.7214298" lon="13.9455058"><ele>136.0</ele></trkpt><trkpt lat="55.7216008" lon="13.9454186"><ele>137.0</ele></trkpt><trkpt lat="55.7218027" lon="13.9453270"><ele>138.0</ele></trkpt><trkpt lat="55.7218376" lon="13.9453045" /><trkpt lat="55.7219519" lon="13.9452803"><ele>139.0</ele></trkpt><trkpt lat="55.7219909" lon="13.9452866" /><trkpt lat="55.7220799" lon="13.9453360" /><trkpt lat="55.7221690" lon="13.9454312"><ele>139.0</ele></trkpt><trkpt lat="55.7223445" lon="13.9457618"><ele>139.0</ele></trkpt><trkpt lat="55.7224098" lon="13.9460232"><ele>138.0</ele></trkpt><trkpt lat="55.7224219" lon="13.9463089"><ele>138.0</ele></trkpt><trkpt lat="55.7224179" lon="13.9465137" /><trkpt lat="55.7223936" lon="13.9467391"><ele>137.0</ele></trkpt><trkpt lat="55.7223789" lon="13.9467823" /><trkpt lat="55.7222616" lon="13.9469574"><ele>136.0</ele></trkpt><trkpt lat="55.7220066" lon="13.9472296"><ele>135.0</ele></trkpt><trkpt lat="55.7218487" lon="13.9474138"><ele>134.0</ele></trkpt><trkpt lat="55.7217065" lon="13.9476204"><ele>133.0</ele></trkpt><trkpt lat="55.7216716" lon="13.9476842" /><trkpt lat="55.7216367" lon="13.9477533" /><trkpt lat="55.7215548" lon="13.9479582"><ele>132.0</ele></trkpt><trkpt lat="55.7214718" lon="13.9482375"><ele>132.0</ele></trkpt><trkpt lat="55.7214085" lon="13.9485205"><ele>131.0</ele></trkpt><trkpt lat="55.7213635" lon="13.9490685"><ele>130.0</ele></trkpt><trkpt lat="55.7213377" lon="13.9493092" /><trkpt lat="55.7213129" lon="13.9496973"><ele>128.0</ele></trkpt><trkpt lat="55.7212568" lon="13.9500746"><ele>127.0</ele></trkpt><trkpt lat="55.7212218" lon="13.9502300" /><trkpt lat="55.7211809" lon="13.9503755"><ele>127.0</ele></trkpt><trkpt lat="55.7210812" lon="13.9506801"><ele>126.0</ele></trkpt><trkpt lat="55.7209729" lon="13.9510115"><ele>126.0</ele></trkpt><trkpt lat="55.7208606" lon="13.9513241"><ele>126.0</ele></trkpt><trkpt lat="55.7207240" lon="13.9517068"><ele>126.0</ele></trkpt><trkpt lat="55.7206977" lon="13.9517679" /><trkpt lat="55.7206157" lon="13.9519449"><ele>126.0</ele></trkpt><trkpt lat="55.7205176" lon="13.9521227" /><trkpt lat="55.7202418" lon="13.9525486"><ele>123.0</ele></trkpt><trkpt lat="55.7201877" lon="13.9526528" /><trkpt lat="55.7199306" lon="13.9534244"><ele>120.0</ele></trkpt><trkpt lat="55.7198699" lon="13.9536292" /><trkpt lat="55.7198208" lon="13.9537676"><ele>119.0</ele></trkpt><trkpt lat="55.7197267" lon="13.9540712"><ele>118.0</ele></trkpt><trkpt lat="55.7196266" lon="13.9543928"><ele>116.0</ele></trkpt><trkpt lat="55.7195208" lon="13.9547135"><ele>113.0</ele></trkpt><trkpt lat="55.7193908" lon="13.9551079"><ele>112.0</ele></trkpt><trkpt lat="55.7192962" lon="13.9554241"><ele>111.0</ele></trkpt><trkpt lat="55.7191889" lon="13.9557843"><ele>110.0</ele></trkpt><trkpt lat="55.7190806" lon="13.9560870"><ele>109.0</ele></trkpt><trkpt lat="55.7189577" lon="13.9564320"><ele>109.0</ele></trkpt><trkpt lat="55.7188448" lon="13.9567778"><ele>109.0</ele></trkpt><trkpt lat="55.7186789" lon="13.9572863"><ele>111.0</ele></trkpt><trkpt lat="55.7185817" lon="13.9576088"><ele>112.0</ele></trkpt><trkpt lat="55.7185488" lon="13.9577426" /><trkpt lat="55.7184729" lon="13.9579879"><ele>113.0</ele></trkpt><trkpt lat="55.7183687" lon="13.9582798"><ele>114.0</ele></trkpt><trkpt lat="55.7182548" lon="13.9585259"><ele>116.0</ele></trkpt><trkpt lat="55.7182376" lon="13.9586301" /><trkpt lat="55.7182786" lon="13.9586822" /><trkpt lat="55.7184537" lon="13.9587622"><ele>116.0</ele></trkpt><trkpt lat="55.7185235" lon="13.9589976" /><trkpt lat="55.7185387" lon="13.9593757"><ele>116.0</ele></trkpt><trkpt lat="55.7185468" lon="13.9597045"><ele>116.0</ele></trkpt><trkpt lat="55.7185448" lon="13.9597764" /><trkpt lat="55.7185696" lon="13.9603899"><ele>116.0</ele></trkpt><trkpt lat="55.7185529" lon="13.9606936"><ele>116.0</ele></trkpt><trkpt lat="55.7185468" lon="13.9610897"><ele>115.0</ele></trkpt><trkpt lat="55.7185498" lon="13.9615308"><ele>115.0</ele></trkpt><trkpt lat="55.7185316" lon="13.9618452"><ele>114.0</ele></trkpt><trkpt lat="55.7184749" lon="13.9623357"><ele>114.0</ele></trkpt><trkpt lat="55.7184608" lon="13.9624022" /><trkpt lat="55.7184238" lon="13.9625207" /><trkpt lat="55.7183328" lon="13.9626366"><ele>114.0</ele></trkpt><trkpt lat="55.7182670" lon="13.9626815" /><trkpt lat="55.7181607" lon="13.9628028"><ele>115.0</ele></trkpt><trkpt lat="55.7180575" lon="13.9631505"><ele>116.0</ele></trkpt><trkpt lat="55.7179229" lon="13.9633822"><ele>116.0</ele></trkpt><trkpt lat="55.7177519" lon="13.9634254"><ele>118.0</ele></trkpt><trkpt lat="55.7175687" lon="13.9634065"><ele>119.0</ele></trkpt><trkpt lat="55.7175298" lon="13.9633957" /><trkpt lat="55.7173425" lon="13.9633086"><ele>121.0</ele></trkpt><trkpt lat="55.7171786" lon="13.9631307"><ele>122.0</ele></trkpt><trkpt lat="55.7169969" lon="13.9629834"><ele>123.0</ele></trkpt><trkpt lat="55.7169448" lon="13.9630085" /><trkpt lat="55.7169266" lon="13.9630499" /><trkpt lat="55.7169028" lon="13.9632610"><ele>123.0</ele></trkpt><trkpt lat="55.7169119" lon="13.9634361" /><trkpt lat="55.7169499" lon="13.9637290"><ele>123.0</ele></trkpt><trkpt lat="55.7170177" lon="13.9639006" /><trkpt lat="55.7171558" lon="13.9641799"><ele>121.0</ele></trkpt><trkpt lat="55.7172479" lon="13.9644153"><ele>120.0</ele></trkpt><trkpt lat="55.7173016" lon="13.9647297"><ele>119.0</ele></trkpt><trkpt lat="55.7172540" lon="13.9650818"><ele>119.0</ele></trkpt><trkpt lat="55.7172378" lon="13.9654196"><ele>118.0</ele></trkpt><trkpt lat="55.7172408" lon="13.9655804" /><trkpt lat="55.7172277" lon="13.9658239"><ele>116.0</ele></trkpt><trkpt lat="55.7171857" lon="13.9660933"><ele>115.0</ele></trkpt><trkpt lat="55.7171690" lon="13.9661652" /><trkpt lat="55.7170718" lon="13.9664131"><ele>113.0</ele></trkpt><trkpt lat="55.7169757" lon="13.9667491"><ele>112.0</ele></trkpt><trkpt lat="55.7169357" lon="13.9671255"><ele>112.0</ele></trkpt><trkpt lat="55.7169195" lon="13.9672055" /><trkpt lat="55.7168639" lon="13.9673492" /><trkpt lat="55.7166969" lon="13.9676726"><ele>112.0</ele></trkpt><trkpt lat="55.7166579" lon="13.9677813" /><trkpt lat="55.7166149" lon="13.9679556"><ele>112.0</ele></trkpt><trkpt lat="55.7165506" lon="13.9682834"><ele>112.0</ele></trkpt><trkpt lat="55.7164449" lon="13.9686940"><ele>112.0</ele></trkpt><trkpt lat="55.7163579" lon="13.9689832"><ele>112.0</ele></trkpt><trkpt lat="55.7162587" lon="13.9693453"><ele>112.0</ele></trkpt><trkpt lat="55.7161868" lon="13.9695797" /><trkpt lat="55.7161560" lon="13.9696938"><ele>113.0</ele></trkpt><trkpt lat="55.7161129" lon="13.9698905" /><trkpt lat="55.7160709" lon="13.9700127"><ele>113.0</ele></trkpt><trkpt lat="55.7159976" lon="13.9701699" /><trkpt lat="55.7159910" lon="13.9702256" /><trkpt lat="55.7160269" lon="13.9703666"><ele>113.0</ele></trkpt><trkpt lat="55.7160558" lon="13.9703918" /><trkpt lat="55.7165188" lon="13.9707197"><ele>112.0</ele></trkpt><trkpt lat="55.7167809" lon="13.9708787"><ele>112.0</ele></trkpt><trkpt lat="55.7170895" lon="13.9711509"><ele>110.0</ele></trkpt><trkpt lat="55.7171568" lon="13.9712236" /><trkpt lat="55.7172216" lon="13.9713305"><ele>109.0</ele></trkpt><trkpt lat="55.7172995" lon="13.9715183" /><trkpt lat="55.7173289" lon="13.9716602"><ele>108.0</ele></trkpt><trkpt lat="55.7174437" lon="13.9720815"><ele>107.0</ele></trkpt><trkpt lat="55.7174797" lon="13.9722351" /><trkpt lat="55.7174847" lon="13.9723995"><ele>106.0</ele></trkpt><trkpt lat="55.7174797" lon="13.9724786" /><trkpt lat="55.7174650" lon="13.9725558" /><trkpt lat="55.7173709" lon="13.9728262"><ele>105.0</ele></trkpt><trkpt lat="55.7172666" lon="13.9730903"><ele>104.0</ele></trkpt><trkpt lat="55.7171776" lon="13.9733625"><ele>104.0</ele></trkpt><trkpt lat="55.7170885" lon="13.9737030"><ele>104.0</ele></trkpt><trkpt lat="55.7170389" lon="13.9740012"><ele>104.0</ele></trkpt><trkpt lat="55.7169646" lon="13.9743713"><ele>104.0</ele></trkpt><trkpt lat="55.7168608" lon="13.9748888"><ele>105.0</ele></trkpt><trkpt lat="55.7168138" lon="13.9753146"><ele>105.0</ele></trkpt><trkpt lat="55.7168077" lon="13.9754529" /><trkpt lat="55.7168077" lon="13.9755858"><ele>105.0</ele></trkpt><trkpt lat="55.7167809" lon="13.9758859"><ele>105.0</ele></trkpt><trkpt lat="55.7167637" lon="13.9761590"><ele>105.0</ele></trkpt><trkpt lat="55.7167196" lon="13.9765237"><ele>105.0</ele></trkpt><trkpt lat="55.7166787" lon="13.9767366" /><trkpt lat="55.7166316" lon="13.9769378"><ele>105.0</ele></trkpt><trkpt lat="55.7165815" lon="13.9770663" /><trkpt lat="55.7165486" lon="13.9771238" /><trkpt lat="55.7164348" lon="13.9772756"><ele>104.0</ele></trkpt><trkpt lat="55.7163108" lon="13.9774031" /><trkpt lat="55.7161570" lon="13.9775927"><ele>104.0</ele></trkpt><trkpt lat="55.7161307" lon="13.9776394" /><trkpt lat="55.7161185" lon="13.9777122" /><trkpt lat="55.7163027" lon="13.9777912"><ele>104.0</ele></trkpt><trkpt lat="55.7163776" lon="13.9778514" /><trkpt lat="55.7164079" lon="13.9778999" /><trkpt lat="55.7164307" lon="13.9779565"><ele>104.0</ele></trkpt><trkpt lat="55.7164418" lon="13.9780248" /><trkpt lat="55.7164348" lon="13.9780984" /><trkpt lat="55.7164049" lon="13.9782449"><ele>104.0</ele></trkpt><trkpt lat="55.7163508" lon="13.9784614" /><trkpt lat="55.7163219" lon="13.9785224"><ele>104.0</ele></trkpt><trkpt lat="55.7162647" lon="13.9786213" /><trkpt lat="55.7162420" lon="13.9786769" /><trkpt lat="55.7162227" lon="13.9787847"><ele>104.0</ele></trkpt><trkpt lat="55.7162258" lon="13.9788692" /><trkpt lat="55.7162217" lon="13.9789842" /><trkpt lat="55.7162126" lon="13.9790830"><ele>104.0</ele></trkpt><trkpt lat="55.7162136" lon="13.9791468" /><trkpt lat="55.7162045" lon="13.9792213" /><trkpt lat="55.7161818" lon="13.9793237" /><trkpt lat="55.7161448" lon="13.9793776"><ele>104.0</ele></trkpt><trkpt lat="55.7160310" lon="13.9794765" /><trkpt lat="55.7159429" lon="13.9795259"><ele>104.0</ele></trkpt><trkpt lat="55.7157769" lon="13.9794342"><ele>103.0</ele></trkpt><trkpt lat="55.7157026" lon="13.9793713" /><trkpt lat="55.7156656" lon="13.9793722" /><trkpt lat="55.7156267" lon="13.9793992"><ele>103.0</ele></trkpt><trkpt lat="55.7155877" lon="13.9794396" /><trkpt lat="55.7155158" lon="13.9795384" /><trkpt lat="55.7154020" lon="13.9797531"><ele>103.0</ele></trkpt><trkpt lat="55.7152395" lon="13.9800244"><ele>102.0</ele></trkpt><trkpt lat="55.7151748" lon="13.9801241" /><trkpt lat="55.7150715" lon="13.9803433"><ele>101.0</ele></trkpt><trkpt lat="55.7150169" lon="13.9804385" /><trkpt lat="55.7149400" lon="13.9805913"><ele>101.0</ele></trkpt><trkpt lat="55.7148469" lon="13.9808042" /><trkpt lat="55.7148039" lon="13.9809227"><ele>100.0</ele></trkpt><trkpt lat="55.7146849" lon="13.9811895"><ele>99.0</ele></trkpt><trkpt lat="55.7145357" lon="13.9815453"><ele>98.0</ele></trkpt><trkpt lat="55.7144537" lon="13.9817043" /><trkpt lat="55.7144188" lon="13.9818408"><ele>98.0</ele></trkpt><trkpt lat="55.7143879" lon="13.9820447" /><trkpt lat="55.7143489" lon="13.9822558"><ele>98.0</ele></trkpt><trkpt lat="55.7142690" lon="13.9825128"><ele>98.0</ele></trkpt><trkpt lat="55.7141910" lon="13.9828245"><ele>98.0</ele></trkpt><trkpt lat="55.7141116" lon="13.9831452"><ele>97.0</ele></trkpt><trkpt lat="55.7140038" lon="13.9835027"><ele>97.0</ele></trkpt><trkpt lat="55.7139957" lon="13.9835629" /><trkpt lat="55.7139988" lon="13.9836249" /><trkpt lat="55.7140068" lon="13.9836931" /><trkpt lat="55.7140519" lon="13.9839671"><ele>96.0</ele></trkpt><trkpt lat="55.7140590" lon="13.9840399" /><trkpt lat="55.7140686" lon="13.9843866"><ele>95.0</ele></trkpt><trkpt lat="55.7140327" lon="13.9845780" /><trkpt lat="55.7140205" lon="13.9846939"><ele>95.0</ele></trkpt><trkpt lat="55.7140246" lon="13.9847478" /><trkpt lat="55.7140569" lon="13.9848412" /><trkpt lat="55.7140828" lon="13.9848906" /><trkpt lat="55.7142315" lon="13.9850909"><ele>96.0</ele></trkpt><trkpt lat="55.7143388" lon="13.9852436" /><trkpt lat="55.7143646" lon="13.9852894"><ele>97.0</ele></trkpt><trkpt lat="55.7145675" lon="13.9856784"><ele>99.0</ele></trkpt><trkpt lat="55.7146197" lon="13.9858177" /><trkpt lat="55.7144937" lon="13.9861653"><ele>101.0</ele></trkpt><trkpt lat="55.7144117" lon="13.9863153" /><trkpt lat="55.7143666" lon="13.9863818"><ele>101.0</ele></trkpt><trkpt lat="55.7143545" lon="13.9864132" /><trkpt lat="55.7143418" lon="13.9864689" /><trkpt lat="55.7143196" lon="13.9865327" /><trkpt lat="55.7142837" lon="13.9866225"><ele>101.0</ele></trkpt><trkpt lat="55.7141966" lon="13.9868696"><ele>101.0</ele></trkpt><trkpt lat="55.7141227" lon="13.9871714"><ele>101.0</ele></trkpt><trkpt lat="55.7140777" lon="13.9872846" /><trkpt lat="55.7138135" lon="13.9877616"><ele>98.0</ele></trkpt><trkpt lat="55.7137068" lon="13.9879251" /><trkpt lat="55.7136238" lon="13.9881075"><ele>97.0</ele></trkpt><trkpt lat="55.7135059" lon="13.9884371"><ele>97.0</ele></trkpt><trkpt lat="55.7134740" lon="13.9885602" /><trkpt lat="55.7134669" lon="13.9886869" /><trkpt lat="55.7134937" lon="13.9889555"><ele>99.0</ele></trkpt><trkpt lat="55.7134887" lon="13.9890866" /><trkpt lat="55.7134669" lon="13.9891387" /><trkpt lat="55.7131648" lon="13.9893813"><ele>99.0</ele></trkpt><trkpt lat="55.7130858" lon="13.9894307" /><trkpt lat="55.7128136" lon="13.9894954"><ele>99.0</ele></trkpt><trkpt lat="55.7126370" lon="13.9894765"><ele>98.0</ele></trkpt><trkpt lat="55.7124998" lon="13.9895762" /><trkpt lat="55.7123237" lon="13.9896714"><ele>98.0</ele></trkpt><trkpt lat="55.7122058" lon="13.9898134" /><trkpt lat="55.7120216" lon="13.9900155"><ele>96.0</ele></trkpt><trkpt lat="55.7119356" lon="13.9902526"><ele>96.0</ele></trkpt><trkpt lat="55.7119229" lon="13.9903910" /><trkpt lat="55.7118946" lon="13.9904637" /><trkpt lat="55.7118546" lon="13.9906254"><ele>95.0</ele></trkpt><trkpt lat="55.7118298" lon="13.9909785"><ele>95.0</ele></trkpt><trkpt lat="55.7118829" lon="13.9913683"><ele>95.0</ele></trkpt><trkpt lat="55.7118617" lon="13.9917259"><ele>95.0</ele></trkpt><trkpt lat="55.7118516" lon="13.9920493"><ele>96.0</ele></trkpt><trkpt lat="55.7118657" lon="13.9922918" /><trkpt lat="55.7118526" lon="13.9925658"><ele>97.0</ele></trkpt><trkpt lat="55.7118596" lon="13.9927733" /><trkpt lat="55.7117736" lon="13.9932916"><ele>97.0</ele></trkpt><trkpt lat="55.7117706" lon="13.9933428" /><trkpt lat="55.7117579" lon="13.9934336" /><trkpt lat="55.7116167" lon="13.9939789"><ele>98.0</ele></trkpt><trkpt lat="55.7115757" lon="13.9943139"><ele>98.0</ele></trkpt><trkpt lat="55.7115165" lon="13.9944603" /><trkpt lat="55.7114588" lon="13.9945628"><ele>97.0</ele></trkpt><trkpt lat="55.7113647" lon="13.9947092" /><trkpt lat="55.7112640" lon="13.9948502"><ele>94.0</ele></trkpt><trkpt lat="55.7111916" lon="13.9949347" /><trkpt lat="55.7111167" lon="13.9950056"><ele>93.0</ele></trkpt><trkpt lat="55.7110747" lon="13.9950335" /><trkpt lat="55.7109300" lon="13.9950568"><ele>90.0</ele></trkpt><trkpt lat="55.7108318" lon="13.9950595" /><trkpt lat="55.7107488" lon="13.9950523"><ele>89.0</ele></trkpt><trkpt lat="55.7106187" lon="13.9950865" /><trkpt lat="55.7104118" lon="13.9951197"><ele>88.0</ele></trkpt><trkpt lat="55.7102969" lon="13.9951143" /><trkpt lat="55.7100398" lon="13.9952185"><ele>87.0</ele></trkpt><trkpt lat="55.7098318" lon="13.9952751"><ele>87.0</ele></trkpt><trkpt lat="55.7097306" lon="13.9953524" /><trkpt lat="55.7095519" lon="13.9955832"><ele>87.0</ele></trkpt><trkpt lat="55.7094016" lon="13.9957638"><ele>88.0</ele></trkpt><trkpt lat="55.7092548" lon="13.9959093"><ele>89.0</ele></trkpt><trkpt lat="55.7092189" lon="13.9959327" /><trkpt lat="55.7091506" lon="13.9959920" /><trkpt lat="55.7091167" lon="13.9960333"><ele>89.0</ele></trkpt><trkpt lat="55.7090498" lon="13.9961357" /><trkpt lat="55.7090048" lon="13.9962615"><ele>89.0</ele></trkpt><trkpt lat="55.7089937" lon="13.9963369" /><trkpt lat="55.7089628" lon="13.9967313"><ele>90.0</ele></trkpt><trkpt lat="55.7088975" lon="13.9970879"><ele>90.0</ele></trkpt><trkpt lat="55.7088838" lon="13.9972326" /><trkpt lat="55.7088788" lon="13.9973826"><ele>91.0</ele></trkpt><trkpt lat="55.7088950" lon="13.9975856" /><trkpt lat="55.7089218" lon="13.9978174"><ele>93.0</ele></trkpt><trkpt lat="55.7089415" lon="13.9978919" /><trkpt lat="55.7090200" lon="13.9980877"><ele>94.0</ele></trkpt><trkpt lat="55.7090746" lon="13.9981461" /><trkpt lat="55.7091379" lon="13.9981991" /><trkpt lat="55.7091718" lon="13.9982692"><ele>95.0</ele></trkpt><trkpt lat="55.7091946" lon="13.9983635" /><trkpt lat="55.7091956" lon="13.9984040" /><trkpt lat="55.7091657" lon="13.9985648"><ele>96.0</ele></trkpt><trkpt lat="55.7091116" lon="13.9986806" /><trkpt lat="55.7090919" lon="13.9987489" /><trkpt lat="55.7089527" lon="13.9989708"><ele>97.0</ele></trkpt><trkpt lat="55.7088950" lon="13.9990148" /><trkpt lat="55.7087958" lon="13.9991082"><ele>97.0</ele></trkpt><trkpt lat="55.7085118" lon="13.9992672"><ele>96.0</ele></trkpt><trkpt lat="55.7084238" lon="13.9992035" /><trkpt lat="55.7083585" lon="13.9991765"><ele>94.0</ele></trkpt><trkpt lat="55.7082947" lon="13.9991909" /><trkpt lat="55.7082340" lon="13.9992556" /><trkpt lat="55.7081920" lon="13.9993328"><ele>94.0</ele></trkpt><trkpt lat="55.7081459" lon="13.9994729" /><trkpt lat="55.7079637" lon="13.9997883"><ele>95.0</ele></trkpt><trkpt lat="55.7078838" lon="14.0000524"><ele>95.0</ele></trkpt><trkpt lat="55.7078306" lon="14.0003668"><ele>95.0</ele></trkpt><trkpt lat="55.7078266" lon="14.0004341" /><trkpt lat="55.7078665" lon="14.0007387"><ele>95.0</ele></trkpt><trkpt lat="55.7078989" lon="14.0008474" /><trkpt lat="55.7079789" lon="14.0010702"><ele>95.0</ele></trkpt><trkpt lat="55.7080958" lon="14.0013576"><ele>95.0</ele></trkpt><trkpt lat="55.7081717" lon="14.0016073"><ele>94.0</ele></trkpt><trkpt lat="55.7082466" lon="14.0018247" /><trkpt lat="55.7083539" lon="14.0020116"><ele>94.0</ele></trkpt><trkpt lat="55.7085159" lon="14.0021616"><ele>95.0</ele></trkpt><trkpt lat="55.7085599" lon="14.0022478" /><trkpt lat="55.7087259" lon="14.0024589"><ele>95.0</ele></trkpt><trkpt lat="55.7088186" lon="14.0026027" /><trkpt lat="55.7089269" lon="14.0028156"><ele>94.0</ele></trkpt><trkpt lat="55.7089618" lon="14.0029458" /><trkpt lat="55.7090306" lon="14.0031228"><ele>93.0</ele></trkpt><trkpt lat="55.7090569" lon="14.0031695" /><trkpt lat="55.7091769" lon="14.0033627"><ele>93.0</ele></trkpt><trkpt lat="55.7092406" lon="14.0034264" /><trkpt lat="55.7093145" lon="14.0035145"><ele>95.0</ele></trkpt><trkpt lat="55.7094158" lon="14.0037435"><ele>95.0</ele></trkpt><trkpt lat="55.7094426" lon="14.0037876" /><trkpt lat="55.7095939" lon="14.0039519"><ele>95.0</ele></trkpt><trkpt lat="55.7096389" lon="14.0040085" /><trkpt lat="55.7096718" lon="14.0040732" /><trkpt lat="55.7098080" lon="14.0042897"><ele>93.0</ele></trkpt><trkpt lat="55.7098156" lon="14.0043427" /><trkpt lat="55.7098247" lon="14.0044891" /><trkpt lat="55.7097837" lon="14.0048637"><ele>92.0</ele></trkpt><trkpt lat="55.7097629" lon="14.0049967" /><trkpt lat="55.7097548" lon="14.0051853"><ele>91.0</ele></trkpt><trkpt lat="55.7097705" lon="14.0057854"><ele>90.0</ele></trkpt><trkpt lat="55.7097685" lon="14.0061025"><ele>90.0</ele></trkpt><trkpt lat="55.7097736" lon="14.0064349"><ele>90.0</ele></trkpt><trkpt lat="55.7097619" lon="14.0068068"><ele>90.0</ele></trkpt><trkpt lat="55.7098060" lon="14.0069748" /><trkpt lat="55.7098728" lon="14.0070161"><ele>92.0</ele></trkpt><trkpt lat="55.7098920" lon="14.0070116" /><trkpt lat="55.7099026" lon="14.0069963" /><trkpt lat="55.7099249" lon="14.0069353" /><trkpt lat="55.7099330" lon="14.0068607" /><trkpt lat="55.7099467" lon="14.0068005"><ele>93.0</ele></trkpt><trkpt lat="55.7099456" lon="14.0067628" /><trkpt lat="55.7099548" lon="14.0067457" /><trkpt lat="55.7100337" lon="14.0066478" /><trkpt lat="55.7100539" lon="14.0066316"><ele>95.0</ele></trkpt><trkpt lat="55.7100676" lon="14.0066406" /><trkpt lat="55.7100848" lon="14.0066676" /><trkpt lat="55.7100949" lon="14.0067538" /><trkpt lat="55.7101096" lon="14.0070296"><ele>96.0</ele></trkpt><trkpt lat="55.7101268" lon="14.0071787" /><trkpt lat="55.7101607" lon="14.0073314"><ele>97.0</ele></trkpt><trkpt lat="55.7101698" lon="14.0073934" /><trkpt lat="55.7101845" lon="14.0079719"><ele>97.0</ele></trkpt><trkpt lat="55.7101400" lon="14.0081498" /><trkpt lat="55.7101147" lon="14.0082118"><ele>97.0</ele></trkpt><trkpt lat="55.7100980" lon="14.0082782" /><trkpt lat="55.7099208" lon="14.0088217"><ele>97.0</ele></trkpt><trkpt lat="55.7098545" lon="14.0089699" /><trkpt lat="55.7098146" lon="14.0091496"><ele>97.0</ele></trkpt><trkpt lat="55.7097746" lon="14.0093796" /><trkpt lat="55.7097766" lon="14.0094227"><ele>97.0</ele></trkpt><trkpt lat="55.7098399" lon="14.0094119" /><trkpt lat="55.7099477" lon="14.0092664"><ele>99.0</ele></trkpt><trkpt lat="55.7101218" lon="14.0090535"><ele>101.0</ele></trkpt><trkpt lat="55.7102468" lon="14.0089798" /><trkpt lat="55.7103298" lon="14.0089484"><ele>103.0</ele></trkpt><trkpt lat="55.7104209" lon="14.0089654" /><trkpt lat="55.7105757" lon="14.0090849"><ele>105.0</ele></trkpt><trkpt lat="55.7108698" lon="14.0092403"><ele>107.0</ele></trkpt><trkpt lat="55.7110439" lon="14.0093562"><ele>108.0</ele></trkpt><trkpt lat="55.7110347" lon="14.0094613" /><trkpt lat="55.7110206" lon="14.0095143" /><trkpt lat="55.7109077" lon="14.0097856"><ele>108.0</ele></trkpt><trkpt lat="55.7107964" lon="14.0100892"><ele>108.0</ele></trkpt><trkpt lat="55.7106668" lon="14.0104432"><ele>109.0</ele></trkpt><trkpt lat="55.7105646" lon="14.0107971"><ele>109.0</ele></trkpt><trkpt lat="55.7105408" lon="14.0108636" /><trkpt lat="55.7102245" lon="14.0116739"><ele>110.0</ele></trkpt><trkpt lat="55.7101886" lon="14.0117933" /><trkpt lat="55.7101577" lon="14.0119272"><ele>110.0</ele></trkpt><trkpt lat="55.7101177" lon="14.0122955"><ele>110.0</ele></trkpt><trkpt lat="55.7100398" lon="14.0126638"><ele>109.0</ele></trkpt><trkpt lat="55.7099720" lon="14.0129261"><ele>108.0</ele></trkpt><trkpt lat="55.7098768" lon="14.0132037"><ele>106.0</ele></trkpt><trkpt lat="55.7098459" lon="14.0132747" /><trkpt lat="55.7097058" lon="14.0135415"><ele>105.0</ele></trkpt><trkpt lat="55.7095807" lon="14.0137939"><ele>103.0</ele></trkpt><trkpt lat="55.7095337" lon="14.0139385" /><trkpt lat="55.7095150" lon="14.0140203" /><trkpt lat="55.7094659" lon="14.0143149"><ele>100.0</ele></trkpt><trkpt lat="55.7094228" lon="14.0146976"><ele>99.0</ele></trkpt><trkpt lat="55.7094026" lon="14.0151521"><ele>99.0</ele></trkpt><trkpt lat="55.7094046" lon="14.0152788" /><trkpt lat="55.7093697" lon="14.0154944"><ele>97.0</ele></trkpt><trkpt lat="55.7093039" lon="14.0157747"><ele>97.0</ele></trkpt><trkpt lat="55.7092938" lon="14.0158412" /><trkpt lat="55.7092786" lon="14.0159049" /><trkpt lat="55.7090888" lon="14.0165149"><ele>92.0</ele></trkpt><trkpt lat="55.7089906" lon="14.0169452"><ele>90.0</ele></trkpt><trkpt lat="55.7089790" lon="14.0170215" /><trkpt lat="55.7089208" lon="14.0172246"><ele>89.0</ele></trkpt><trkpt lat="55.7088950" lon="14.0172776" /><trkpt lat="55.7088616" lon="14.0173234" /><trkpt lat="55.7087077" lon="14.0174976"><ele>86.0</ele></trkpt><trkpt lat="55.7086718" lon="14.0175533" /><trkpt lat="55.7086050" lon="14.0176926" /><trkpt lat="55.7085609" lon="14.0178570"><ele>82.0</ele></trkpt><trkpt lat="55.7085336" lon="14.0181247"><ele>81.0</ele></trkpt><trkpt lat="55.7085366" lon="14.0182064" /><trkpt lat="55.7085417" lon="14.0182864" /><trkpt lat="55.7085675" lon="14.0185163"><ele>79.0</ele></trkpt><trkpt lat="55.7085989" lon="14.0187185" /><trkpt lat="55.7085979" lon="14.0187706" /><trkpt lat="55.7085787" lon="14.0187993"><ele>77.0</ele></trkpt><trkpt lat="55.7085458" lon="14.0188056" /><trkpt lat="55.7085098" lon="14.0187804" /><trkpt lat="55.7084739" lon="14.0187436" /><trkpt lat="55.7084415" lon="14.0186825"><ele>77.0</ele></trkpt><trkpt lat="55.7084157" lon="14.0186134" /><trkpt lat="55.7083519" lon="14.0184005"><ele>77.0</ele></trkpt><trkpt lat="55.7083170" lon="14.0182504" /><trkpt lat="55.7082988" lon="14.0178309"><ele>78.0</ele></trkpt><trkpt lat="55.7083625" lon="14.0174509"><ele>79.0</ele></trkpt><trkpt lat="55.7083666" lon="14.0174042" /><trkpt lat="55.7083479" lon="14.0172892" /><trkpt lat="55.7083160" lon="14.0171859"><ele>80.0</ele></trkpt><trkpt lat="55.7082618" lon="14.0170943" /><trkpt lat="55.7082077" lon="14.0170799" /><trkpt lat="55.7081788" lon="14.0170997"><ele>80.0</ele></trkpt><trkpt lat="55.7080817" lon="14.0172362" /><trkpt lat="55.7080447" lon="14.0174258"><ele>79.0</ele></trkpt><trkpt lat="55.7080027" lon="14.0174958" /><trkpt lat="55.7079146" lon="14.0177034"><ele>78.0</ele></trkpt><trkpt lat="55.7078625" lon="14.0180384"><ele>77.0</ele></trkpt><trkpt lat="55.7078008" lon="14.0182945"><ele>76.0</ele></trkpt><trkpt lat="55.7077795" lon="14.0182989" /><trkpt lat="55.7077496" lon="14.0183268" /><trkpt lat="55.7077446" lon="14.0183483" /><trkpt lat="55.7077339" lon="14.0185074"><ele>74.0</ele></trkpt><trkpt lat="55.7076049" lon="14.0188002"><ele>72.0</ele></trkpt><trkpt lat="55.7074460" lon="14.0191613"><ele>70.0</ele></trkpt><trkpt lat="55.7073250" lon="14.0193985"><ele>68.0</ele></trkpt><trkpt lat="55.7072648" lon="14.0195296" /><trkpt lat="55.7072217" lon="14.0196626"><ele>66.0</ele></trkpt><trkpt lat="55.7071939" lon="14.0198180" /><trkpt lat="55.7071899" lon="14.0198988" /><trkpt lat="55.7071899" lon="14.0202276"><ele>65.0</ele></trkpt><trkpt lat="55.7071797" lon="14.0203776" /><trkpt lat="55.7071838" lon="14.0205322"><ele>64.0</ele></trkpt><trkpt lat="55.7071899" lon="14.0206067" /><trkpt lat="55.7072015" lon="14.0206849" /><trkpt lat="55.7072390" lon="14.0209032"><ele>64.0</ele></trkpt><trkpt lat="55.7072688" lon="14.0210487" /><trkpt lat="55.7072865" lon="14.0211143" /><trkpt lat="55.7073908" lon="14.0213936"><ele>65.0</ele></trkpt><trkpt lat="55.7074070" lon="14.0214889" /><trkpt lat="55.7074085" lon="14.0215329" /><trkpt lat="55.7074637" lon="14.0217098"><ele>65.0</ele></trkpt><trkpt lat="55.7075396" lon="14.0217673" /><trkpt lat="55.7076185" lon="14.0218653"><ele>65.0</ele></trkpt><trkpt lat="55.7076616" lon="14.0221123" /><trkpt lat="55.7077066" lon="14.0224051"><ele>67.0</ele></trkpt><trkpt lat="55.7077289" lon="14.0226863"><ele>67.0</ele></trkpt><trkpt lat="55.7077527" lon="14.0228139" /><trkpt lat="55.7077916" lon="14.0229298" /><trkpt lat="55.7078306" lon="14.0230968"><ele>67.0</ele></trkpt><trkpt lat="55.7078590" lon="14.0231337" /><trkpt lat="55.7081090" lon="14.0232873"><ele>67.0</ele></trkpt><trkpt lat="55.7082249" lon="14.0233798" /><trkpt lat="55.7082775" lon="14.0234059"><ele>67.0</ele></trkpt><trkpt lat="55.7083909" lon="14.0234148" /><trkpt lat="55.7084238" lon="14.0234795"><ele>69.0</ele></trkpt><trkpt lat="55.7084466" lon="14.0237275" /><trkpt lat="55.7084749" lon="14.0238604"><ele>71.0</ele></trkpt><trkpt lat="55.7084987" lon="14.0238631" /><trkpt lat="55.7085468" lon="14.0238856" /><trkpt lat="55.7086460" lon="14.0241407"><ele>73.0</ele></trkpt><trkpt lat="55.7087006" lon="14.0242161" /><trkpt lat="55.7087700" lon="14.0242512" /><trkpt lat="55.7089689" lon="14.0243186"><ele>73.0</ele></trkpt><trkpt lat="55.7091030" lon="14.0243329" /><trkpt lat="55.7091187" lon="14.0243446" /><trkpt lat="55.7091708" lon="14.0244102"><ele>73.0</ele></trkpt><trkpt lat="55.7092999" lon="14.0245063" /><trkpt lat="55.7093287" lon="14.0245548"><ele>73.0</ele></trkpt><trkpt lat="55.7094649" lon="14.0246096" /><trkpt lat="55.7096486" lon="14.0247273"><ele>72.0</ele></trkpt><trkpt lat="55.7097685" lon="14.0247363" /><trkpt lat="55.7098758" lon="14.0247632"><ele>71.0</ele></trkpt><trkpt lat="55.7099467" lon="14.0248378" /><trkpt lat="55.7100140" lon="14.0249258"><ele>70.0</ele></trkpt><trkpt lat="55.7100706" lon="14.0250327" /><trkpt lat="55.7101157" lon="14.0251297"><ele>70.0</ele></trkpt><trkpt lat="55.7101415" lon="14.0251639" /><trkpt lat="55.7102999" lon="14.0252833"><ele>70.0</ele></trkpt><trkpt lat="55.7103348" lon="14.0253202" /><trkpt lat="55.7104118" lon="14.0254953"><ele>69.0</ele></trkpt><trkpt lat="55.7105165" lon="14.0256867" /><trkpt lat="55.7106557" lon="14.0259786"><ele>69.0</ele></trkpt><trkpt lat="55.7107685" lon="14.0262374"><ele>68.0</ele></trkpt><trkpt lat="55.7109057" lon="14.0264691"><ele>65.0</ele></trkpt><trkpt lat="55.7109325" lon="14.0265275" /><trkpt lat="55.7110297" lon="14.0267889"><ele>64.0</ele></trkpt><trkpt lat="55.7111729" lon="14.0271213"><ele>64.0</ele></trkpt><trkpt lat="55.7112417" lon="14.0274752"><ele>64.0</ele></trkpt><trkpt lat="55.7112630" lon="14.0278561"><ele>64.0</ele></trkpt><trkpt lat="55.7112458" lon="14.0282136"><ele>63.0</ele></trkpt><trkpt lat="55.7112326" lon="14.0282774" /><trkpt lat="55.7112028" lon="14.0286502"><ele>63.0</ele></trkpt><trkpt lat="55.7111815" lon="14.0290212"><ele>63.0</ele></trkpt><trkpt lat="55.7111739" lon="14.0291012" /><trkpt lat="55.7111638" lon="14.0291757" /><trkpt lat="55.7110307" lon="14.0298845"><ele>64.0</ele></trkpt><trkpt lat="55.7110039" lon="14.0300839" /><trkpt lat="55.7109477" lon="14.0304397"><ele>66.0</ele></trkpt><trkpt lat="55.7109310" lon="14.0305906" /><trkpt lat="55.7108576" lon="14.0311107"><ele>68.0</ele></trkpt><trkpt lat="55.7108429" lon="14.0314269"><ele>68.0</ele></trkpt><trkpt lat="55.7108389" lon="14.0320818"><ele>68.0</ele></trkpt><trkpt lat="55.7108419" lon="14.0321528" /><trkpt lat="55.7108348" lon="14.0323019" /><trkpt lat="55.7108359" lon="14.0323693"><ele>68.0</ele></trkpt><trkpt lat="55.7108647" lon="14.0326387"><ele>67.0</ele></trkpt><trkpt lat="55.7109239" lon="14.0329783"><ele>64.0</ele></trkpt><trkpt lat="55.7109629" lon="14.0332730"><ele>63.0</ele></trkpt><trkpt lat="55.7109877" lon="14.0337383"><ele>62.0</ele></trkpt><trkpt lat="55.7109806" lon="14.0338892" /><trkpt lat="55.7109659" lon="14.0340392"><ele>61.0</ele></trkpt><trkpt lat="55.7109725" lon="14.0343339"><ele>61.0</ele></trkpt><trkpt lat="55.7110449" lon="14.0346734"><ele>58.0</ele></trkpt><trkpt lat="55.7110757" lon="14.0347965" /><trkpt lat="55.7111127" lon="14.0349133" /><trkpt lat="55.7111805" lon="14.0350822"><ele>57.0</ele></trkpt><trkpt lat="55.7113227" lon="14.0353984"><ele>57.0</ele></trkpt><trkpt lat="55.7115358" lon="14.0358727"><ele>58.0</ele></trkpt><trkpt lat="55.7116375" lon="14.0361628"><ele>58.0</ele></trkpt><trkpt lat="55.7117427" lon="14.0364629"><ele>58.0</ele></trkpt><trkpt lat="55.7118839" lon="14.0367854"><ele>59.0</ele></trkpt><trkpt lat="55.7119836" lon="14.0370935"><ele>61.0</ele></trkpt><trkpt lat="55.7120186" lon="14.0372166" /><trkpt lat="55.7120940" lon="14.0374097"><ele>61.0</ele></trkpt><trkpt lat="55.7121618" lon="14.0375175" /><trkpt lat="55.7123126" lon="14.0376945"><ele>62.0</ele></trkpt><trkpt lat="55.7123860" lon="14.0377681" /><trkpt lat="55.7127549" lon="14.0380385"><ele>63.0</ele></trkpt><trkpt lat="55.7128399" lon="14.0380852" /><trkpt lat="55.7129259" lon="14.0381643"><ele>63.0</ele></trkpt><trkpt lat="55.7131116" lon="14.0384904"><ele>63.0</ele></trkpt><trkpt lat="55.7131410" lon="14.0385524" /><trkpt lat="55.7132599" lon="14.0388147"><ele>65.0</ele></trkpt><trkpt lat="55.7133368" lon="14.0390051" /><trkpt lat="55.7133880" lon="14.0391794"><ele>67.0</ele></trkpt><trkpt lat="55.7134067" lon="14.0392953" /><trkpt lat="55.7134178" lon="14.0394219" /><trkpt lat="55.7134269" lon="14.0395450"><ele>69.0</ele></trkpt><trkpt lat="55.7134229" lon="14.0395998" /><trkpt lat="55.7134446" lon="14.0399483"><ele>70.0</ele></trkpt><trkpt lat="55.7135079" lon="14.0402628"><ele>71.0</ele></trkpt><trkpt lat="55.7135398" lon="14.0403894" /><trkpt lat="55.7136486" lon="14.0406787"><ele>71.0</ele></trkpt><trkpt lat="55.7137538" lon="14.0410146"><ele>69.0</ele></trkpt><trkpt lat="55.7137877" lon="14.0411377" /><trkpt lat="55.7138348" lon="14.0414377"><ele>68.0</ele></trkpt><trkpt lat="55.7139137" lon="14.0418079"><ele>66.0</ele></trkpt><trkpt lat="55.7139537" lon="14.0421429"><ele>65.0</ele></trkpt><trkpt lat="55.7139588" lon="14.0422247" /><trkpt lat="55.7139567" lon="14.0423073" /><trkpt lat="55.7139618" lon="14.0426334"><ele>65.0</ele></trkpt><trkpt lat="55.7139785" lon="14.0427861" /><trkpt lat="55.7139876" lon="14.0435191"><ele>66.0</ele></trkpt><trkpt lat="55.7139795" lon="14.0437401" /><trkpt lat="55.7139977" lon="14.0440860"><ele>66.0</ele></trkpt><trkpt lat="55.7140058" lon="14.0442225" /><trkpt lat="55.7140569" lon="14.0445333"><ele>66.0</ele></trkpt><trkpt lat="55.7141308" lon="14.0447678" /><trkpt lat="55.7141885" lon="14.0449313"><ele>65.0</ele></trkpt><trkpt lat="55.7142437" lon="14.0451325" /><trkpt lat="55.7143039" lon="14.0453077"><ele>63.0</ele></trkpt><trkpt lat="55.7143626" lon="14.0455628"><ele>63.0</ele></trkpt><trkpt lat="55.7144446" lon="14.0458539"><ele>63.0</ele></trkpt><trkpt lat="55.7145458" lon="14.0460605"><ele>62.0</ele></trkpt><trkpt lat="55.7145746" lon="14.0461054" /><trkpt lat="55.7146748" lon="14.0463812"><ele>61.0</ele></trkpt><trkpt lat="55.7146860" lon="14.0464432" /><trkpt lat="55.7147436" lon="14.0466758"><ele>60.0</ele></trkpt><trkpt lat="55.7147517" lon="14.0467297" /><trkpt lat="55.7147968" lon="14.0468968" /><trkpt lat="55.7148175" lon="14.0469444"><ele>59.0</ele></trkpt><trkpt lat="55.7149329" lon="14.0473154"><ele>57.0</ele></trkpt><trkpt lat="55.7150058" lon="14.0476613"><ele>55.0</ele></trkpt><trkpt lat="55.7150189" lon="14.0480808"><ele>55.0</ele></trkpt><trkpt lat="55.7150306" lon="14.0482209" /><trkpt lat="55.7150715" lon="14.0485129"><ele>55.0</ele></trkpt><trkpt lat="55.7151439" lon="14.0487518"><ele>53.0</ele></trkpt><trkpt lat="55.7151859" lon="14.0488641" /><trkpt lat="55.7152795" lon="14.0490447"><ele>51.0</ele></trkpt><trkpt lat="55.7153807" lon="14.0492558"><ele>50.0</ele></trkpt><trkpt lat="55.7153959" lon="14.0493187" /><trkpt lat="55.7154308" lon="14.0495792"><ele>49.0</ele></trkpt><trkpt lat="55.7154450" lon="14.0498289" /><trkpt lat="55.7155558" lon="14.0502790"><ele>48.0</ele></trkpt><trkpt lat="55.7156145" lon="14.0506006"><ele>47.0</ele></trkpt><trkpt lat="55.7156565" lon="14.0509698"><ele>47.0</ele></trkpt><trkpt lat="55.7156808" lon="14.0513884"><ele>46.0</ele></trkpt><trkpt lat="55.7156869" lon="14.0516929"><ele>46.0</ele></trkpt><trkpt lat="55.7156768" lon="14.0520028"><ele>46.0</ele></trkpt><trkpt lat="55.7156550" lon="14.0522175" /><trkpt lat="55.7155978" lon="14.0523945"><ele>46.0</ele></trkpt><trkpt lat="55.7155680" lon="14.0525086" /><trkpt lat="55.7155907" lon="14.0531257"><ele>47.0</ele></trkpt><trkpt lat="55.7155836" lon="14.0532668" /><trkpt lat="55.7155457" lon="14.0536117"><ele>48.0</ele></trkpt><trkpt lat="55.7155366" lon="14.0539719"><ele>48.0</ele></trkpt><trkpt lat="55.7155396" lon="14.0543474"><ele>49.0</ele></trkpt><trkpt lat="55.7156049" lon="14.0547382"><ele>49.0</ele></trkpt><trkpt lat="55.7156206" lon="14.0548065" /><trkpt lat="55.7156697" lon="14.0550805"><ele>50.0</ele></trkpt><trkpt lat="55.7156818" lon="14.0553814"><ele>51.0</ele></trkpt><trkpt lat="55.7156707" lon="14.0555215" /><trkpt lat="55.7157036" lon="14.0560228"><ele>54.0</ele></trkpt><trkpt lat="55.7156985" lon="14.0562375" /><trkpt lat="55.7157046" lon="14.0562725" /><trkpt lat="55.7157208" lon="14.0562968"><ele>55.0</ele></trkpt><trkpt lat="55.7157547" lon="14.0563273" /><trkpt lat="55.7157719" lon="14.0563543" /><trkpt lat="55.7157997" lon="14.0564791" /><trkpt lat="55.7158265" lon="14.0568124"><ele>58.0</ele></trkpt><trkpt lat="55.7158346" lon="14.0568672" /><trkpt lat="55.7158599" lon="14.0571663"><ele>59.0</ele></trkpt><trkpt lat="55.7158685" lon="14.0572238" /><trkpt lat="55.7158807" lon="14.0574592"><ele>60.0</ele></trkpt><trkpt lat="55.7159060" lon="14.0576775" /><trkpt lat="55.7159186" lon="14.0577125" /><trkpt lat="55.7160148" lon="14.0577601"><ele>60.0</ele></trkpt><trkpt lat="55.7162146" lon="14.0577089"><ele>59.0</ele></trkpt><trkpt lat="55.7163847" lon="14.0576874"><ele>58.0</ele></trkpt><trkpt lat="55.7164656" lon="14.0577152" /><trkpt lat="55.7165117" lon="14.0577386" /><trkpt lat="55.7166346" lon="14.0578275"><ele>57.0</ele></trkpt><trkpt lat="55.7168876" lon="14.0580251"><ele>55.0</ele></trkpt><trkpt lat="55.7169777" lon="14.0580647" /><trkpt lat="55.7170658" lon="14.0580584"><ele>53.0</ele></trkpt><trkpt lat="55.7173825" lon="14.0579623"><ele>49.0</ele></trkpt><trkpt lat="55.7174296" lon="14.0579542" /><trkpt lat="55.7175667" lon="14.0579057"><ele>46.0</ele></trkpt><trkpt lat="55.7178298" lon="14.0577754"><ele>41.0</ele></trkpt><trkpt lat="55.7178769" lon="14.0577637" /><trkpt lat="55.7179179" lon="14.0577673" /><trkpt lat="55.7179578" lon="14.0577988" /><trkpt lat="55.7180287" lon="14.0578715"><ele>39.0</ele></trkpt><trkpt lat="55.7180919" lon="14.0579802" /><trkpt lat="55.7181157" lon="14.0580557" /><trkpt lat="55.7181329" lon="14.0581347"><ele>39.0</ele></trkpt><trkpt lat="55.7181547" lon="14.0582955" /><trkpt lat="55.7181668" lon="14.0586063"><ele>41.0</ele></trkpt><trkpt lat="55.7182376" lon="14.0592379"><ele>44.0</ele></trkpt><trkpt lat="55.7182680" lon="14.0594436" /><trkpt lat="55.7183176" lon="14.0595307"><ele>44.0</ele></trkpt><trkpt lat="55.7184188" lon="14.0596313" /><trkpt lat="55.7185326" lon="14.0597265"><ele>44.0</ele></trkpt><trkpt lat="55.7186379" lon="14.0598263" /><trkpt lat="55.7187047" lon="14.0599035"><ele>44.0</ele></trkpt><trkpt lat="55.7187588" lon="14.0600005" /><trkpt lat="55.7189035" lon="14.0602134"><ele>45.0</ele></trkpt><trkpt lat="55.7191378" lon="14.0604039"><ele>45.0</ele></trkpt><trkpt lat="55.7192698" lon="14.0605189" /><trkpt lat="55.7193255" lon="14.0606024"><ele>45.0</ele></trkpt><trkpt lat="55.7193817" lon="14.0607021" /><trkpt lat="55.7194490" lon="14.0608063"><ele>46.0</ele></trkpt><trkpt lat="55.7194758" lon="14.0608701" /><trkpt lat="55.7195770" lon="14.0611495"><ele>47.0</ele></trkpt><trkpt lat="55.7196837" lon="14.0615268"><ele>48.0</ele></trkpt><trkpt lat="55.7197237" lon="14.0616373" /><trkpt lat="55.7197657" lon="14.0618385"><ele>48.0</ele></trkpt><trkpt lat="55.7197890" lon="14.0619795" /><trkpt lat="55.7198300" lon="14.0623541"><ele>48.0</ele></trkpt><trkpt lat="55.7198507" lon="14.0625661" /><trkpt lat="55.7198740" lon="14.0629174"><ele>48.0</ele></trkpt><trkpt lat="55.7198826" lon="14.0631464" /><trkpt lat="55.7199160" lon="14.0634447"><ele>48.0</ele></trkpt><trkpt lat="55.7199139" lon="14.0636657" /><trkpt lat="55.7199347" lon="14.0640133"><ele>48.0</ele></trkpt><trkpt lat="55.7199256" lon="14.0645433"><ele>48.0</ele></trkpt><trkpt lat="55.7199327" lon="14.0646745" /><trkpt lat="55.7199706" lon="14.0649116"><ele>48.0</ele></trkpt><trkpt lat="55.7199868" lon="14.0649736" /><trkpt lat="55.7202049" lon="14.0655072"><ele>48.0</ele></trkpt><trkpt lat="55.7203025" lon="14.0657605"><ele>48.0</ele></trkpt><trkpt lat="55.7203177" lon="14.0658108" /><trkpt lat="55.7204098" lon="14.0660489"><ele>48.0</ele></trkpt><trkpt lat="55.7205201" lon="14.0663588"><ele>47.0</ele></trkpt><trkpt lat="55.7206516" lon="14.0667289"><ele>47.0</ele></trkpt><trkpt lat="55.7208135" lon="14.0671350"><ele>49.0</ele></trkpt><trkpt lat="55.7209426" lon="14.0673173"><ele>50.0</ele></trkpt><trkpt lat="55.7211029" lon="14.0672984"><ele>52.0</ele></trkpt><trkpt lat="55.7212320" lon="14.0672643" /><trkpt lat="55.7212689" lon="14.0672428"><ele>53.0</ele></trkpt><trkpt lat="55.7213559" lon="14.0672275" /><trkpt lat="55.7214207" lon="14.0671772"><ele>54.0</ele></trkpt><trkpt lat="55.7214586" lon="14.0670963" /><trkpt lat="55.7215006" lon="14.0670433" /><trkpt lat="55.7215198" lon="14.0669822" /><trkpt lat="55.7215229" lon="14.0669265"><ele>55.0</ele></trkpt><trkpt lat="55.7215396" lon="14.0667819" /><trkpt lat="55.7215826" lon="14.0666229"><ele>55.0</ele></trkpt><trkpt lat="55.7216140" lon="14.0665286" /><trkpt lat="55.7216205" lon="14.0664927" /><trkpt lat="55.7216468" lon="14.0662905"><ele>54.0</ele></trkpt><trkpt lat="55.7218077" lon="14.0659627"><ele>53.0</ele></trkpt><trkpt lat="55.7218270" lon="14.0659285" /><trkpt lat="55.7219069" lon="14.0658198" /><trkpt lat="55.7220728" lon="14.0654659"><ele>50.0</ele></trkpt><trkpt lat="55.7220926" lon="14.0654021" /><trkpt lat="55.7221239" lon="14.0652665" /><trkpt lat="55.7221467" lon="14.0650904"><ele>47.0</ele></trkpt><trkpt lat="55.7222358" lon="14.0645577"><ele>43.0</ele></trkpt><trkpt lat="55.7223359" lon="14.0644445" /><trkpt lat="55.7224639" lon="14.0642118"><ele>41.0</ele></trkpt><trkpt lat="55.7225798" lon="14.0639414"><ele>40.0</ele></trkpt><trkpt lat="55.7226127" lon="14.0639001" /><trkpt lat="55.7226855" lon="14.0638372" /><trkpt lat="55.7228039" lon="14.0637717"><ele>39.0</ele></trkpt><trkpt lat="55.7229936" lon="14.0636989"><ele>39.0</ele></trkpt><trkpt lat="55.7230326" lon="14.0637016" /><trkpt lat="55.7231368" lon="14.0636693" /><trkpt lat="55.7231565" lon="14.0636333"><ele>39.0</ele></trkpt><trkpt lat="55.7231687" lon="14.0634815" /><trkpt lat="55.7231697" lon="14.0634034" /><trkpt lat="55.7231105" lon="14.0631204"><ele>39.0</ele></trkpt><trkpt lat="55.7230149" lon="14.0629704" /><trkpt lat="55.7229709" lon="14.0628823"><ele>37.0</ele></trkpt><trkpt lat="55.7228545" lon="14.0626110"><ele>36.0</ele></trkpt><trkpt lat="55.7227356" lon="14.0623326"><ele>35.0</ele></trkpt><trkpt lat="55.7227715" lon="14.0620712" /><trkpt lat="55.7228469" lon="14.0617127"><ele>34.0</ele></trkpt><trkpt lat="55.7228879" lon="14.0615726" /><trkpt lat="55.7229218" lon="14.0610138"><ele>34.0</ele></trkpt><trkpt lat="55.7229076" lon="14.0609483" /><trkpt lat="55.7228849" lon="14.0606590"><ele>35.0</ele></trkpt><trkpt lat="55.7228186" lon="14.0604488" /><trkpt lat="55.7227705" lon="14.0603886"><ele>36.0</ele></trkpt><trkpt lat="55.7227680" lon="14.0603015" /><trkpt lat="55.7228090" lon="14.0597355"><ele>37.0</ele></trkpt><trkpt lat="55.7227948" lon="14.0596807" /><trkpt lat="55.7227746" lon="14.0596421" /><trkpt lat="55.7226820" lon="14.0595747"><ele>37.0</ele></trkpt><trkpt lat="55.7225100" lon="14.0593457"><ele>37.0</ele></trkpt><trkpt lat="55.7223577" lon="14.0590816"><ele>37.0</ele></trkpt><trkpt lat="55.7221877" lon="14.0587195"><ele>37.0</ele></trkpt><trkpt lat="55.7221396" lon="14.0585803" /><trkpt lat="55.7220577" lon="14.0582937"><ele>38.0</ele></trkpt><trkpt lat="55.7220157" lon="14.0580862" /><trkpt lat="55.7219408" lon="14.0578042"><ele>39.0</ele></trkpt><trkpt lat="55.7218406" lon="14.0575077"><ele>39.0</ele></trkpt><trkpt lat="55.7216387" lon="14.0569786"><ele>39.0</ele></trkpt><trkpt lat="55.7215669" lon="14.0566705"><ele>39.0</ele></trkpt><trkpt lat="55.7215279" lon="14.0565609" /><trkpt lat="55.7213888" lon="14.0562204"><ele>40.0</ele></trkpt><trkpt lat="55.7212836" lon="14.0559357"><ele>42.0</ele></trkpt><trkpt lat="55.7211758" lon="14.0556446"><ele>43.0</ele></trkpt><trkpt lat="55.7210776" lon="14.0554227"><ele>44.0</ele></trkpt><trkpt lat="55.7209906" lon="14.0552655" /><trkpt lat="55.7208859" lon="14.0549942"><ele>45.0</ele></trkpt><trkpt lat="55.7207999" lon="14.0546133"><ele>47.0</ele></trkpt><trkpt lat="55.7207457" lon="14.0543447"><ele>47.0</ele></trkpt><trkpt lat="55.7206218" lon="14.0539764"><ele>47.0</ele></trkpt><trkpt lat="55.7205687" lon="14.0536063"><ele>47.0</ele></trkpt><trkpt lat="55.7205196" lon="14.0533557" /><trkpt lat="55.7205059" lon="14.0531221"><ele>48.0</ele></trkpt><trkpt lat="55.7204796" lon="14.0528967" /><trkpt lat="55.7204700" lon="14.0527745"><ele>49.0</ele></trkpt><trkpt lat="55.7204579" lon="14.0527170" /><trkpt lat="55.7204260" lon="14.0524682"><ele>50.0</ele></trkpt><trkpt lat="55.7203956" lon="14.0522741" /><trkpt lat="55.7203916" lon="14.0521672"><ele>50.0</ele></trkpt><trkpt lat="55.7203936" lon="14.0519777" /><trkpt lat="55.7204017" lon="14.0517756"><ele>54.0</ele></trkpt><trkpt lat="55.7203688" lon="14.0513282"><ele>54.0</ele></trkpt><trkpt lat="55.7203895" lon="14.0512420" /><trkpt lat="55.7204108" lon="14.0512096" /><trkpt lat="55.7204508" lon="14.0510749"><ele>57.0</ele></trkpt><trkpt lat="55.7204857" lon="14.0507659"><ele>59.0</ele></trkpt><trkpt lat="55.7204826" lon="14.0506643" /><trkpt lat="55.7204457" lon="14.0503257"><ele>60.0</ele></trkpt><trkpt lat="55.7204295" lon="14.0500858" /><trkpt lat="55.7204558" lon="14.0499268"><ele>62.0</ele></trkpt><trkpt lat="55.7204690" lon="14.0497552" /><trkpt lat="55.7204538" lon="14.0495217"><ele>63.0</ele></trkpt><trkpt lat="55.7204498" lon="14.0492432"><ele>64.0</ele></trkpt><trkpt lat="55.7204305" lon="14.0489234"><ele>64.0</ele></trkpt><trkpt lat="55.7204260" lon="14.0485829"><ele>65.0</ele></trkpt><trkpt lat="55.7204346" lon="14.0483368" /><trkpt lat="55.7204336" lon="14.0482560"><ele>66.0</ele></trkpt><trkpt lat="55.7204179" lon="14.0479649"><ele>68.0</ele></trkpt><trkpt lat="55.7204528" lon="14.0477565" /><trkpt lat="55.7204609" lon="14.0476487"><ele>68.0</ele></trkpt><trkpt lat="55.7204599" lon="14.0476074" /><trkpt lat="55.7204447" lon="14.0475634" /><trkpt lat="55.7203855" lon="14.0474798" /><trkpt lat="55.7202438" lon="14.0473136"><ele>68.0</ele></trkpt><trkpt lat="55.7201108" lon="14.0470935"><ele>68.0</ele></trkpt><trkpt lat="55.7200759" lon="14.0470495" /><trkpt lat="55.7200389" lon="14.0470154" /><trkpt lat="55.7199625" lon="14.0469660"><ele>65.0</ele></trkpt><trkpt lat="55.7198765" lon="14.0469372" /><trkpt lat="55.7196979" lon="14.0469049"><ele>59.0</ele></trkpt><trkpt lat="55.7196220" lon="14.0468609" /><trkpt lat="55.7194717" lon="14.0467234"><ele>56.0</ele></trkpt><trkpt lat="55.7193877" lon="14.0466965" /><trkpt lat="55.7193058" lon="14.0466435"><ele>57.0</ele></trkpt><trkpt lat="55.7192319" lon="14.0464935" /><trkpt lat="55.7191135" lon="14.0461665"><ele>55.0</ele></trkpt><trkpt lat="55.7190108" lon="14.0460623" /><trkpt lat="55.7187026" lon="14.0460542"><ele>53.0</ele></trkpt><trkpt lat="55.7185620" lon="14.0460766" /><trkpt lat="55.7184947" lon="14.0460524"><ele>50.0</ele></trkpt><trkpt lat="55.7181719" lon="14.0457263"><ele>50.0</ele></trkpt><trkpt lat="55.7180206" lon="14.0455026"><ele>50.0</ele></trkpt><trkpt lat="55.7178789" lon="14.0452700"><ele>50.0</ele></trkpt><trkpt lat="55.7177979" lon="14.0451667" /><trkpt lat="55.7176310" lon="14.0450094"><ele>51.0</ele></trkpt><trkpt lat="55.7174437" lon="14.0449502"><ele>51.0</ele></trkpt><trkpt lat="55.7171907" lon="14.0449573"><ele>50.0</ele></trkpt><trkpt lat="55.7170086" lon="14.0449376"><ele>50.0</ele></trkpt><trkpt lat="55.7168846" lon="14.0448900" /><trkpt lat="55.7167449" lon="14.0448702"><ele>50.0</ele></trkpt><trkpt lat="55.7166387" lon="14.0448972" /><trkpt lat="55.7164687" lon="14.0449699"><ele>50.0</ele></trkpt><trkpt lat="55.7163887" lon="14.0449753" /><trkpt lat="55.7160998" lon="14.0448262"><ele>51.0</ele></trkpt><trkpt lat="55.7160608" lon="14.0448235" /><trkpt lat="55.7159348" lon="14.0447373"><ele>51.0</ele></trkpt><trkpt lat="55.7158559" lon="14.0445217" /><trkpt lat="55.7157967" lon="14.0442378"><ele>52.0</ele></trkpt><trkpt lat="55.7158407" lon="14.0440078" /><trkpt lat="55.7159070" lon="14.0437868"><ele>53.0</ele></trkpt><trkpt lat="55.7159586" lon="14.0435470" /><trkpt lat="55.7159308" lon="14.0432874"><ele>54.0</ele></trkpt><trkpt lat="55.7158655" lon="14.0432092" /><trkpt lat="55.7157886" lon="14.0431616"><ele>55.0</ele></trkpt><trkpt lat="55.7156626" lon="14.0430376" /><trkpt lat="55.7155118" lon="14.0430287"><ele>56.0</ele></trkpt><trkpt lat="55.7153878" lon="14.0430448" /><trkpt lat="55.7153600" lon="14.0430601"><ele>56.0</ele></trkpt><trkpt lat="55.7152087" lon="14.0432416"><ele>55.0</ele></trkpt><trkpt lat="55.7151206" lon="14.0435156"><ele>55.0</ele></trkpt><trkpt lat="55.7150589" lon="14.0437859"><ele>55.0</ele></trkpt><trkpt lat="55.7149597" lon="14.0439548" /><trkpt lat="55.7148175" lon="14.0438740"><ele>56.0</ele></trkpt><trkpt lat="55.7146556" lon="14.0436422"><ele>57.0</ele></trkpt><trkpt lat="55.7146040" lon="14.0434545" /><trkpt lat="55.7146040" lon="14.0434015" /><trkpt lat="55.7145878" lon="14.0431284"><ele>58.0</ele></trkpt><trkpt lat="55.7146237" lon="14.0429164" /><trkpt lat="55.7146768" lon="14.0426424"><ele>58.0</ele></trkpt><trkpt lat="55.7146298" lon="14.0423127"><ele>59.0</ele></trkpt><trkpt lat="55.7145817" lon="14.0419758"><ele>60.0</ele></trkpt><trkpt lat="55.7144370" lon="14.0417324"><ele>61.0</ele></trkpt><trkpt lat="55.7143196" lon="14.0414719"><ele>63.0</ele></trkpt><trkpt lat="55.7141910" lon="14.0411269"><ele>66.0</ele></trkpt><trkpt lat="55.7139866" lon="14.0405808"><ele>69.0</ele></trkpt><trkpt lat="55.7138525" lon="14.0403211"><ele>69.0</ele></trkpt><trkpt lat="55.7137806" lon="14.0401397" /><trkpt lat="55.7137427" lon="14.0400157"><ele>69.0</ele></trkpt><trkpt lat="55.7137159" lon="14.0398765" /><trkpt lat="55.7136729" lon="14.0396007"><ele>68.0</ele></trkpt><trkpt lat="55.7136147" lon="14.0392764"><ele>66.0</ele></trkpt><trkpt lat="55.7135909" lon="14.0390249" /><trkpt lat="55.7135428" lon="14.0386997"><ele>64.0</ele></trkpt><trkpt lat="55.7135079" lon="14.0384257"><ele>63.0</ele></trkpt><trkpt lat="55.7135099" lon="14.0383574" /><trkpt lat="55.7133009" lon="14.0376397"><ele>63.0</ele></trkpt><trkpt lat="55.7132397" lon="14.0373522"><ele>63.0</ele></trkpt><trkpt lat="55.7131926" lon="14.0372354" /><trkpt lat="55.7131106" lon="14.0370674"><ele>62.0</ele></trkpt><trkpt lat="55.7130646" lon="14.0369498" /><trkpt lat="55.7130398" lon="14.0369022" /><trkpt lat="55.7130216" lon="14.0368483"><ele>62.0</ele></trkpt><trkpt lat="55.7129087" lon="14.0365841"><ele>61.0</ele></trkpt><trkpt lat="55.7128040" lon="14.0363784"><ele>60.0</ele></trkpt><trkpt lat="55.7127579" lon="14.0362536" /><trkpt lat="55.7126800" lon="14.0359823"><ele>60.0</ele></trkpt><trkpt lat="55.7126299" lon="14.0357074"><ele>60.0</ele></trkpt><trkpt lat="55.7126208" lon="14.0356391" /><trkpt lat="55.7126117" lon="14.0352088"><ele>62.0</ele></trkpt><trkpt lat="55.7125980" lon="14.0349429" /><trkpt lat="55.7125778" lon="14.0347965"><ele>62.0</ele></trkpt><trkpt lat="55.7124862" lon="14.0344956"><ele>61.0</ele></trkpt><trkpt lat="55.7123915" lon="14.0341856"><ele>61.0</ele></trkpt><trkpt lat="55.7123748" lon="14.0341165" /><trkpt lat="55.7123399" lon="14.0339144"><ele>62.0</ele></trkpt><trkpt lat="55.7123126" lon="14.0334742"><ele>62.0</ele></trkpt><trkpt lat="55.7122777" lon="14.0330879"><ele>63.0</ele></trkpt><trkpt lat="55.7122286" lon="14.0325507"><ele>66.0</ele></trkpt><trkpt lat="55.7122018" lon="14.0323477" /><trkpt lat="55.7121759" lon="14.0322183"><ele>66.0</ele></trkpt><trkpt lat="55.7121405" lon="14.0321007" /><trkpt lat="55.7120768" lon="14.0319408"><ele>65.0</ele></trkpt><trkpt lat="55.7120175" lon="14.0318518" /><trkpt lat="55.7119280" lon="14.0317386"><ele>64.0</ele></trkpt><trkpt lat="55.7117858" lon="14.0316147"><ele>62.0</ele></trkpt><trkpt lat="55.7117159" lon="14.0315742" /><trkpt lat="55.7116770" lon="14.0315644" /><trkpt lat="55.7116415" lon="14.0315428" /><trkpt lat="55.7115909" lon="14.0314512"><ele>62.0</ele></trkpt><trkpt lat="55.7115489" lon="14.0313443" /><trkpt lat="55.7114720" lon="14.0311188"><ele>63.0</ele></trkpt><trkpt lat="55.7114199" lon="14.0307361"><ele>64.0</ele></trkpt><trkpt lat="55.7114118" lon="14.0306175" /><trkpt lat="55.7113379" lon="14.0302690"><ele>65.0</ele></trkpt><trkpt lat="55.7113197" lon="14.0302061" /><trkpt lat="55.7112949" lon="14.0299043"><ele>65.0</ele></trkpt><trkpt lat="55.7113349" lon="14.0296087"><ele>65.0</ele></trkpt><trkpt lat="55.7114052" lon="14.0292593"><ele>65.0</ele></trkpt><trkpt lat="55.7114917" lon="14.0288308"><ele>64.0</ele></trkpt><trkpt lat="55.7115798" lon="14.0284921"><ele>64.0</ele></trkpt><trkpt lat="55.7116218" lon="14.0283879" /><trkpt lat="55.7116770" lon="14.0281517"><ele>64.0</ele></trkpt><trkpt lat="55.7117149" lon="14.0279226" /><trkpt lat="55.7117620" lon="14.0275633"><ele>66.0</ele></trkpt><trkpt lat="55.7117579" lon="14.0273908" /><trkpt lat="55.7116719" lon="14.0269749"><ele>66.0</ele></trkpt><trkpt lat="55.7115778" lon="14.0266075"><ele>67.0</ele></trkpt><trkpt lat="55.7115110" lon="14.0263245"><ele>67.0</ele></trkpt><trkpt lat="55.7114507" lon="14.0259741"><ele>68.0</ele></trkpt><trkpt lat="55.7113966" lon="14.0254028"><ele>68.0</ele></trkpt><trkpt lat="55.7113409" lon="14.0250004"><ele>70.0</ele></trkpt><trkpt lat="55.7112847" lon="14.0246698"><ele>70.0</ele></trkpt><trkpt lat="55.7112569" lon="14.0245359" /><trkpt lat="55.7111739" lon="14.0242584"><ele>71.0</ele></trkpt><trkpt lat="55.7110509" lon="14.0239619"><ele>71.0</ele></trkpt><trkpt lat="55.7109725" lon="14.0236619"><ele>72.0</ele></trkpt><trkpt lat="55.7108475" lon="14.0234238"><ele>72.0</ele></trkpt><trkpt lat="55.7107139" lon="14.0232594"><ele>72.0</ele></trkpt><trkpt lat="55.7106167" lon="14.0231229" /><trkpt lat="55.7104948" lon="14.0229280"><ele>72.0</ele></trkpt><trkpt lat="55.7103976" lon="14.0227851" /><trkpt lat="55.7102240" lon="14.0225938"><ele>73.0</ele></trkpt><trkpt lat="55.7100550" lon="14.0224393"><ele>73.0</ele></trkpt><trkpt lat="55.7099527" lon="14.0223584" /><trkpt lat="55.7097726" lon="14.0221788"><ele>73.0</ele></trkpt><trkpt lat="55.7096648" lon="14.0220395" /><trkpt lat="55.7095838" lon="14.0219209"><ele>72.0</ele></trkpt><trkpt lat="55.7094805" lon="14.0217323" /><trkpt lat="55.7093687" lon="14.0215787"><ele>71.0</ele></trkpt><trkpt lat="55.7093019" lon="14.0214412" /><trkpt lat="55.7092660" lon="14.0213406"><ele>71.0</ele></trkpt><trkpt lat="55.7092250" lon="14.0210424"><ele>73.0</ele></trkpt><trkpt lat="55.7090979" lon="14.0204459"><ele>73.0</ele></trkpt><trkpt lat="55.7090149" lon="14.0201504"><ele>73.0</ele></trkpt><trkpt lat="55.7088798" lon="14.0198135"><ele>74.0</ele></trkpt><trkpt lat="55.7087755" lon="14.0195386"><ele>75.0</ele></trkpt><trkpt lat="55.7087259" lon="14.0194569" /><trkpt lat="55.7086748" lon="14.0193572" /><trkpt lat="55.7085468" lon="14.0191326"><ele>75.0</ele></trkpt><trkpt lat="55.7084137" lon="14.0189134"><ele>75.0</ele></trkpt><trkpt lat="55.7083959" lon="14.0188685" /><trkpt lat="55.7083499" lon="14.0186744" /><trkpt lat="55.7082907" lon="14.0183403"><ele>76.0</ele></trkpt><trkpt lat="55.7082547" lon="14.0179899"><ele>77.0</ele></trkpt><trkpt lat="55.7082537" lon="14.0179297" /><trkpt lat="55.7082826" lon="14.0176198"><ele>78.0</ele></trkpt><trkpt lat="55.7083408" lon="14.0173315"><ele>79.0</ele></trkpt><trkpt lat="55.7083175" lon="14.0171868" /><trkpt lat="55.7083129" lon="14.0170781" /><trkpt lat="55.7083185" lon="14.0170395"><ele>80.0</ele></trkpt><trkpt lat="55.7083550" lon="14.0170197" /><trkpt lat="55.7083727" lon="14.0170377" /><trkpt lat="55.7084197" lon="14.0171311" /><trkpt lat="55.7085139" lon="14.0173907"><ele>83.0</ele></trkpt><trkpt lat="55.7085498" lon="14.0174563" /><trkpt lat="55.7085675" lon="14.0174662" /><trkpt lat="55.7085827" lon="14.0174446" /><trkpt lat="55.7086298" lon="14.0172838"><ele>84.0</ele></trkpt><trkpt lat="55.7087077" lon="14.0168904"><ele>86.0</ele></trkpt><trkpt lat="55.7088039" lon="14.0165185"><ele>88.0</ele></trkpt><trkpt lat="55.7089279" lon="14.0161933"><ele>88.0</ele></trkpt><trkpt lat="55.7089517" lon="14.0161430" /><trkpt lat="55.7089967" lon="14.0160055" /><trkpt lat="55.7089916" lon="14.0159543"><ele>88.0</ele></trkpt><trkpt lat="55.7088899" lon="14.0155393"><ele>88.0</ele></trkpt><trkpt lat="55.7088666" lon="14.0153758" /><trkpt lat="55.7088408" lon="14.0151270"><ele>88.0</ele></trkpt><trkpt lat="55.7088378" lon="14.0150452" /><trkpt lat="55.7088378" lon="14.0148207"><ele>89.0</ele></trkpt><trkpt lat="55.7088327" lon="14.0146688" /><trkpt lat="55.7088378" lon="14.0143616"><ele>90.0</ele></trkpt><trkpt lat="55.7088828" lon="14.0140230"><ele>91.0</ele></trkpt><trkpt lat="55.7089198" lon="14.0138532" /><trkpt lat="55.7089269" lon="14.0138020" /><trkpt lat="55.7089380" lon="14.0134696"><ele>93.0</ele></trkpt><trkpt lat="55.7088687" lon="14.0130896"><ele>93.0</ele></trkpt><trkpt lat="55.7088388" lon="14.0128956" /><trkpt lat="55.7087816" lon="14.0124689"><ele>92.0</ele></trkpt><trkpt lat="55.7087735" lon="14.0121967"><ele>92.0</ele></trkpt><trkpt lat="55.7087776" lon="14.0119011"><ele>91.0</ele></trkpt><trkpt lat="55.7087710" lon="14.0116640" /><trkpt lat="55.7087128" lon="14.0113271"><ele>90.0</ele></trkpt><trkpt lat="55.7086779" lon="14.0111798" /><trkpt lat="55.7086277" lon="14.0110576"><ele>87.0</ele></trkpt><trkpt lat="55.7085979" lon="14.0110154" /><trkpt lat="55.7085296" lon="14.0109750" /><trkpt lat="55.7083377" lon="14.0108914"><ele>83.0</ele></trkpt><trkpt lat="55.7083018" lon="14.0108582" /><trkpt lat="55.7081636" lon="14.0106588"><ele>83.0</ele></trkpt><trkpt lat="55.7081480" lon="14.0105878" /><trkpt lat="55.7081388" lon="14.0105088" /><trkpt lat="55.7081368" lon="14.0102662"><ele>82.0</ele></trkpt><trkpt lat="55.7081485" lon="14.0099024"><ele>82.0</ele></trkpt><trkpt lat="55.7081626" lon="14.0094712"><ele>83.0</ele></trkpt><trkpt lat="55.7082289" lon="14.0089062"><ele>83.0</ele></trkpt><trkpt lat="55.7083195" lon="14.0083708"><ele>83.0</ele></trkpt><trkpt lat="55.7084228" lon="14.0078282"><ele>85.0</ele></trkpt><trkpt lat="55.7084369" lon="14.0076925" /><trkpt lat="55.7084587" lon="14.0073485"><ele>87.0</ele></trkpt><trkpt lat="55.7084607" lon="14.0072362" /><trkpt lat="55.7084547" lon="14.0069200"><ele>87.0</ele></trkpt><trkpt lat="55.7084400" lon="14.0064663"><ele>88.0</ele></trkpt><trkpt lat="55.7083686" lon="14.0060199"><ele>88.0</ele></trkpt><trkpt lat="55.7082679" lon="14.0056147"><ele>88.0</ele></trkpt><trkpt lat="55.7081100" lon="14.0050335"><ele>88.0</ele></trkpt><trkpt lat="55.7080690" lon="14.0048539" /><trkpt lat="55.7079997" lon="14.0045996"><ele>89.0</ele></trkpt><trkpt lat="55.7079263" lon="14.0042691"><ele>90.0</ele></trkpt><trkpt lat="55.7078448" lon="14.0039007"><ele>91.0</ele></trkpt><trkpt lat="55.7078048" lon="14.0036941" /><trkpt lat="55.7077456" lon="14.0034516"><ele>92.0</ele></trkpt><trkpt lat="55.7076565" lon="14.0031192"><ele>92.0</ele></trkpt><trkpt lat="55.7076018" lon="14.0027491"><ele>92.0</ele></trkpt><trkpt lat="55.7075598" lon="14.0025955" /><trkpt lat="55.7075037" lon="14.0024500"><ele>93.0</ele></trkpt><trkpt lat="55.7074399" lon="14.0023224" /><trkpt lat="55.7074105" lon="14.0022775" /><trkpt lat="55.7072956" lon="14.0020439"><ele>96.0</ele></trkpt><trkpt lat="55.7071969" lon="14.0016990"><ele>98.0</ele></trkpt><trkpt lat="55.7071398" lon="14.0013163"><ele>98.0</ele></trkpt><trkpt lat="55.7070988" lon="14.0009992"><ele>99.0</ele></trkpt><trkpt lat="55.7070815" lon="14.0007126"><ele>100.0</ele></trkpt><trkpt lat="55.7070927" lon="14.0003192"><ele>100.0</ele></trkpt><trkpt lat="55.7071357" lon="14.0000236"><ele>98.0</ele></trkpt><trkpt lat="55.7071767" lon="13.9996706"><ele>98.0</ele></trkpt><trkpt lat="55.7071878" lon="13.9993032"><ele>98.0</ele></trkpt><trkpt lat="55.7071848" lon="13.9987911"><ele>98.0</ele></trkpt><trkpt lat="55.7071180" lon="13.9984049"><ele>98.0</ele></trkpt><trkpt lat="55.7071119" lon="13.9982926" /><trkpt lat="55.7071215" lon="13.9982557" /><trkpt lat="55.7071266" lon="13.9982135" /><trkpt lat="55.7071236" lon="13.9981147"><ele>97.0</ele></trkpt><trkpt lat="55.7071387" lon="13.9980312" /><trkpt lat="55.7071726" lon="13.9979773" /><trkpt lat="55.7072000" lon="13.9978425"><ele>96.0</ele></trkpt><trkpt lat="55.7072086" lon="13.9976916" /><trkpt lat="55.7072157" lon="13.9976601" /><trkpt lat="55.7072476" lon="13.9975964"><ele>96.0</ele></trkpt><trkpt lat="55.7072840" lon="13.9974616" /><trkpt lat="55.7072840" lon="13.9974095" /><trkpt lat="55.7072779" lon="13.9973700" /><trkpt lat="55.7072526" lon="13.9972586"><ele>96.0</ele></trkpt><trkpt lat="55.7072309" lon="13.9971355" /><trkpt lat="55.7072339" lon="13.9970583" /><trkpt lat="55.7072967" lon="13.9967178"><ele>96.0</ele></trkpt><trkpt lat="55.7073376" lon="13.9965310" /><trkpt lat="55.7074237" lon="13.9962067"><ele>96.0</ele></trkpt><trkpt lat="55.7075568" lon="13.9957845"><ele>98.0</ele></trkpt><trkpt lat="55.7075857" lon="13.9956632" /><trkpt lat="55.7076459" lon="13.9953389"><ele>98.0</ele></trkpt><trkpt lat="55.7076985" lon="13.9951233" /><trkpt lat="55.7077405" lon="13.9948709"><ele>99.0</ele></trkpt><trkpt lat="55.7078058" lon="13.9946113"><ele>99.0</ele></trkpt><trkpt lat="55.7078696" lon="13.9942798"><ele>99.0</ele></trkpt><trkpt lat="55.7078868" lon="13.9942259" /><trkpt lat="55.7080407" lon="13.9938809"><ele>99.0</ele></trkpt><trkpt lat="55.7081545" lon="13.9935378"><ele>100.0</ele></trkpt><trkpt lat="55.7081976" lon="13.9932674"><ele>100.0</ele></trkpt><trkpt lat="55.7081996" lon="13.9931219" /><trkpt lat="55.7082178" lon="13.9929709"><ele>101.0</ele></trkpt><trkpt lat="55.7082876" lon="13.9927257"><ele>101.0</ele></trkpt><trkpt lat="55.7083018" lon="13.9925945" /><trkpt lat="55.7083185" lon="13.9923098"><ele>101.0</ele></trkpt><trkpt lat="55.7083175" lon="13.9921535" /><trkpt lat="55.7082988" lon="13.9917546"><ele>101.0</ele></trkpt><trkpt lat="55.7083079" lon="13.9915606" /><trkpt lat="55.7083286" lon="13.9914303"><ele>101.0</ele></trkpt><trkpt lat="55.7084106" lon="13.9910737"><ele>100.0</ele></trkpt><trkpt lat="55.7084617" lon="13.9909407" /><trkpt lat="55.7084946" lon="13.9909048" /><trkpt lat="55.7086156" lon="13.9908473"><ele>98.0</ele></trkpt><trkpt lat="55.7087067" lon="13.9908536" /><trkpt lat="55.7087988" lon="13.9908716"><ele>97.0</ele></trkpt><trkpt lat="55.7090159" lon="13.9909461"><ele>93.0</ele></trkpt><trkpt lat="55.7090696" lon="13.9909785" /><trkpt lat="55.7091020" lon="13.9910297" /><trkpt lat="55.7091328" lon="13.9910081" /><trkpt lat="55.7092088" lon="13.9908860"><ele>91.0</ele></trkpt><trkpt lat="55.7094330" lon="13.9903964"><ele>90.0</ele></trkpt><trkpt lat="55.7095686" lon="13.9901206"><ele>89.0</ele></trkpt><trkpt lat="55.7097306" lon="13.9897909"><ele>88.0</ele></trkpt><trkpt lat="55.7097827" lon="13.9896553" /><trkpt lat="55.7098945" lon="13.9893930"><ele>87.0</ele></trkpt><trkpt lat="55.7100433" lon="13.9889986"><ele>86.0</ele></trkpt><trkpt lat="55.7101921" lon="13.9886051"><ele>86.0</ele></trkpt><trkpt lat="55.7103956" lon="13.9880643"><ele>86.0</ele></trkpt><trkpt lat="55.7104887" lon="13.9879188" /><trkpt lat="55.7105155" lon="13.9878658"><ele>86.0</ele></trkpt><trkpt lat="55.7105869" lon="13.9876996" /><trkpt lat="55.7106926" lon="13.9875182"><ele>87.0</ele></trkpt><trkpt lat="55.7108526" lon="13.9874607"><ele>87.0</ele></trkpt><trkpt lat="55.7111360" lon="13.9874445"><ele>87.0</ele></trkpt><trkpt lat="55.7112539" lon="13.9874194" /><trkpt lat="55.7115307" lon="13.9873331"><ele>88.0</ele></trkpt><trkpt lat="55.7116835" lon="13.9872639"><ele>88.0</ele></trkpt><trkpt lat="55.7119578" lon="13.9872577"><ele>89.0</ele></trkpt><trkpt lat="55.7120347" lon="13.9872621" /><trkpt lat="55.7123126" lon="13.9873107"><ele>91.0</ele></trkpt><trkpt lat="55.7124669" lon="13.9872801"><ele>91.0</ele></trkpt><trkpt lat="55.7126780" lon="13.9872145"><ele>92.0</ele></trkpt><trkpt lat="55.7129199" lon="13.9872118"><ele>94.0</ele></trkpt><trkpt lat="55.7132220" lon="13.9871957"><ele>95.0</ele></trkpt><trkpt lat="55.7133480" lon="13.9870654" /><trkpt lat="55.7135408" lon="13.9866504"><ele>96.0</ele></trkpt><trkpt lat="55.7137098" lon="13.9863468"><ele>96.0</ele></trkpt><trkpt lat="55.7137928" lon="13.9861653" /><trkpt lat="55.7137887" lon="13.9861087"><ele>96.0</ele></trkpt><trkpt lat="55.7137898" lon="13.9857970"><ele>95.0</ele></trkpt><trkpt lat="55.7138125" lon="13.9854853"><ele>94.0</ele></trkpt><trkpt lat="55.7138267" lon="13.9854134" /><trkpt lat="55.7138687" lon="13.9849876"><ele>94.0</ele></trkpt><trkpt lat="55.7138808" lon="13.9847442" /><trkpt lat="55.7139218" lon="13.9846031"><ele>94.0</ele></trkpt><trkpt lat="55.7139436" lon="13.9845465" /><trkpt lat="55.7139988" lon="13.9843435"><ele>95.0</ele></trkpt><trkpt lat="55.7140316" lon="13.9840659"><ele>96.0</ele></trkpt><trkpt lat="55.7140099" lon="13.9837964"><ele>96.0</ele></trkpt><trkpt lat="55.7139927" lon="13.9834749"><ele>97.0</ele></trkpt><trkpt lat="55.7139436" lon="13.9830976"><ele>98.0</ele></trkpt><trkpt lat="55.7139537" lon="13.9827445"><ele>98.0</ele></trkpt><trkpt lat="55.7139907" lon="13.9823133"><ele>99.0</ele></trkpt><trkpt lat="55.7140286" lon="13.9819405"><ele>100.0</ele></trkpt><trkpt lat="55.7140676" lon="13.9816378"><ele>100.0</ele></trkpt><trkpt lat="55.7141197" lon="13.9813315"><ele>100.0</ele></trkpt><trkpt lat="55.7142169" lon="13.9810323"><ele>99.0</ele></trkpt><trkpt lat="55.7142609" lon="13.9809173" /><trkpt lat="55.7143520" lon="13.9806038"><ele>99.0</ele></trkpt><trkpt lat="55.7144668" lon="13.9800693"><ele>99.0</ele></trkpt><trkpt lat="55.7145640" lon="13.9798546"><ele>100.0</ele></trkpt><trkpt lat="55.7147608" lon="13.9795923"><ele>102.0</ele></trkpt><trkpt lat="55.7148949" lon="13.9794603"><ele>103.0</ele></trkpt><trkpt lat="55.7149886" lon="13.9793480" /><trkpt lat="55.7150427" lon="13.9792465"><ele>103.0</ele></trkpt><trkpt lat="55.7151616" lon="13.9789824"><ele>103.0</ele></trkpt><trkpt lat="55.7151839" lon="13.9789204" /><trkpt lat="55.7152846" lon="13.9786222"><ele>104.0</ele></trkpt><trkpt lat="55.7153529" lon="13.9783652"><ele>104.0</ele></trkpt><trkpt lat="55.7154819" lon="13.9780796"><ele>104.0</ele></trkpt><trkpt lat="55.7156439" lon="13.9778496"><ele>103.0</ele></trkpt><trkpt lat="55.7159358" lon="13.9775909"><ele>103.0</ele></trkpt><trkpt lat="55.7162587" lon="13.9772702"><ele>104.0</ele></trkpt><trkpt lat="55.7163498" lon="13.9771435" /><trkpt lat="55.7164459" lon="13.9769818"><ele>104.0</ele></trkpt><trkpt lat="55.7164899" lon="13.9768372" /><trkpt lat="55.7165496" lon="13.9766036"><ele>105.0</ele></trkpt><trkpt lat="55.7165987" lon="13.9762758"><ele>105.0</ele></trkpt><trkpt lat="55.7166346" lon="13.9758446"><ele>105.0</ele></trkpt><trkpt lat="55.7166569" lon="13.9754843"><ele>105.0</ele></trkpt><trkpt lat="55.7166559" lon="13.9752768" /><trkpt lat="55.7166938" lon="13.9749355"><ele>105.0</ele></trkpt><trkpt lat="55.7167677" lon="13.9746094"><ele>105.0</ele></trkpt><trkpt lat="55.7168887" lon="13.9742330"><ele>104.0</ele></trkpt><trkpt lat="55.7169691" lon="13.9739231"><ele>104.0</ele></trkpt><trkpt lat="55.7170516" lon="13.9736069"><ele>104.0</ele></trkpt><trkpt lat="55.7170647" lon="13.9735449" /><trkpt lat="55.7171518" lon="13.9732394"><ele>104.0</ele></trkpt><trkpt lat="55.7171978" lon="13.9731182" /><trkpt lat="55.7173056" lon="13.9728640"><ele>105.0</ele></trkpt><trkpt lat="55.7173466" lon="13.9727319" /><trkpt lat="55.7173916" lon="13.9724382"><ele>106.0</ele></trkpt><trkpt lat="55.7173608" lon="13.9721938" /><trkpt lat="55.7172449" lon="13.9717626"><ele>108.0</ele></trkpt><trkpt lat="55.7171599" lon="13.9714823"><ele>109.0</ele></trkpt><trkpt lat="55.7170536" lon="13.9712344"><ele>110.0</ele></trkpt><trkpt lat="55.7169150" lon="13.9710673"><ele>111.0</ele></trkpt><trkpt lat="55.7167399" lon="13.9708913"><ele>112.0</ele></trkpt><trkpt lat="55.7164985" lon="13.9707269"><ele>112.0</ele></trkpt><trkpt lat="55.7163928" lon="13.9706730" /><trkpt lat="55.7161858" lon="13.9705409"><ele>113.0</ele></trkpt><trkpt lat="55.7160659" lon="13.9704053" /><trkpt lat="55.7159768" lon="13.9703343"><ele>113.0</ele></trkpt><trkpt lat="55.7159535" lon="13.9702966" /><trkpt lat="55.7159379" lon="13.9702490" /><trkpt lat="55.7159298" lon="13.9701924" /><trkpt lat="55.7159556" lon="13.9700396"><ele>113.0</ele></trkpt><trkpt lat="55.7160527" lon="13.9697414"><ele>113.0</ele></trkpt><trkpt lat="55.7161529" lon="13.9694584"><ele>112.0</ele></trkpt><trkpt lat="55.7162617" lon="13.9690237"><ele>112.0</ele></trkpt><trkpt lat="55.7163978" lon="13.9685395"><ele>112.0</ele></trkpt><trkpt lat="55.7165385" lon="13.9680077"><ele>112.0</ele></trkpt><trkpt lat="55.7166336" lon="13.9677373"><ele>112.0</ele></trkpt><trkpt lat="55.7167687" lon="13.9674902"><ele>111.0</ele></trkpt><trkpt lat="55.7168219" lon="13.9673447" /><trkpt lat="55.7168386" lon="13.9672665" /><trkpt lat="55.7168598" lon="13.9671084"><ele>111.0</ele></trkpt><trkpt lat="55.7168856" lon="13.9669692" /><trkpt lat="55.7169367" lon="13.9667734"><ele>112.0</ele></trkpt><trkpt lat="55.7169767" lon="13.9666584" /><trkpt lat="55.7170627" lon="13.9664985"><ele>113.0</ele></trkpt><trkpt lat="55.7171487" lon="13.9663143" /><trkpt lat="55.7172226" lon="13.9660466"><ele>115.0</ele></trkpt><trkpt lat="55.7172398" lon="13.9659128" /><trkpt lat="55.7172459" lon="13.9656352"><ele>117.0</ele></trkpt><trkpt lat="55.7172337" lon="13.9654798" /><trkpt lat="55.7172297" lon="13.9653433"><ele>118.0</ele></trkpt><trkpt lat="55.7172687" lon="13.9651366" /><trkpt lat="55.7173066" lon="13.9647845"><ele>119.0</ele></trkpt><trkpt lat="55.7172246" lon="13.9645330"><ele>120.0</ele></trkpt><trkpt lat="55.7170789" lon="13.9642868"><ele>121.0</ele></trkpt><trkpt lat="55.7169458" lon="13.9640263"><ele>122.0</ele></trkpt><trkpt lat="55.7169048" lon="13.9638754" /><trkpt lat="55.7168740" lon="13.9637191"><ele>123.0</ele></trkpt><trkpt lat="55.7168239" lon="13.9633625"><ele>124.0</ele></trkpt><trkpt lat="55.7168067" lon="13.9631550" /><trkpt lat="55.7168198" lon="13.9631307" /><trkpt lat="55.7168416" lon="13.9631235"><ele>124.0</ele></trkpt><trkpt lat="55.7169317" lon="13.9631693" /><trkpt lat="55.7169635" lon="13.9632026" /><trkpt lat="55.7170966" lon="13.9633724"><ele>122.0</ele></trkpt><trkpt lat="55.7171857" lon="13.9635215" /><trkpt lat="55.7172889" lon="13.9635772"><ele>121.0</ele></trkpt><trkpt lat="55.7175060" lon="13.9635844"><ele>119.0</ele></trkpt><trkpt lat="55.7175480" lon="13.9635924" /><trkpt lat="55.7176967" lon="13.9635412"><ele>118.0</ele></trkpt><trkpt lat="55.7177276" lon="13.9634999" /><trkpt lat="55.7178020" lon="13.9633238"><ele>117.0</ele></trkpt><trkpt lat="55.7179280" lon="13.9629933"><ele>116.0</ele></trkpt><trkpt lat="55.7180858" lon="13.9628388"><ele>116.0</ele></trkpt><trkpt lat="55.7181258" lon="13.9628154" /><trkpt lat="55.7181987" lon="13.9627516" /><trkpt lat="55.7182316" lon="13.9627013"><ele>115.0</ele></trkpt><trkpt lat="55.7182887" lon="13.9625773" /><trkpt lat="55.7183449" lon="13.9623653"><ele>115.0</ele></trkpt><trkpt lat="55.7183996" lon="13.9620393"><ele>115.0</ele></trkpt><trkpt lat="55.7184228" lon="13.9618785" /><trkpt lat="55.7184486" lon="13.9615137"><ele>115.0</ele></trkpt><trkpt lat="55.7184537" lon="13.9610978"><ele>116.0</ele></trkpt><trkpt lat="55.7184729" lon="13.9608247"><ele>116.0</ele></trkpt><trkpt lat="55.7184628" lon="13.9607807" /><trkpt lat="55.7184476" lon="13.9607574" /><trkpt lat="55.7184147" lon="13.9607484" /><trkpt lat="55.7181425" lon="13.9607681"><ele>118.0</ele></trkpt><trkpt lat="55.7181066" lon="13.9607475" /><trkpt lat="55.7180838" lon="13.9607106" /><trkpt lat="55.7179867" lon="13.9604879"><ele>118.0</ele></trkpt><trkpt lat="55.7179599" lon="13.9604555" /><trkpt lat="55.7178936" lon="13.9604187" /><trkpt lat="55.7178536" lon="13.9604115" /><trkpt lat="55.7177276" lon="13.9604295"><ele>119.0</ele></trkpt><trkpt lat="55.7176805" lon="13.9604456" /><trkpt lat="55.7175439" lon="13.9605283"><ele>119.0</ele></trkpt><trkpt lat="55.7173557" lon="13.9605876"><ele>119.0</ele></trkpt><trkpt lat="55.7171837" lon="13.9605966"><ele>120.0</ele></trkpt></trkseg></trk></gpx>