<?xml version="1.0"?>
<gpx version="1.1" creator="GDAL 3.8.5" xmlns:xsi="http://www.w3.org/2001/XMLSchema-instance" xmlns:ogr="http://osgeo.org/gdal" xmlns="http://www.topografix.com/GPX/1/1" xsi:schemaLocation="http://www.topografix.com/GPX/1/1 http://www.topografix.com/GPX/1/1/gpx.xsd">
<metadata>
<bounds minlat="55.707744035774226" minlon="13.977473635713210" maxlat="55.734631879479984" maxlon="14.113666780874931"/>                                       
</metadata>
<trk>
  <extensions>
    <ogr:DELLED>Österlen</ogr:DELLED>
    <ogr:ETAPP>7</ogr:ETAPP>
    <ogr:ETAPPTYP>Standard</ogr:ETAPPTYP>
    <ogr:GRADERING>Röd</ogr:GRADERING>
    <ogr:ETAPPSTART>Brösarp</ogr:ETAPPSTART>
    <ogr:ETAPPSLUT>Verkasjön</ogr:ETAPPSLUT>
    <ogr:GlobalID>{AF6C46AF-3D28-445A-88E5-D8EFA6CF08F3}</ogr:GlobalID>
  </extensions>
  <trkseg>
    <trkpt lat="55.725554249092482" lon="14.100883522343594">
        <ele>0.000012564994904</ele>
    </trkpt>
    <trkpt lat="55.725596167408426" lon="14.100695055212473">
        <ele>0.000012564994904</ele>
    </trkpt>
    <trkpt lat="55.725629661022502" lon="14.100611484533692">
        <ele>0.000012564994904</ele>
    </trkpt>
    <trkpt lat="55.725711254499927" lon="14.10048791836072">
        <ele>0.000012564994904</ele>
    </trkpt>
    <trkpt lat="55.725803722618849" lon="14.100382786202019">
        <ele>0.000012564994904</ele>
    </trkpt>
    <trkpt lat="55.725945087579696" lon="14.100240119985738">
        <ele>0.000012564994904</ele>
    </trkpt>
    <trkpt lat="55.726133243846228" lon="14.100003858870096">
        <ele>0.000012564994904</ele>
    </trkpt>
    <trkpt lat="55.726276988667593" lon="14.100159364423559">
        <ele>0.000012564994904</ele>
    </trkpt>
    <trkpt lat="55.726627073613237" lon="14.10044378398652">
        <ele>0.000012564994904</ele>
    </trkpt>
    <trkpt lat="55.726823812232709" lon="14.100615984524241">
        <ele>0.000012564994904</ele>
    </trkpt>
    <trkpt lat="55.726964210863365" lon="14.100765476785242">
        <ele>0.000012564994904</ele>
    </trkpt>
    <trkpt lat="55.727188125576966" lon="14.101050654473918">
        <ele>0.000012564994904</ele>
    </trkpt>
    <trkpt lat="55.727341493551478" lon="14.101275296723506">
        <ele>0.000012564994904</ele>
    </trkpt>
    <trkpt lat="55.727734855521724" lon="14.102094710310729">
        <ele>0.000012564994904</ele>
    </trkpt>
    <trkpt lat="55.727888369335787" lon="14.102348555875698">
        <ele>0.000012564994904</ele>
    </trkpt>
    <trkpt lat="55.728240939889517" lon="14.102735583296644">
        <ele>0.000012564994904</ele>
    </trkpt>
    <trkpt lat="55.731428675457153" lon="14.105896392310065">
        <ele>0.000012564994904</ele>
    </trkpt>
    <trkpt lat="55.731766663108765" lon="14.106415726886306">
        <ele>0.000012564994904</ele>
    </trkpt>
    <trkpt lat="55.732163363501549" lon="14.107721910149797">
        <ele>0.000012564994904</ele>
    </trkpt>
    <trkpt lat="55.734128618708375" lon="14.113666780874931">
        <ele>0.000012564994904</ele>
    </trkpt>
    <trkpt lat="55.734484897936184" lon="14.113039418254946">
        <ele>0.000012564994904</ele>
    </trkpt>
    <trkpt lat="55.734531428134538" lon="14.112991788649389">
        <ele>0.000012564994904</ele>
    </trkpt>
    <trkpt lat="55.734556103448348" lon="14.112914693678253">
        <ele>0.000012564994904</ele>
    </trkpt>
    <trkpt lat="55.734606081461401" lon="14.112806092315022">
        <ele>0.000012564994904</ele>
    </trkpt>
    <trkpt lat="55.734630441975185" lon="14.112706201855838">
        <ele>0.000012564994904</ele>
    </trkpt>
    <trkpt lat="55.734631879479984" lon="14.11266287374001">
        <ele>0.000012564994904</ele>
    </trkpt>
    <trkpt lat="55.734457159989361" lon="14.111961045403742">
        <ele>0.000012564994904</ele>
    </trkpt>
    <trkpt lat="55.7344412596293" lon="14.11174125905813">
        <ele>0.000012564994904</ele>
    </trkpt>
    <trkpt lat="55.734500743302995" lon="14.111388960312517">
        <ele>0.000012564994904</ele>
    </trkpt>
    <trkpt lat="55.734268378297863" lon="14.110714797736339">
        <ele>0.000012564994904</ele>
    </trkpt>
    <trkpt lat="55.73427339681254" lon="14.110465173740016">
        <ele>0.000012564994904</ele>
    </trkpt>
    <trkpt lat="55.734255063606874" lon="14.11012684067642">
        <ele>0.000012564994904</ele>
    </trkpt>
    <trkpt lat="55.734143686626048" lon="14.109657544322452">
        <ele>0.000012564994904</ele>
    </trkpt>
    <trkpt lat="55.734108397184038" lon="14.109558506140308">
        <ele>0.000012564994904</ele>
    </trkpt>
    <trkpt lat="55.734035063895206" lon="14.109435173712431">
        <ele>0.000012564994904</ele>
    </trkpt>
    <trkpt lat="55.734040064025834" lon="14.109265172193574">
        <ele>0.000012564994904</ele>
    </trkpt>
    <trkpt lat="55.734061730756196" lon="14.109091838443696">
        <ele>0.000012564994904</ele>
    </trkpt>
    <trkpt lat="55.734105064514658" lon="14.108936837970035">
        <ele>0.000012564994904</ele>
    </trkpt>
    <trkpt lat="55.734146730984968" lon="14.108773504711023">
        <ele>0.000012564994904</ele>
    </trkpt>
    <trkpt lat="55.7341783975886" lon="14.108605172245133">
        <ele>0.000012564994904</ele>
    </trkpt>
    <trkpt lat="55.734180064456623" lon="14.108445172315031">
        <ele>0.000012564994904</ele>
    </trkpt>
    <trkpt lat="55.734221730971107" lon="14.108291839424785">
        <ele>0.000012564994904</ele>
    </trkpt>
    <trkpt lat="55.734199655794441" lon="14.108224129012219">
        <ele>0.000012564994904</ele>
    </trkpt>
    <trkpt lat="55.734172777551457" lon="14.108141666528324">
        <ele>0.000012564994904</ele>
    </trkpt>
    <trkpt lat="55.73415029228309" lon="14.108066617621606">
        <ele>0.000012564994904</ele>
    </trkpt>
    <trkpt lat="55.734140064569175" lon="14.107916839289279">
        <ele>0.000012564994904</ele>
    </trkpt>
    <trkpt lat="55.734065064392318" lon="14.107803506019046">
        <ele>0.000012564994904</ele>
    </trkpt>
    <trkpt lat="55.733988397673123" lon="14.107691838775352">
        <ele>0.000012564994904</ele>
    </trkpt>
    <trkpt lat="55.733935064137334" lon="14.107548507075215">
        <ele>0.000012564994904</ele>
    </trkpt>
    <trkpt lat="55.733883396846529" lon="14.107403506982482">
        <ele>0.000012564994904</ele>
    </trkpt>
    <trkpt lat="55.733853396846968" lon="14.107245173728092">
        <ele>0.000012564994904</ele>
    </trkpt>
    <trkpt lat="55.733838396629899" lon="14.107076839578308">
        <ele>0.000012564994904</ele>
    </trkpt>
    <trkpt lat="55.733826730395897" lon="14.106903506908353">
        <ele>0.000012564994904</ele>
    </trkpt>
    <trkpt lat="55.733806730402812" lon="14.106746839415896">
        <ele>0.000012564994904</ele>
    </trkpt>
    <trkpt lat="55.733793396755281" lon="14.106586839530271">
        <ele>0.000012564994904</ele>
    </trkpt>
    <trkpt lat="55.733711730623448" lon="14.106473507590184">
        <ele>0.000012564994904</ele>
    </trkpt>
    <trkpt lat="55.733646730276114" lon="14.106346840162093">
        <ele>0.000012564994904</ele>
    </trkpt>
    <trkpt lat="55.733650062901049" lon="14.106173508200902">
        <ele>0.000012564994904</ele>
    </trkpt>
    <trkpt lat="55.733651730196087" lon="14.106006840775512">
        <ele>0.000012564994904</ele>
    </trkpt>
    <trkpt lat="55.733691730425825" lon="14.105836841380464">
        <ele>0.000012564994904</ele>
    </trkpt>
    <trkpt lat="55.733730063114088" lon="14.105681839993947">
        <ele>0.000012564994904</ele>
    </trkpt>
    <trkpt lat="55.733730063349995" lon="14.105513507905336">
        <ele>0.000012564994904</ele>
    </trkpt>
    <trkpt lat="55.733735062999408" lon="14.105341841368668">
        <ele>0.000012564994904</ele>
    </trkpt>
    <trkpt lat="55.73372839667023" lon="14.105168508332053">
        <ele>0.000012564994904</ele>
    </trkpt>
    <trkpt lat="55.733711729847329" lon="14.104991841684789">
        <ele>0.000012564994904</ele>
    </trkpt>
    <trkpt lat="55.733656728898545" lon="14.104838508723393">
        <ele>0.000012564994904</ele>
    </trkpt>
    <trkpt lat="55.733635062547599" lon="14.104680175479769">
        <ele>0.000012564994904</ele>
    </trkpt>
    <trkpt lat="55.733638395581544" lon="14.1045135097086">
        <ele>0.000012564994904</ele>
    </trkpt>
    <trkpt lat="55.733653395535669" lon="14.104353509034015">
        <ele>0.000012564994904</ele>
    </trkpt>
    <trkpt lat="55.733643396067272" lon="14.104193509043609">
        <ele>0.000012564994904</ele>
    </trkpt>
    <trkpt lat="55.733660063402745" lon="14.104036841410073">
        <ele>0.000012564994904</ele>
    </trkpt>
    <trkpt lat="55.733660063221151" lon="14.103871841173429">
        <ele>0.000012564994904</ele>
    </trkpt>
    <trkpt lat="55.733653397196683" lon="14.10370684079286">
        <ele>0.000012564994904</ele>
    </trkpt>
    <trkpt lat="55.733661730063957" lon="14.103523507518485">
        <ele>0.000012564994904</ele>
    </trkpt>
    <trkpt lat="55.733676730332249" lon="14.103353506857083">
        <ele>0.000012564994904</ele>
    </trkpt>
    <trkpt lat="55.733690063643827" lon="14.103168506026151">
        <ele>0.000012564994904</ele>
    </trkpt>
    <trkpt lat="55.733733397441156" lon="14.103026839416302">
        <ele>0.000012564994904</ele>
    </trkpt>
    <trkpt lat="55.733791730791168" lon="14.102896839361014">
        <ele>0.000012564994904</ele>
    </trkpt>
    <trkpt lat="55.733803397068819" lon="14.102731840070232">
        <ele>0.000012564994904</ele>
    </trkpt>
    <trkpt lat="55.733760063962308" lon="14.102578506559524">
        <ele>0.000012564994904</ele>
    </trkpt>
    <trkpt lat="55.733710063781899" lon="14.102445172487389">
        <ele>0.000012564994904</ele>
    </trkpt>
    <trkpt lat="55.733650063915469" lon="14.102320172618283">
        <ele>0.000012564994904</ele>
    </trkpt>
    <trkpt lat="55.733578397328493" lon="14.102211840734851">
        <ele>0.000012564994904</ele>
    </trkpt>
    <trkpt lat="55.733503397019973" lon="14.102121840850614">
        <ele>0.000012564994904</ele>
    </trkpt>
    <trkpt lat="55.733538397514657" lon="14.101963506608444">
        <ele>0.000012564994904</ele>
    </trkpt>
    <trkpt lat="55.733538397139391" lon="14.101795173703751">
        <ele>0.000012564994904</ele>
    </trkpt>
    <trkpt lat="55.733540063886565" lon="14.101628506507412">
        <ele>0.000012564994904</ele>
    </trkpt>
    <trkpt lat="55.733558396496839" lon="14.101468506561554">
        <ele>0.000012564994904</ele>
    </trkpt>
    <trkpt lat="55.733608396694883" lon="14.101315174582272">
        <ele>0.000012564994904</ele>
    </trkpt>
    <trkpt lat="55.733653397270963" lon="14.101168507163518">
        <ele>0.000012564994904</ele>
    </trkpt>
    <trkpt lat="55.733698397417974" lon="14.101026839958907">
        <ele>0.000012564994904</ele>
    </trkpt>
    <trkpt lat="55.733720064236955" lon="14.100865173084433">
        <ele>0.000012564994904</ele>
    </trkpt>
    <trkpt lat="55.733736731009351" lon="14.10068850626528">
        <ele>0.000012564994904</ele>
    </trkpt>
    <trkpt lat="55.733728397027249" lon="14.10051350668161">
        <ele>0.000012564994904</ele>
    </trkpt>
    <trkpt lat="55.73372673035805" lon="14.100341839870778">
        <ele>0.000012564994904</ele>
    </trkpt>
    <trkpt lat="55.733733396899297" lon="14.100161840348019">
        <ele>0.000012564994904</ele>
    </trkpt>
    <trkpt lat="55.733738397742215" lon="14.099983506654915">
        <ele>0.000012564994904</ele>
    </trkpt>
    <trkpt lat="55.733688687141345" lon="14.099830355018197">
        <ele>0.000012564994904</ele>
    </trkpt>
    <trkpt lat="55.733690440707974" lon="14.099647818690165">
        <ele>0.000012564994904</ele>
    </trkpt>
    <trkpt lat="55.733679755466383" lon="14.099496234464961">
        <ele>0.000012564994904</ele>
    </trkpt>
    <trkpt lat="55.733655680967914" lon="14.099307222057439">
        <ele>0.000012564994904</ele>
    </trkpt>
    <trkpt lat="55.73363642117193" lon="14.099156013893317">
        <ele>0.000012564994904</ele>
    </trkpt>
    <trkpt lat="55.733617477502264" lon="14.09902759880481">
        <ele>0.000012564994904</ele>
    </trkpt>
    <trkpt lat="55.733589643205782" lon="14.098876763634641">
        <ele>0.000012564994904</ele>
    </trkpt>
    <trkpt lat="55.733531693621607" lon="14.098719642541026">
        <ele>0.000012564994904</ele>
    </trkpt>
    <trkpt lat="55.733516086013687" lon="14.098522659890792">
        <ele>0.000012564994904</ele>
    </trkpt>
    <trkpt lat="55.733476235341733" lon="14.098433169272019">
        <ele>0.000012564994904</ele>
    </trkpt>
    <trkpt lat="55.733461577547473" lon="14.098304568662673">
        <ele>0.000012564994904</ele>
    </trkpt>
    <trkpt lat="55.733438241176508" lon="14.09816874390703">
        <ele>0.000012564994904</ele>
    </trkpt>
    <trkpt lat="55.73341072232386" lon="14.098040702843507">
        <ele>0.000012564994904</ele>
    </trkpt>
    <trkpt lat="55.73338706824395" lon="14.097882085665951">
        <ele>0.000012564994904</ele>
    </trkpt>
    <trkpt lat="55.733337480185234" lon="14.097709395041498">
        <ele>0.000012564994904</ele>
    </trkpt>
    <trkpt lat="55.733322822533964" lon="14.097580795146399">
        <ele>0.000012564994904</ele>
    </trkpt>
    <trkpt lat="55.733333569656082" lon="14.097428277214691">
        <ele>0.000012564994904</ele>
    </trkpt>
    <trkpt lat="55.733318276622718" lon="14.097254088831447">
        <ele>0.000012564994904</ele>
    </trkpt>
    <trkpt lat="55.733324208626051" lon="14.097063768952147">
        <ele>0.000012564994904</ele>
    </trkpt>
    <trkpt lat="55.733364224545397" lon="14.096856754410366">
        <ele>0.000012564994904</ele>
    </trkpt>
    <trkpt lat="55.733383395194409" lon="14.096688509755952">
        <ele>0.000012564994904</ele>
    </trkpt>
    <trkpt lat="55.733350062004817" lon="14.096530175969665">
        <ele>0.000012564994904</ele>
    </trkpt>
    <trkpt lat="55.733336728839348" lon="14.096368510709306">
        <ele>0.000012564994904</ele>
    </trkpt>
    <trkpt lat="55.733298395124557" lon="14.096221843426635">
        <ele>0.000012564994904</ele>
    </trkpt>
    <trkpt lat="55.733303395532474" lon="14.09605351055375">
        <ele>0.000012564994904</ele>
    </trkpt>
    <trkpt lat="55.733288395130323" lon="14.095895175903516">
        <ele>0.000012564994904</ele>
    </trkpt>
    <trkpt lat="55.733293395681166" lon="14.095728510385715">
        <ele>0.000012564994904</ele>
    </trkpt>
    <trkpt lat="55.733308395635213" lon="14.095560175575043">
        <ele>0.000012564994904</ele>
    </trkpt>
    <trkpt lat="55.733311728621054" lon="14.095385176635492">
        <ele>0.000012564994904</ele>
    </trkpt>
    <trkpt lat="55.733335062349539" lon="14.095226842537384">
        <ele>0.000012564994904</ele>
    </trkpt>
    <trkpt lat="55.733351728758805" lon="14.095066842247034">
        <ele>0.000012564994904</ele>
    </trkpt>
    <trkpt lat="55.73335506282308" lon="14.094896841949051">
        <ele>0.000012564994904</ele>
    </trkpt>
    <trkpt lat="55.73332172881738" lon="14.094735175066424">
        <ele>0.000012564994904</ele>
    </trkpt>
    <trkpt lat="55.733250062354564" lon="14.094613509455643">
        <ele>0.000012564994904</ele>
    </trkpt>
    <trkpt lat="55.73320672867716" lon="14.094471842579017">
        <ele>0.000012564994904</ele>
    </trkpt>
    <trkpt lat="55.733183395805298" lon="14.094296843516613">
        <ele>0.000012564994904</ele>
    </trkpt>
    <trkpt lat="55.733128395632605" lon="14.094170176504024">
        <ele>0.000012564994904</ele>
    </trkpt>
    <trkpt lat="55.733085061645994" lon="14.094011843388241">
        <ele>0.000012564994904</ele>
    </trkpt>
    <trkpt lat="55.733043395595146" lon="14.093866842650135">
        <ele>0.000012564994904</ele>
    </trkpt>
    <trkpt lat="55.733011728473429" lon="14.093691843483295">
        <ele>0.000012564994904</ele>
    </trkpt>
    <trkpt lat="55.732975062462508" lon="14.093531842370512">
        <ele>0.000012564994904</ele>
    </trkpt>
    <trkpt lat="55.732948395313876" lon="14.093373509657596">
        <ele>0.000012564994904</ele>
    </trkpt>
    <trkpt lat="55.732906729008022" lon="14.093220176553283">
        <ele>0.000012564994904</ele>
    </trkpt>
    <trkpt lat="55.732846728675355" lon="14.093073509849241">
        <ele>0.000012564994904</ele>
    </trkpt>
    <trkpt lat="55.732808395768323" lon="14.092925175440694">
        <ele>0.000012564994904</ele>
    </trkpt>
    <trkpt lat="55.732776728983211" lon="14.092761843078907">
        <ele>0.000012564994904</ele>
    </trkpt>
    <trkpt lat="55.732751728592596" lon="14.092586842612599">
        <ele>0.000012564994904</ele>
    </trkpt>
    <trkpt lat="55.732728395098391" lon="14.092426843185571">
        <ele>0.000012564994904</ele>
    </trkpt>
    <trkpt lat="55.732703395702721" lon="14.092265177047318">
        <ele>0.000012564994904</ele>
    </trkpt>
    <trkpt lat="55.732688395428397" lon="14.092103509945437">
        <ele>0.000012564994904</ele>
    </trkpt>
    <trkpt lat="55.732670061865612" lon="14.09194350964856">
        <ele>0.000012564994904</ele>
    </trkpt>
    <trkpt lat="55.732616728704251" lon="14.091800176926455">
        <ele>0.000012564994904</ele>
    </trkpt>
    <trkpt lat="55.732581728477228" lon="14.091648509000526">
        <ele>0.000012564994904</ele>
    </trkpt>
    <trkpt lat="55.73254839543349" lon="14.091481842820324">
        <ele>0.000012564994904</ele>
    </trkpt>
    <trkpt lat="55.732495062255012" lon="14.091346843034694">
        <ele>0.000012564994904</ele>
    </trkpt>
    <trkpt lat="55.732468395427645" lon="14.091173509346929">
        <ele>0.000012564994904</ele>
    </trkpt>
    <trkpt lat="55.732455062115015" lon="14.091013508834711">
        <ele>0.000012564994904</ele>
    </trkpt>
    <trkpt lat="55.73243672885345" lon="14.090841841873798">
        <ele>0.000012564994904</ele>
    </trkpt>
    <trkpt lat="55.732418395843112" lon="14.090666842004998">
        <ele>0.000012564994904</ele>
    </trkpt>
    <trkpt lat="55.732380062375505" lon="14.090508509196802">
        <ele>0.000012564994904</ele>
    </trkpt>
    <trkpt lat="55.732316728889572" lon="14.090385176230745">
        <ele>0.000012564994904</ele>
    </trkpt>
    <trkpt lat="55.732240061566181" lon="14.090285176135271">
        <ele>0.000012564994904</ele>
    </trkpt>
    <trkpt lat="55.732165061360071" lon="14.090170176404442">
        <ele>0.000012564994904</ele>
    </trkpt>
    <trkpt lat="55.732096728095357" lon="14.090045177398153">
        <ele>0.000012564994904</ele>
    </trkpt>
    <trkpt lat="55.73200506107213" lon="14.08997351024232">
        <ele>0.000012564994904</ele>
    </trkpt>
    <trkpt lat="55.73190839466011" lon="14.089925177785069">
        <ele>0.000012564994904</ele>
    </trkpt>
    <trkpt lat="55.731831727610682" lon="14.089826843731757">
        <ele>0.000012564994904</ele>
    </trkpt>
    <trkpt lat="55.731746728197585" lon="14.089733509975238">
        <ele>0.000012564994904</ele>
    </trkpt>
    <trkpt lat="55.731700062318943" lon="14.089591843828062">
        <ele>0.000012564994904</ele>
    </trkpt>
    <trkpt lat="55.731713395316184" lon="14.089421843526107">
        <ele>0.000012564994904</ele>
    </trkpt>
    <trkpt lat="55.73173839607022" lon="14.089265175775809">
        <ele>0.000012564994904</ele>
    </trkpt>
    <trkpt lat="55.731755062331985" lon="14.08909517560193">
        <ele>0.000012564994904</ele>
    </trkpt>
    <trkpt lat="55.731776729599055" lon="14.088926840760722">
        <ele>0.000012564994904</ele>
    </trkpt>
    <trkpt lat="55.731756730118107" lon="14.08874850752464">
        <ele>0.000012564994904</ele>
    </trkpt>
    <trkpt lat="55.731770063743284" lon="14.088578506659569">
        <ele>0.000012564994904</ele>
    </trkpt>
    <trkpt lat="55.731773396902767" lon="14.088408507816439">
        <ele>0.000012564994904</ele>
    </trkpt>
    <trkpt lat="55.731785063471015" lon="14.088243507700192">
        <ele>0.000012564994904</ele>
    </trkpt>
    <trkpt lat="55.731806730332224" lon="14.088083507163116">
        <ele>0.000012564994904</ele>
    </trkpt>
    <trkpt lat="55.731845064660099" lon="14.087923506386245">
        <ele>0.000012564994904</ele>
    </trkpt>
    <trkpt lat="55.731825064646834" lon="14.087766838709534">
        <ele>0.000012564994904</ele>
    </trkpt>
    <trkpt lat="55.731816731475632" lon="14.08758850443118">
        <ele>0.000012564994904</ele>
    </trkpt>
    <trkpt lat="55.731805064734473" lon="14.08742183788377">
        <ele>0.000012564994904</ele>
    </trkpt>
    <trkpt lat="55.731780064207861" lon="14.087251839015867">
        <ele>0.000012564994904</ele>
    </trkpt>
    <trkpt lat="55.731811731117645" lon="14.087090171350042">
        <ele>0.000012564994904</ele>
    </trkpt>
    <trkpt lat="55.73183506482679" lon="14.086925172229975">
        <ele>0.000012564994904</ele>
    </trkpt>
    <trkpt lat="55.731838397680278" lon="14.086753505639875">
        <ele>0.000012564994904</ele>
    </trkpt>
    <trkpt lat="55.731821731218609" lon="14.086585172428853">
        <ele>0.000012564994904</ele>
    </trkpt>
    <trkpt lat="55.731861731657858" lon="14.086438504646141">
        <ele>0.000012564994904</ele>
    </trkpt>
    <trkpt lat="55.731880064651477" lon="14.086266837850236">
        <ele>0.000012564994904</ele>
    </trkpt>
    <trkpt lat="55.731881731693527" lon="14.086101837725463">
        <ele>0.000012564994904</ele>
    </trkpt>
    <trkpt lat="55.731853397882034" lon="14.086051838831073">
        <ele>0.000012564994904</ele>
    </trkpt>
    <trkpt lat="55.731813397689656" lon="14.085895172820376">
        <ele>0.000012564994904</ele>
    </trkpt>
    <trkpt lat="55.731788397749654" lon="14.085733506575465">
        <ele>0.000012564994904</ele>
    </trkpt>
    <trkpt lat="55.731791730576589" lon="14.085571839093141">
        <ele>0.000012564994904</ele>
    </trkpt>
    <trkpt lat="55.7318367308444" lon="14.08540350594326">
        <ele>0.000012564994904</ele>
    </trkpt>
    <trkpt lat="55.731876731300495" lon="14.085251839743036">
        <ele>0.000012564994904</ele>
    </trkpt>
    <trkpt lat="55.731915064528174" lon="14.085101838125158">
        <ele>0.000012564994904</ele>
    </trkpt>
    <trkpt lat="55.731965064134862" lon="14.084948505781936">
        <ele>0.000012564994904</ele>
    </trkpt>
    <trkpt lat="55.732005064946314" lon="14.084760172123806">
        <ele>0.000012564994904</ele>
    </trkpt>
    <trkpt lat="55.732045064750096" lon="14.084588504843154">
        <ele>0.000012564994904</ele>
    </trkpt>
    <trkpt lat="55.732093398179217" lon="14.0844401724504">
        <ele>0.000012564994904</ele>
    </trkpt>
    <trkpt lat="55.732165064732122" lon="14.08429183810391">
        <ele>0.000012564994904</ele>
    </trkpt>
    <trkpt lat="55.732208397846648" lon="14.084136838024408">
        <ele>0.000012564994904</ele>
    </trkpt>
    <trkpt lat="55.732218397966626" lon="14.083973504441763">
        <ele>0.000012564994904</ele>
    </trkpt>
    <trkpt lat="55.732233398305574" lon="14.083801838090633">
        <ele>0.000012564994904</ele>
    </trkpt>
    <trkpt lat="55.732273397384866" lon="14.083623505910561">
        <ele>0.000012564994904</ele>
    </trkpt>
    <trkpt lat="55.732311730714379" lon="14.083460172116096">
        <ele>0.000012564994904</ele>
    </trkpt>
    <trkpt lat="55.732346730868855" lon="14.083298505403523">
        <ele>0.000012564994904</ele>
    </trkpt>
    <trkpt lat="55.73234673109399" lon="14.083128505194242">
        <ele>0.000012564994904</ele>
    </trkpt>
    <trkpt lat="55.732285063665863" lon="14.082990172679555">
        <ele>0.000012564994904</ele>
    </trkpt>
    <trkpt lat="55.732253397719539" lon="14.082830172258546">
        <ele>0.000012564994904</ele>
    </trkpt>
    <trkpt lat="55.73224506413451" lon="14.082668507016699">
        <ele>0.000012564994904</ele>
    </trkpt>
    <trkpt lat="55.732236730888218" lon="14.082488506092432">
        <ele>0.000012564994904</ele>
    </trkpt>
    <trkpt lat="55.732190063874434" lon="14.082311839437642">
        <ele>0.000012564994904</ele>
    </trkpt>
    <trkpt lat="55.732140063399264" lon="14.082163506607621">
        <ele>0.000012564994904</ele>
    </trkpt>
    <trkpt lat="55.732171729949783" lon="14.082013507660664">
        <ele>0.000012564994904</ele>
    </trkpt>
    <trkpt lat="55.732240062999473" lon="14.081883507671327">
        <ele>0.000012564994904</ele>
    </trkpt>
    <trkpt lat="55.732296729815722" lon="14.081751839851735">
        <ele>0.000012564994904</ele>
    </trkpt>
    <trkpt lat="55.732348397065898" lon="14.081616839718102">
        <ele>0.000012564994904</ele>
    </trkpt>
    <trkpt lat="55.732406730353297" lon="14.081486840743253">
        <ele>0.000012564994904</ele>
    </trkpt>
    <trkpt lat="55.732451730319625" lon="14.081320173875135">
        <ele>0.000012564994904</ele>
    </trkpt>
    <trkpt lat="55.732508396227487" lon="14.081180174249047">
        <ele>0.000012564994904</ele>
    </trkpt>
    <trkpt lat="55.732561729379462" lon="14.081050175296419">
        <ele>0.000012564994904</ele>
    </trkpt>
    <trkpt lat="55.732605063468576" lon="14.080886841258071">
        <ele>0.000012564994904</ele>
    </trkpt>
    <trkpt lat="55.732663395961723" lon="14.080743508009657">
        <ele>0.000012564994904</ele>
    </trkpt>
    <trkpt lat="55.732716729865388" lon="14.08060850749132">
        <ele>0.000012564994904</ele>
    </trkpt>
    <trkpt lat="55.732800062926493" lon="14.080538507820236">
        <ele>0.000012564994904</ele>
    </trkpt>
    <trkpt lat="55.732871729839154" lon="14.080410174915031">
        <ele>0.000012564994904</ele>
    </trkpt>
    <trkpt lat="55.732933395604135" lon="14.080265175460383">
        <ele>0.000012564994904</ele>
    </trkpt>
    <trkpt lat="55.73300506211217" lon="14.080153508779865">
        <ele>0.000012564994904</ele>
    </trkpt>
    <trkpt lat="55.73298006241972" lon="14.079996843243027">
        <ele>0.000012564994904</ele>
    </trkpt>
    <trkpt lat="55.73291839587813" lon="14.079813509272215">
        <ele>0.000012564994904</ele>
    </trkpt>
    <trkpt lat="55.732831729288478" lon="14.079748508643247">
        <ele>0.000012564994904</ele>
    </trkpt>
    <trkpt lat="55.732736728897827" lon="14.079690176270509">
        <ele>0.000012564994904</ele>
    </trkpt>
    <trkpt lat="55.732653395053255" lon="14.079593509143999">
        <ele>0.000012564994904</ele>
    </trkpt>
    <trkpt lat="55.732573394972576" lon="14.079478509288613">
        <ele>0.000012564994904</ele>
    </trkpt>
    <trkpt lat="55.73251506162962" lon="14.07932350950988">
        <ele>0.000012564994904</ele>
    </trkpt>
    <trkpt lat="55.732466728329932" lon="14.079151843540146">
        <ele>0.000012564994904</ele>
    </trkpt>
    <trkpt lat="55.732420061765332" lon="14.078995176551148">
        <ele>0.000012564994904</ele>
    </trkpt>
    <trkpt lat="55.732370061967252" lon="14.07880684234574">
        <ele>0.000012564994904</ele>
    </trkpt>
    <trkpt lat="55.732321728668907" lon="14.07862017650017">
        <ele>0.000012564994904</ele>
    </trkpt>
    <trkpt lat="55.732285062104872" lon="14.078473509977272">
        <ele>0.000012564994904</ele>
    </trkpt>
    <trkpt lat="55.732243395710732" lon="14.078306843800947">
        <ele>0.000012564994904</ele>
    </trkpt>
    <trkpt lat="55.732215061545453" lon="14.078113509940035">
        <ele>0.000012564994904</ele>
    </trkpt>
    <trkpt lat="55.732173394519293" lon="14.077950177496721">
        <ele>0.000012564994904</ele>
    </trkpt>
    <trkpt lat="55.732120061532527" lon="14.077775176906623">
        <ele>0.000012564994904</ele>
    </trkpt>
    <trkpt lat="55.732070061459396" lon="14.077591844439624">
        <ele>0.000012564994904</ele>
    </trkpt>
    <trkpt lat="55.732005061470467" lon="14.077446843315075">
        <ele>0.000012564994904</ele>
    </trkpt>
    <trkpt lat="55.731920061540954" lon="14.077353510466724">
        <ele>0.000012564994904</ele>
    </trkpt>
    <trkpt lat="55.731820061837723" lon="14.077325176063468">
        <ele>0.000012564994904</ele>
    </trkpt>
    <trkpt lat="55.731725061541638" lon="14.077398510325676">
        <ele>0.000012564994904</ele>
    </trkpt>
    <trkpt lat="55.731601728147005" lon="14.077403511614342">
        <ele>0.000012564994904</ele>
    </trkpt>
    <trkpt lat="55.731493394411295" lon="14.077438511091753">
        <ele>0.000012564994904</ele>
    </trkpt>
    <trkpt lat="55.731385061633873" lon="14.077471844657303">
        <ele>0.000012564994904</ele>
    </trkpt>
    <trkpt lat="55.731263394544889" lon="14.077513511984606">
        <ele>0.000012564994904</ele>
    </trkpt>
    <trkpt lat="55.731160061111133" lon="14.077531844394992">
        <ele>0.000012564994904</ele>
    </trkpt>
    <trkpt lat="55.731036727268346" lon="14.07757017783269">
        <ele>0.000012564994904</ele>
    </trkpt>
    <trkpt lat="55.73091172779295" lon="14.07760017894388">
        <ele>0.000012564994904</ele>
    </trkpt>
    <trkpt lat="55.730803394197189" lon="14.077630178640126">
        <ele>0.000012564994904</ele>
    </trkpt>
    <trkpt lat="55.730700061261196" lon="14.077680178794679">
        <ele>0.000012564994904</ele>
    </trkpt>
    <trkpt lat="55.730601727546073" lon="14.077696844788338">
        <ele>0.000012564994904</ele>
    </trkpt>
    <trkpt lat="55.730498394832431" lon="14.077696844617575">
        <ele>0.000012564994904</ele>
    </trkpt>
    <trkpt lat="55.730438395351463" lon="14.077733508573441">
        <ele>0.000012564994904</ele>
    </trkpt>
    <trkpt lat="55.730426728279646" lon="14.077531843336905">
        <ele>0.000012564994904</ele>
    </trkpt>
    <trkpt lat="55.73043339543095" lon="14.077353509192196">
        <ele>0.000012564994904</ele>
    </trkpt>
    <trkpt lat="55.73045339499857" lon="14.077161842591826">
        <ele>0.000012564994904</ele>
    </trkpt>
    <trkpt lat="55.730463394973043" lon="14.076968510402358">
        <ele>0.000012564994904</ele>
    </trkpt>
    <trkpt lat="55.730471728212045" lon="14.076761842855065">
        <ele>0.000012564994904</ele>
    </trkpt>
    <trkpt lat="55.73049339483363" lon="14.076563510410265">
        <ele>0.000012564994904</ele>
    </trkpt>
    <trkpt lat="55.730506728779297" lon="14.076390177766012">
        <ele>0.000012564994904</ele>
    </trkpt>
    <trkpt lat="55.730513394697745" lon="14.076228510767235">
        <ele>0.000012564994904</ele>
    </trkpt>
    <trkpt lat="55.730498395273706" lon="14.076050176549945">
        <ele>0.000012564994904</ele>
    </trkpt>
    <trkpt lat="55.730490061503865" lon="14.075861843949642">
        <ele>0.000012564994904</ele>
    </trkpt>
    <trkpt lat="55.730483395302358" lon="14.075631843417357">
        <ele>0.000012564994904</ele>
    </trkpt>
    <trkpt lat="55.73047006150734" lon="14.075470177679774">
        <ele>0.000012564994904</ele>
    </trkpt>
    <trkpt lat="55.73045172791474" lon="14.075303510658935">
        <ele>0.000012564994904</ele>
    </trkpt>
    <trkpt lat="55.730436728066387" lon="14.075078510152059">
        <ele>0.000012564994904</ele>
    </trkpt>
    <trkpt lat="55.730421728567286" lon="14.074861844430648">
        <ele>0.000012564994904</ele>
    </trkpt>
    <trkpt lat="55.730401727984457" lon="14.074651843524407">
        <ele>0.000012564994904</ele>
    </trkpt>
    <trkpt lat="55.730386728428542" lon="14.074448509721327">
        <ele>0.000012564994904</ele>
    </trkpt>
    <trkpt lat="55.730363394989958" lon="14.074256843334076">
        <ele>0.000012564994904</ele>
    </trkpt>
    <trkpt lat="55.730353395219623" lon="14.074066844112279">
        <ele>0.000012564994904</ele>
    </trkpt>
    <trkpt lat="55.730345061887277" lon="14.073888509657897">
        <ele>0.000012564994904</ele>
    </trkpt>
    <trkpt lat="55.730335062293371" lon="14.073716843881268">
        <ele>0.000012564994904</ele>
    </trkpt>
    <trkpt lat="55.730326728426945" lon="14.073541842478699">
        <ele>0.000012564994904</ele>
    </trkpt>
    <trkpt lat="55.730323394974626" lon="14.073353508991662">
        <ele>0.000012564994904</ele>
    </trkpt>
    <trkpt lat="55.730311728763184" lon="14.073156842483671">
        <ele>0.000012564994904</ele>
    </trkpt>
    <trkpt lat="55.730303395063821" lon="14.072958509498378">
        <ele>0.000012564994904</ele>
    </trkpt>
    <trkpt lat="55.730291728228103" lon="14.072753510207319">
        <ele>0.000012564994904</ele>
    </trkpt>
    <trkpt lat="55.730280061943539" lon="14.072553509550682">
        <ele>0.000012564994904</ele>
    </trkpt>
    <trkpt lat="55.730278395611521" lon="14.07235351074228">
        <ele>0.000012564994904</ele>
    </trkpt>
    <trkpt lat="55.730276728110447" lon="14.072168510747382">
        <ele>0.000012564994904</ele>
    </trkpt>
    <trkpt lat="55.730245062140433" lon="14.071968510239916">
        <ele>0.000012564994904</ele>
    </trkpt>
    <trkpt lat="55.730205061561499" lon="14.071770177590741">
        <ele>0.000012564994904</ele>
    </trkpt>
    <trkpt lat="55.730156728960424" lon="14.071563509461688">
        <ele>0.000012564994904</ele>
    </trkpt>
    <trkpt lat="55.730105062354831" lon="14.071361843054254">
        <ele>0.000012564994904</ele>
    </trkpt>
    <trkpt lat="55.730050061832749" lon="14.071171842535373">
        <ele>0.000012564994904</ele>
    </trkpt>
    <trkpt lat="55.729996729142464" lon="14.071008508815661">
        <ele>0.000012564994904</ele>
    </trkpt>
    <trkpt lat="55.729926729267802" lon="14.070895175673767">
        <ele>0.000012564994904</ele>
    </trkpt>
    <trkpt lat="55.729845061749529" lon="14.070755177033027">
        <ele>0.000012564994904</ele>
    </trkpt>
    <trkpt lat="55.729785062095672" lon="14.070600176781012">
        <ele>0.000012564994904</ele>
    </trkpt>
    <trkpt lat="55.729705061593023" lon="14.070390177168983">
        <ele>0.000012564994904</ele>
    </trkpt>
    <trkpt lat="55.729618395080095" lon="14.070180177608441">
        <ele>0.000012564994904</ele>
    </trkpt>
    <trkpt lat="55.729540061324442" lon="14.06999850970327">
        <ele>0.000012564994904</ele>
    </trkpt>
    <trkpt lat="55.729476728431337" lon="14.069828509782075">
        <ele>0.000012564994904</ele>
    </trkpt>
    <trkpt lat="55.729420061282823" lon="14.06967184396477">
        <ele>0.000012564994904</ele>
    </trkpt>
    <trkpt lat="55.729351727645636" lon="14.069478511775477">
        <ele>0.000012564994904</ele>
    </trkpt>
    <trkpt lat="55.729286728324155" lon="14.069318510145649">
        <ele>0.000012564994904</ele>
    </trkpt>
    <trkpt lat="55.729218395318284" lon="14.06916684312093">
        <ele>0.000012564994904</ele>
    </trkpt>
    <trkpt lat="55.729136729275389" lon="14.069053509663254">
        <ele>0.000012564994904</ele>
    </trkpt>
    <trkpt lat="55.729093395264087" lon="14.068901842647557">
        <ele>0.000012564994904</ele>
    </trkpt>
    <trkpt lat="55.729078395655854" lon="14.068741843901023">
        <ele>0.000012564994904</ele>
    </trkpt>
    <trkpt lat="55.729069155021485" lon="14.068652394035249">
        <ele>0.000012564994904</ele>
    </trkpt>
    <trkpt lat="55.729059506340192" lon="14.068576807340488">
        <ele>0.000012564994904</ele>
    </trkpt>
    <trkpt lat="55.729048996905092" lon="14.068440443810779">
        <ele>0.000012564994904</ele>
    </trkpt>
    <trkpt lat="55.729017053585423" lon="14.068305033475223">
        <ele>0.000012564994904</ele>
    </trkpt>
    <trkpt lat="55.728985063245865" lon="14.068150175594511">
        <ele>0.000012564994904</ele>
    </trkpt>
    <trkpt lat="55.728946729529738" lon="14.067996841681184">
        <ele>0.000012564994904</ele>
    </trkpt>
    <trkpt lat="55.728878396759583" lon="14.067870174791878">
        <ele>0.000012564994904</ele>
    </trkpt>
    <trkpt lat="55.728820062338784" lon="14.067743508939039">
        <ele>0.000012564994904</ele>
    </trkpt>
    <trkpt lat="55.728736729959351" lon="14.067588508116295">
        <ele>0.000012564994904</ele>
    </trkpt>
    <trkpt lat="55.728678397281556" lon="14.067446840150208">
        <ele>0.000012564994904</ele>
    </trkpt>
    <trkpt lat="55.728573397495829" lon="14.067403506273159">
        <ele>0.000012564994904</ele>
    </trkpt>
    <trkpt lat="55.728573397379009" lon="14.067216839382473">
        <ele>0.000012564994904</ele>
    </trkpt>
    <trkpt lat="55.728528397050162" lon="14.06704850642511">
        <ele>0.000012564994904</ele>
    </trkpt>
    <trkpt lat="55.728450063407202" lon="14.066930173226943">
        <ele>0.000012564994904</ele>
    </trkpt>
    <trkpt lat="55.728385063806897" lon="14.066815173634543">
        <ele>0.000012564994904</ele>
    </trkpt>
    <trkpt lat="55.728291731021336" lon="14.066736839840212">
        <ele>0.000012564994904</ele>
    </trkpt>
    <trkpt lat="55.728195063650496" lon="14.066715173538716">
        <ele>0.000012564994904</ele>
    </trkpt>
    <trkpt lat="55.728110062673508" lon="14.066660174308549">
        <ele>0.000012564994904</ele>
    </trkpt>
    <trkpt lat="55.728041728698038" lon="14.066555175773026">
        <ele>0.000012564994904</ele>
    </trkpt>
    <trkpt lat="55.727970062781814" lon="14.066451843040543">
        <ele>0.000012564994904</ele>
    </trkpt>
    <trkpt lat="55.727903395209601" lon="14.066341842273781">
        <ele>0.000012564994904</ele>
    </trkpt>
    <trkpt lat="55.72780672898449" lon="14.066223510432954">
        <ele>0.000012564994904</ele>
    </trkpt>
    <trkpt lat="55.727735061697047" lon="14.066100176568398">
        <ele>0.000012564994904</ele>
    </trkpt>
    <trkpt lat="55.727646728577028" lon="14.065931843258801">
        <ele>0.000012564994904</ele>
    </trkpt>
    <trkpt lat="55.727586728984733" lon="14.065791842418514">
        <ele>0.000012564994904</ele>
    </trkpt>
    <trkpt lat="55.727545062737072" lon="14.065648509399875">
        <ele>0.000012564994904</ele>
    </trkpt>
    <trkpt lat="55.727471728978259" lon="14.065450176119768">
        <ele>0.000012564994904</ele>
    </trkpt>
    <trkpt lat="55.727426729391418" lon="14.065305175190387">
        <ele>0.000012564994904</ele>
    </trkpt>
    <trkpt lat="55.727360062863177" lon="14.065126842066427">
        <ele>0.000012564994904</ele>
    </trkpt>
    <trkpt lat="55.727296729160763" lon="14.064938508425472">
        <ele>0.000012564994904</ele>
    </trkpt>
    <trkpt lat="55.727223395619113" lon="14.064775175857564">
        <ele>0.000012564994904</ele>
    </trkpt>
    <trkpt lat="55.727181729065556" lon="14.064631842056151">
        <ele>0.000012564994904</ele>
    </trkpt>
    <trkpt lat="55.72710339541775" lon="14.064468509083154">
        <ele>0.000012564994904</ele>
    </trkpt>
    <trkpt lat="55.727036728739847" lon="14.0643585092956">
        <ele>0.000012564994904</ele>
    </trkpt>
    <trkpt lat="55.726956729189006" lon="14.064188509114663">
        <ele>0.000012564994904</ele>
    </trkpt>
    <trkpt lat="55.726886729156107" lon="14.063998508883586">
        <ele>0.000012564994904</ele>
    </trkpt>
    <trkpt lat="55.726851729015003" lon="14.063828509718796">
        <ele>0.000012564994904</ele>
    </trkpt>
    <trkpt lat="55.726806728980577" lon="14.063618509094907">
        <ele>0.000012564994904</ele>
    </trkpt>
    <trkpt lat="55.726751728952173" lon="14.063405175314688">
        <ele>0.000012564994904</ele>
    </trkpt>
    <trkpt lat="55.726690062779376" lon="14.063213508274748">
        <ele>0.000012564994904</ele>
    </trkpt>
    <trkpt lat="55.72664172959837" lon="14.063046842478904">
        <ele>0.000012564994904</ele>
    </trkpt>
    <trkpt lat="55.726573396082962" lon="14.062908507702906">
        <ele>0.000012564994904</ele>
    </trkpt>
    <trkpt lat="55.726475062498523" lon="14.062881841071661">
        <ele>0.000012564994904</ele>
    </trkpt>
    <trkpt lat="55.726380062232437" lon="14.062850174715081">
        <ele>0.000012564994904</ele>
    </trkpt>
    <trkpt lat="55.726281729708653" lon="14.062836841702007">
        <ele>0.000012564994904</ele>
    </trkpt>
    <trkpt lat="55.726170062585226" lon="14.062838508511897">
        <ele>0.000012564994904</ele>
    </trkpt>
    <trkpt lat="55.72605506258229" lon="14.062828507701012">
        <ele>0.000012564994904</ele>
    </trkpt>
    <trkpt lat="55.725943396272761" lon="14.062806842097119">
        <ele>0.000012564994904</ele>
    </trkpt>
    <trkpt lat="55.725831729070002" lon="14.062730175121894">
        <ele>0.000012564994904</ele>
    </trkpt>
    <trkpt lat="55.72573006205117" lon="14.062641843296216">
        <ele>0.000012564994904</ele>
    </trkpt>
    <trkpt lat="55.72564839570942" lon="14.062523508401924">
        <ele>0.000012564994904</ele>
    </trkpt>
    <trkpt lat="55.725580062258402" lon="14.062371841706813">
        <ele>0.000012564994904</ele>
    </trkpt>
    <trkpt lat="55.725483395362765" lon="14.062260175640159">
        <ele>0.000012564994904</ele>
    </trkpt>
    <trkpt lat="55.725451729194774" lon="14.062090175814308">
        <ele>0.000012564994904</ele>
    </trkpt>
    <trkpt lat="55.725396730099384" lon="14.061938507789232">
        <ele>0.000012564994904</ele>
    </trkpt>
    <trkpt lat="55.725310063538636" lon="14.06181184069219">
        <ele>0.000012564994904</ele>
    </trkpt>
    <trkpt lat="55.725221730132205" lon="14.061696840306936">
        <ele>0.000012564994904</ele>
    </trkpt>
    <trkpt lat="55.725135063010661" lon="14.061556841335854">
        <ele>0.000012564994904</ele>
    </trkpt>
    <trkpt lat="55.725028396680422" lon="14.061433507260702">
        <ele>0.000012564994904</ele>
    </trkpt>
    <trkpt lat="55.724911729707031" lon="14.0613268418728">
        <ele>0.000012564994904</ele>
    </trkpt>
    <trkpt lat="55.724835063234039" lon="14.061166841190479">
        <ele>0.000012564994904</ele>
    </trkpt>
    <trkpt lat="55.724781729491333" lon="14.061030174945035">
        <ele>0.000012564994904</ele>
    </trkpt>
    <trkpt lat="55.72472006313987" lon="14.060903508871499">
        <ele>0.000012564994904</ele>
    </trkpt>
    <trkpt lat="55.724635062415665" lon="14.060805175485529">
        <ele>0.000012564994904</ele>
    </trkpt>
    <trkpt lat="55.724540062720777" lon="14.06071184312222">
        <ele>0.000012564994904</ele>
    </trkpt>
    <trkpt lat="55.724448395917619" lon="14.060601842477578">
        <ele>0.000012564994904</ele>
    </trkpt>
    <trkpt lat="55.724365062105285" lon="14.060533509618795">
        <ele>0.000012564994904</ele>
    </trkpt>
    <trkpt lat="55.72425172835068" lon="14.060456842815102">
        <ele>0.000012564994904</ele>
    </trkpt>
    <trkpt lat="55.724176728888139" lon="14.060345175964475">
        <ele>0.000012564994904</ele>
    </trkpt>
    <trkpt lat="55.724058395747548" lon="14.060255174921545">
        <ele>0.000012564994904</ele>
    </trkpt>
    <trkpt lat="55.723978395673598" lon="14.060180175120385">
        <ele>0.000012564994904</ele>
    </trkpt>
    <trkpt lat="55.723883396247224" lon="14.060111840773112">
        <ele>0.000012564994904</ele>
    </trkpt>
    <trkpt lat="55.723801730085661" lon="14.060045175043376">
        <ele>0.000012564994904</ele>
    </trkpt>
    <trkpt lat="55.723700062667334" lon="14.059955175005701">
        <ele>0.000012564994904</ele>
    </trkpt>
    <trkpt lat="55.723615062164363" lon="14.05988350954356">
        <ele>0.000012564994904</ele>
    </trkpt>
    <trkpt lat="55.723525062104095" lon="14.0598051757047">
        <ele>0.000012564994904</ele>
    </trkpt>
    <trkpt lat="55.723430062543024" lon="14.05978850889684">
        <ele>0.000012564994904</ele>
    </trkpt>
    <trkpt lat="55.723315035374313" lon="14.059689186374561">
        <ele>0.000012564994904</ele>
    </trkpt>
    <trkpt lat="55.72314203514852" lon="14.059465186668961">
        <ele>0.000012564994904</ele>
    </trkpt>
    <trkpt lat="55.722445980816744" lon="14.059197241672754">
        <ele>0.000012564994904</ele>
    </trkpt>
    <trkpt lat="55.722065035660101" lon="14.058155186198587">
        <ele>0.000012564994904</ele>
    </trkpt>
    <trkpt lat="55.721960530490115" lon="14.05732726894057">
        <ele>0.000012564994904</ele>
    </trkpt>
    <trkpt lat="55.721705166279087" lon="14.056744615412819">
        <ele>0.000012564994904</ele>
    </trkpt>
    <trkpt lat="55.721544035012414" lon="14.055679186307453">
        <ele>0.000012564994904</ele>
    </trkpt>
    <trkpt lat="55.721096035500423" lon="14.05437118592598">
        <ele>0.000012564994904</ele>
    </trkpt>
    <trkpt lat="55.720394035575964" lon="14.053179186762618">
        <ele>0.000012564994904</ele>
    </trkpt>
    <trkpt lat="55.720163035092355" lon="14.051119186469229">
        <ele>0.000012564994904</ele>
    </trkpt>
    <trkpt lat="55.720254035477495" lon="14.050227185925797">
        <ele>0.000012564994904</ele>
    </trkpt>
    <trkpt lat="55.720441035877172" lon="14.049153187228226">
        <ele>0.000012564994904</ele>
    </trkpt>
    <trkpt lat="55.720381035585689" lon="14.047885186890488">
        <ele>0.000012564994904</ele>
    </trkpt>
    <trkpt lat="55.720415035737631" lon="14.046989187034907">
        <ele>0.000012564994904</ele>
    </trkpt>
    <trkpt lat="55.71977903573729" lon="14.047320186138002">
        <ele>0.000012564994904</ele>
    </trkpt>
    <trkpt lat="55.71946703540889" lon="14.04699218646995">
        <ele>0.000012564994904</ele>
    </trkpt>
    <trkpt lat="55.719428035109921" lon="14.046281186981929">
        <ele>0.000012564994904</ele>
    </trkpt>
    <trkpt lat="55.717751035663497" lon="14.045697186031221">
        <ele>0.000012564994904</ele>
    </trkpt>
    <trkpt lat="55.717449035304405" lon="14.044819186839856">
        <ele>0.000012564994904</ele>
    </trkpt>
    <trkpt lat="55.716936035774374" lon="14.044811187313581">
        <ele>0.000012564994904</ele>
    </trkpt>
    <trkpt lat="55.716536035660901" lon="14.044921187277707">
        <ele>0.000012564994904</ele>
    </trkpt>
    <trkpt lat="55.71603203574373" lon="14.044906187298757">
        <ele>0.000012564994904</ele>
    </trkpt>
    <trkpt lat="55.715833035181475" lon="14.04376018668107">
        <ele>0.000012564994904</ele>
    </trkpt>
    <trkpt lat="55.71574903585266" lon="14.043386186655857">
        <ele>0.000012564994904</ele>
    </trkpt>
    <trkpt lat="55.715666035003821" lon="14.043044186164405">
        <ele>0.000012564994904</ele>
    </trkpt>
    <trkpt lat="55.71502703542366" lon="14.043502186411319">
        <ele>0.000012564994904</ele>
    </trkpt>
    <trkpt lat="55.714845035372079" lon="14.043575186663112">
        <ele>0.000012564994904</ele>
    </trkpt>
    <trkpt lat="55.714686035806508" lon="14.042731187319095">
        <ele>0.000012564994904</ele>
    </trkpt>
    <trkpt lat="55.714591035523917" lon="14.042062186496738">
        <ele>0.000012564994904</ele>
    </trkpt>
    <trkpt lat="55.714348035555574" lon="14.041439187373987">
        <ele>0.000012564994904</ele>
    </trkpt>
    <trkpt lat="55.714187035402595" lon="14.040825187144922">
        <ele>0.000012564994904</ele>
    </trkpt>
    <trkpt lat="55.713916035094698" lon="14.039916186836594">
        <ele>0.000012564994904</ele>
    </trkpt>
    <trkpt lat="55.713611035618442" lon="14.038722187299799">
        <ele>0.000012564994904</ele>
    </trkpt>
    <trkpt lat="55.713400035310869" lon="14.037858186096159">
        <ele>0.000012564994904</ele>
    </trkpt>
    <trkpt lat="55.713077035105947" lon="14.03715318605677">
        <ele>0.000012564994904</ele>
    </trkpt>
    <trkpt lat="55.71241603585802" lon="14.035533186579814">
        <ele>0.000012564994904</ele>
    </trkpt>
    <trkpt lat="55.712430035665534" lon="14.035187187035563">
        <ele>0.000012564994904</ele>
    </trkpt>
    <trkpt lat="55.712368035740646" lon="14.034155186044725">
        <ele>0.000012564994904</ele>
    </trkpt>
    <trkpt lat="55.712297035361054" lon="14.033581186075047">
        <ele>0.000012564994904</ele>
    </trkpt>
    <trkpt lat="55.712339035215315" lon="14.032844187048259">
        <ele>0.000012564994904</ele>
    </trkpt>
    <trkpt lat="55.712212035013025" lon="14.032215186164672">
        <ele>0.000012564994904</ele>
    </trkpt>
    <trkpt lat="55.711922035121248" lon="14.031673186640683">
        <ele>0.000012564994904</ele>
    </trkpt>
    <trkpt lat="55.711451035710908" lon="14.031252187239071">
        <ele>0.000012564994904</ele>
    </trkpt>
    <trkpt lat="55.711219035309071" lon="14.030277186791643">
        <ele>0.000012564994904</ele>
    </trkpt>
    <trkpt lat="55.711354035184598" lon="14.029548187140911">
        <ele>0.000012564994904</ele>
    </trkpt>
    <trkpt lat="55.711608035278985" lon="14.028494186657303">
        <ele>0.000012564994904</ele>
    </trkpt>
    <trkpt lat="55.711815035662831" lon="14.02706518650416">
        <ele>0.000012564994904</ele>
    </trkpt>
    <trkpt lat="55.711667035589578" lon="14.026295186365312">
        <ele>0.000012564994904</ele>
    </trkpt>
    <trkpt lat="55.711535035234441" lon="14.025343185895878">
        <ele>0.000012564994904</ele>
    </trkpt>
    <trkpt lat="55.711417035672092" lon="14.024570186800679">
        <ele>0.000012564994904</ele>
    </trkpt>
    <trkpt lat="55.711182035052396" lon="14.023929186022658">
        <ele>0.000012564994904</ele>
    </trkpt>
    <trkpt lat="55.710849035764916" lon="14.023560187105094">
        <ele>0.000012564994904</ele>
    </trkpt>
    <trkpt lat="55.710521035241811" lon="14.023243186634037">
        <ele>0.000012564994904</ele>
    </trkpt>
    <trkpt lat="55.710183035896264" lon="14.022942186541588">
        <ele>0.000012564994904</ele>
    </trkpt>
    <trkpt lat="55.709974035478645" lon="14.022384186141592">
        <ele>0.000012564994904</ele>
    </trkpt>
    <trkpt lat="55.709670035251797" lon="14.021897187186767">
        <ele>0.000012564994904</ele>
    </trkpt>
    <trkpt lat="55.709424035460053" lon="14.021345187210084">
        <ele>0.000012564994904</ele>
    </trkpt>
    <trkpt lat="55.709121035705138" lon="14.020364186805232">
        <ele>0.000012564994904</ele>
    </trkpt>
    <trkpt lat="55.708805035151329" lon="14.019823185885834">
        <ele>0.000012564994904</ele>
    </trkpt>
    <trkpt lat="55.708582035078372" lon="14.019147186836204">
        <ele>0.000012564994904</ele>
    </trkpt>
    <trkpt lat="55.708528035259349" lon="14.01849118632423">
        <ele>0.000012564994904</ele>
    </trkpt>
    <trkpt lat="55.708495035206099" lon="14.017768186226109">
        <ele>0.000012564994904</ele>
    </trkpt>
    <trkpt lat="55.708797035110749" lon="14.017384187136026">
        <ele>0.000012564994904</ele>
    </trkpt>
    <trkpt lat="55.709071035325259" lon="14.016743187364698">
        <ele>0.000012564994904</ele>
    </trkpt>
    <trkpt lat="55.709054035022902" lon="14.016045187011208">
        <ele>0.000012564994904</ele>
    </trkpt>
    <trkpt lat="55.709191035162199" lon="14.015278186354974">
        <ele>0.000012564994904</ele>
    </trkpt>
    <trkpt lat="55.709338035440815" lon="14.014595186967084">
        <ele>0.000012564994904</ele>
    </trkpt>
    <trkpt lat="55.709125035496541" lon="14.013844187088987">
        <ele>0.000012564994904</ele>
    </trkpt>
    <trkpt lat="55.709141035316833" lon="14.013114186164962">
        <ele>0.000012564994904</ele>
    </trkpt>
    <trkpt lat="55.708967035545641" lon="14.012463186148439">
        <ele>0.000012564994904</ele>
    </trkpt>
    <trkpt lat="55.708888035517958" lon="14.011785187311629">
        <ele>0.000012564994904</ele>
    </trkpt>
    <trkpt lat="55.70871803587098" lon="14.011122186858126">
        <ele>0.000012564994904</ele>
    </trkpt>
    <trkpt lat="55.708886035634301" lon="14.01052318666">
        <ele>0.000012564994904</ele>
    </trkpt>
    <trkpt lat="55.709246035194838" lon="14.010158187302073">
        <ele>0.000012564994904</ele>
    </trkpt>
    <trkpt lat="55.709589035810033" lon="14.009691185994194">
        <ele>0.000012564994904</ele>
    </trkpt>
    <trkpt lat="55.709817035781185" lon="14.009207187352628">
        <ele>0.000012564994904</ele>
    </trkpt>
    <trkpt lat="55.71001303527153" lon="14.008604186968103">
        <ele>0.000012564994904</ele>
    </trkpt>
    <trkpt lat="55.710230035534387" lon="14.007985186051719">
        <ele>0.000012564994904</ele>
    </trkpt>
    <trkpt lat="55.710226035720964" lon="14.007284186925096">
        <ele>0.000012564994904</ele>
    </trkpt>
    <trkpt lat="55.710131035703569" lon="14.006820186078162">
        <ele>0.000012564994904</ele>
    </trkpt>
    <trkpt lat="55.709758035656961" lon="14.005848186696518">
        <ele>0.000012564994904</ele>
    </trkpt>
    <trkpt lat="55.709717035574727" lon="14.004863186299621">
        <ele>0.000012564994904</ele>
    </trkpt>
    <trkpt lat="55.709466035866022" lon="14.003912187044518">
        <ele>0.000012564994904</ele>
    </trkpt>
    <trkpt lat="55.709323035466952" lon="14.003469187349454">
        <ele>0.000012564994904</ele>
    </trkpt>
    <trkpt lat="55.708538035616513" lon="14.002586185784187">
        <ele>0.000012564994904</ele>
    </trkpt>
    <trkpt lat="55.708431035837755" lon="14.002389187217117">
        <ele>0.000012564994904</ele>
    </trkpt>
    <trkpt lat="55.708166035081504" lon="14.000875186790674">
        <ele>0.000012564994904</ele>
    </trkpt>
    <trkpt lat="55.707783035921665" lon="14.000806186323867">
        <ele>0.000012564994904</ele>
    </trkpt>
    <trkpt lat="55.707744035774226" lon="13.999997185876085">
        <ele>0.000012564994904</ele>
    </trkpt>
    <trkpt lat="55.708035035434328" lon="13.999362187126703">
        <ele>0.000012564994904</ele>
    </trkpt>
    <trkpt lat="55.708692035720794" lon="13.998759187280763">
        <ele>0.000012564994904</ele>
    </trkpt>
    <trkpt lat="55.708959035099653" lon="13.998820185787329">
        <ele>0.000012564994904</ele>
    </trkpt>
    <trkpt lat="55.709281035894612" lon="13.998508185850078">
        <ele>0.000012564994904</ele>
    </trkpt>
    <trkpt lat="55.709104035215468" lon="13.99823618713217">
        <ele>0.000012564994904</ele>
    </trkpt>
    <trkpt lat="55.70897703509339" lon="13.997992185950947">
        <ele>0.000012564994904</ele>
    </trkpt>
    <trkpt lat="55.708873035311242" lon="13.997266186102323">
        <ele>0.000012564994904</ele>
    </trkpt>
    <trkpt lat="55.708939035081812" lon="13.996552185956968">
        <ele>0.000012564994904</ele>
    </trkpt>
    <trkpt lat="55.709092035279546" lon="13.995998186218909">
        <ele>0.000012564994904</ele>
    </trkpt>
    <trkpt lat="55.709447035726932" lon="13.995644186241407">
        <ele>0.000012564994904</ele>
    </trkpt>
    <trkpt lat="55.70976003547505" lon="13.995178185884745">
        <ele>0.000012564994904</ele>
    </trkpt>
    <trkpt lat="55.710177035321642" lon="13.995221186449573">
        <ele>0.000012564994904</ele>
    </trkpt>
    <trkpt lat="55.710495035539417" lon="13.995012186643981">
        <ele>0.000012564994904</ele>
    </trkpt>
    <trkpt lat="55.710884035145149" lon="13.995005186376119">
        <ele>0.000012564994904</ele>
    </trkpt>
    <trkpt lat="55.711295035346097" lon="13.994807186597042">
        <ele>0.000012564994904</ele>
    </trkpt>
    <trkpt lat="55.711495035670744" lon="13.994148186026765">
        <ele>0.000012564994904</ele>
    </trkpt>
    <trkpt lat="55.71158503540444" lon="13.993488186932458">
        <ele>0.000012564994904</ele>
    </trkpt>
    <trkpt lat="55.71179203523117" lon="13.993080186661665">
        <ele>0.000012564994904</ele>
    </trkpt>
    <trkpt lat="55.711850035123604" lon="13.992267187270715">
        <ele>0.000012564994904</ele>
    </trkpt>
    <trkpt lat="55.711780035751048" lon="13.991505186611191">
        <ele>0.000012564994904</ele>
    </trkpt>
    <trkpt lat="55.711705035561174" lon="13.990792186085269">
        <ele>0.000012564994904</ele>
    </trkpt>
    <trkpt lat="55.711865035845143" lon="13.990050186594727">
        <ele>0.000012564994904</ele>
    </trkpt>
    <trkpt lat="55.712222035273875" lon="13.989673186276157">
        <ele>0.000012564994904</ele>
    </trkpt>
    <trkpt lat="55.712652035873724" lon="13.989418186771873">
        <ele>0.000012564994904</ele>
    </trkpt>
    <trkpt lat="55.713038035211845" lon="13.98924818654482">
        <ele>0.000012564994904</ele>
    </trkpt>
    <trkpt lat="55.713294035084452" lon="13.988782187244309">
        <ele>0.000012564994904</ele>
    </trkpt>
    <trkpt lat="55.71350903549628" lon="13.98843918687199">
        <ele>0.000012564994904</ele>
    </trkpt>
    <trkpt lat="55.713703035740828" lon="13.987865186944786">
        <ele>0.000012564994904</ele>
    </trkpt>
    <trkpt lat="55.713944035447987" lon="13.987409187061798">
        <ele>0.000012564994904</ele>
    </trkpt>
    <trkpt lat="55.714136035046842" lon="13.986918186343246">
        <ele>0.000012564994904</ele>
    </trkpt>
    <trkpt lat="55.714462035730342" lon="13.986163186453098">
        <ele>0.000012564994904</ele>
    </trkpt>
    <trkpt lat="55.714569035624145" lon="13.985614186031693">
        <ele>0.000012564994904</ele>
    </trkpt>
    <trkpt lat="55.714359035395411" lon="13.985105186383187">
        <ele>0.000012564994904</ele>
    </trkpt>
    <trkpt lat="55.713986035578735" lon="13.983466187145751">
        <ele>0.000012564994904</ele>
    </trkpt>
    <trkpt lat="55.714041723751734" lon="13.982473325680333">
        <ele>0.000012564994904</ele>
    </trkpt>
    <trkpt lat="55.714376827607879" lon="13.980958024216688">
        <ele>0.000012564994904</ele>
    </trkpt>
    <trkpt lat="55.714689849298367" lon="13.979922078837133">
        <ele>0.000012564994904</ele>
    </trkpt>
    <trkpt lat="55.714832640724104" lon="13.979708560581205">
        <ele>0.000012564994904</ele>
    </trkpt>
    <trkpt lat="55.715099224002046" lon="13.979476331469685">
        <ele>0.000012564994904</ele>
    </trkpt>
    <trkpt lat="55.715374626851414" lon="13.978855828452232">
        <ele>0.000012564994904</ele>
    </trkpt>
    <trkpt lat="55.715513185260136" lon="13.978358067790758">
        <ele>0.000012564994904</ele>
    </trkpt>
    <trkpt lat="55.715754424019984" lon="13.977894292911065">
        <ele>0.000012564994904</ele>
    </trkpt>
    <trkpt lat="55.716215614247091" lon="13.977497804237954">
        <ele>0.000012564994904</ele>
    </trkpt>
    <trkpt lat="55.716456099042496" lon="13.97747363571321">
        <ele>0.000012564994904</ele>
    </trkpt>
    <trkpt lat="55.716517974681082" lon="13.977907405033775">
        <ele>0.000012564994904</ele>
    </trkpt>
    <trkpt lat="55.71692257524434" lon="13.978911153737839">
        <ele>0.000012564994904</ele>
    </trkpt>
    <trkpt lat="55.71696537752085" lon="13.979362957480786">
        <ele>0.000012564994904</ele>
    </trkpt>
    <trkpt lat="55.716710163225898" lon="13.980154642917952">
        <ele>0.000012564994904</ele>
    </trkpt>
    <trkpt lat="55.71673313849309" lon="13.981457446571333">
        <ele>0.000012564994904</ele>
    </trkpt>
  </trkseg>
</trk>
</gpx>
