<?xml version='1.0' encoding='utf-8'?>
<gpx xmlns="http://www.topografix.com/GPX/1/1" version="1.1" creator="ÖST Analys derived route materializer"><metadata><name>trail22-2025-2026</name><desc>Derived from dataTrace.geometry embedded in the public Trace de Trail map; not an organizer-direct or authenticated-export GPX.</desc><link href="https://tracedetrail.fr/fr/trace/322314"><text>Trace de Trail public map page</text></link></metadata><trk><trkseg><trkpt lat="55.7171396" lon="13.9605400"><ele>120.0</ele></trkpt><trkpt lat="55.7170597" lon="13.9605400"><ele>120.0</ele></trkpt><trkpt lat="55.7169398" lon="13.9604995"><ele>120.0</ele></trkpt><trkpt lat="55.7168598" lon="13.9604492"><ele>120.0</ele></trkpt><trkpt lat="55.7168699" lon="13.9602597"><ele>120.0</ele></trkpt><trkpt lat="55.7168998" lon="13.9600998"><ele>120.0</ele></trkpt><trkpt lat="55.7169398" lon="13.9599399"><ele>119.0</ele></trkpt><trkpt lat="55.7169797" lon="13.9594198"><ele>119.0</ele></trkpt><trkpt lat="55.7170096" lon="13.9592096"><ele>118.0</ele></trkpt><trkpt lat="55.7170298" lon="13.9589293"><ele>118.0</ele></trkpt><trkpt lat="55.7170298" lon="13.9586993"><ele>117.0</ele></trkpt><trkpt lat="55.7169696" lon="13.9584496"><ele>117.0</ele></trkpt><trkpt lat="55.7167799" lon="13.9580400"><ele>115.0</ele></trkpt><trkpt lat="55.7166898" lon="13.9578693"><ele>115.0</ele></trkpt><trkpt lat="55.7166296" lon="13.9576797"><ele>114.0</ele></trkpt><trkpt lat="55.7165699" lon="13.9574399"><ele>113.0</ele></trkpt><trkpt lat="55.7164798" lon="13.9571794"><ele>112.0</ele></trkpt><trkpt lat="55.7162799" lon="13.9568191"><ele>111.0</ele></trkpt><trkpt lat="55.7161696" lon="13.9566098"><ele>111.0</ele></trkpt><trkpt lat="55.7160795" lon="13.9564499"><ele>111.0</ele></trkpt><trkpt lat="55.7159996" lon="13.9562891"><ele>111.0</ele></trkpt><trkpt lat="55.7159196" lon="13.9561499"><ele>111.0</ele></trkpt><trkpt lat="55.7158397" lon="13.9559298"><ele>111.0</ele></trkpt><trkpt lat="55.7158498" lon="13.9556693"><ele>110.0</ele></trkpt><trkpt lat="55.7158797" lon="13.9553899"><ele>109.0</ele></trkpt><trkpt lat="55.7159298" lon="13.9550593"><ele>109.0</ele></trkpt><trkpt lat="55.7159697" lon="13.9547494"><ele>109.0</ele></trkpt><trkpt lat="55.7160198" lon="13.9544395"><ele>109.0</ele></trkpt><trkpt lat="55.7160568" lon="13.9540505"><ele>109.0</ele></trkpt><trkpt lat="55.7161099" lon="13.9534999"><ele>110.0</ele></trkpt><trkpt lat="55.7161099" lon="13.9532196"><ele>110.0</ele></trkpt><trkpt lat="55.7160497" lon="13.9529896"><ele>110.0</ele></trkpt><trkpt lat="55.7160198" lon="13.9529097"><ele>110.0</ele></trkpt><trkpt lat="55.7157997" lon="13.9526195"><ele>111.0</ele></trkpt><trkpt lat="55.7155897" lon="13.9523195"><ele>111.0</ele></trkpt><trkpt lat="55.7154799" lon="13.9521793"><ele>111.0</ele></trkpt><trkpt lat="55.7153296" lon="13.9520697"><ele>111.0</ele></trkpt><trkpt lat="55.7151697" lon="13.9520293"><ele>111.0</ele></trkpt><trkpt lat="55.7149698" lon="13.9519296"><ele>111.0</ele></trkpt><trkpt lat="55.7148013" lon="13.9517661"><ele>111.0</ele></trkpt><trkpt lat="55.7146298" lon="13.9515999"><ele>111.0</ele></trkpt><trkpt lat="55.7143995" lon="13.9513592"><ele>111.0</ele></trkpt><trkpt lat="55.7142897" lon="13.9511696"><ele>111.0</ele></trkpt><trkpt lat="55.7141895" lon="13.9509496"><ele>111.0</ele></trkpt><trkpt lat="55.7141000" lon="13.9507295"><ele>111.0</ele></trkpt><trkpt lat="55.7139395" lon="13.9502596"><ele>110.0</ele></trkpt><trkpt lat="55.7138196" lon="13.9499794"><ele>110.0</ele></trkpt><trkpt lat="55.7136197" lon="13.9495697"><ele>110.0</ele></trkpt><trkpt lat="55.7134998" lon="13.9492993"><ele>111.0</ele></trkpt><trkpt lat="55.7133596" lon="13.9490092"><ele>111.0</ele></trkpt><trkpt lat="55.7132397" lon="13.9488295"><ele>111.0</ele></trkpt><trkpt lat="55.7130696" lon="13.9486499"><ele>111.0</ele></trkpt><trkpt lat="55.7129598" lon="13.9485699"><ele>112.0</ele></trkpt><trkpt lat="55.7128095" lon="13.9484792"><ele>112.0</ele></trkpt><trkpt lat="55.7126997" lon="13.9483992"><ele>112.0</ele></trkpt><trkpt lat="55.7125499" lon="13.9482492"><ele>113.0</ele></trkpt><trkpt lat="55.7124199" lon="13.9480893"><ele>113.0</ele></trkpt><trkpt lat="55.7122999" lon="13.9479195"><ele>113.0</ele></trkpt><trkpt lat="55.7121496" lon="13.9476698"><ele>114.0</ele></trkpt><trkpt lat="55.7120899" lon="13.9474398"><ele>114.0</ele></trkpt><trkpt lat="55.7121395" lon="13.9472692"><ele>115.0</ele></trkpt><trkpt lat="55.7121896" lon="13.9472197"><ele>115.0</ele></trkpt><trkpt lat="55.7122696" lon="13.9471596"><ele>115.0</ele></trkpt><trkpt lat="55.7123495" lon="13.9471398"><ele>115.0</ele></trkpt><trkpt lat="55.7124897" lon="13.9470500"><ele>116.0</ele></trkpt><trkpt lat="55.7126218" lon="13.9469763"><ele>116.0</ele></trkpt><trkpt lat="55.7127797" lon="13.9468892"><ele>116.0</ele></trkpt><trkpt lat="55.7129624" lon="13.9467814"><ele>116.0</ele></trkpt><trkpt lat="55.7131496" lon="13.9466700"><ele>117.0</ele></trkpt><trkpt lat="55.7132999" lon="13.9466098"><ele>117.0</ele></trkpt><trkpt lat="55.7134396" lon="13.9466296"><ele>117.0</ele></trkpt><trkpt lat="55.7135296" lon="13.9467194"><ele>117.0</ele></trkpt><trkpt lat="55.7136496" lon="13.9467895"><ele>118.0</ele></trkpt><trkpt lat="55.7137397" lon="13.9468595"><ele>117.0</ele></trkpt><trkpt lat="55.7138196" lon="13.9468299"><ele>118.0</ele></trkpt><trkpt lat="55.7138996" lon="13.9468092"><ele>118.0</ele></trkpt><trkpt lat="55.7140499" lon="13.9467391"><ele>118.0</ele></trkpt><trkpt lat="55.7141496" lon="13.9467095"><ele>119.0</ele></trkpt><trkpt lat="55.7142098" lon="13.9466799"><ele>119.0</ele></trkpt><trkpt lat="55.7143297" lon="13.9466394"><ele>119.0</ele></trkpt><trkpt lat="55.7144800" lon="13.9465694"><ele>119.0</ele></trkpt><trkpt lat="55.7145797" lon="13.9465397"><ele>120.0</ele></trkpt><trkpt lat="55.7147295" lon="13.9464741"><ele>120.0</ele></trkpt><trkpt lat="55.7148995" lon="13.9463996"><ele>120.0</ele></trkpt><trkpt lat="55.7150796" lon="13.9463699"><ele>121.0</ele></trkpt><trkpt lat="55.7152699" lon="13.9462900"><ele>122.0</ele></trkpt><trkpt lat="55.7154399" lon="13.9462496"><ele>123.0</ele></trkpt><trkpt lat="55.7155700" lon="13.9461993"><ele>123.0</ele></trkpt><trkpt lat="55.7156798" lon="13.9461292"><ele>124.0</ele></trkpt><trkpt lat="55.7157997" lon="13.9460295"><ele>125.0</ele></trkpt><trkpt lat="55.7159095" lon="13.9459199"><ele>125.0</ele></trkpt><trkpt lat="55.7161600" lon="13.9456899"><ele>125.0</ele></trkpt><trkpt lat="55.7162895" lon="13.9456100"><ele>125.0</ele></trkpt><trkpt lat="55.7164105" lon="13.9455228"><ele>125.0</ele></trkpt><trkpt lat="55.7165395" lon="13.9454294"><ele>125.0</ele></trkpt><trkpt lat="55.7166498" lon="13.9453998"><ele>125.0</ele></trkpt><trkpt lat="55.7167996" lon="13.9453809"><ele>125.0</ele></trkpt><trkpt lat="55.7169696" lon="13.9453593"><ele>125.0</ele></trkpt><trkpt lat="55.7171756" lon="13.9453548"><ele>125.0</ele></trkpt><trkpt lat="55.7174200" lon="13.9453495"><ele>125.0</ele></trkpt><trkpt lat="55.7176396" lon="13.9453198"><ele>125.0</ele></trkpt><trkpt lat="55.7179497" lon="13.9454294"><ele>126.0</ele></trkpt><trkpt lat="55.7180499" lon="13.9454797"><ele>126.0</ele></trkpt><trkpt lat="55.7181800" lon="13.9455695"><ele>126.0</ele></trkpt><trkpt lat="55.7183500" lon="13.9457995"><ele>127.0</ele></trkpt><trkpt lat="55.7184699" lon="13.9460097"><ele>127.0</ele></trkpt><trkpt lat="55.7185296" lon="13.9460897"><ele>127.0</ele></trkpt><trkpt lat="55.7186298" lon="13.9462792"><ele>127.0</ele></trkpt><trkpt lat="55.7188296" lon="13.9465496"><ele>127.0</ele></trkpt><trkpt lat="55.7189597" lon="13.9466296"><ele>127.0</ele></trkpt><trkpt lat="55.7190998" lon="13.9465999"><ele>127.0</ele></trkpt><trkpt lat="55.7192198" lon="13.9465595"><ele>127.0</ele></trkpt><trkpt lat="55.7193498" lon="13.9464993"><ele>128.0</ele></trkpt><trkpt lat="55.7194798" lon="13.9463897"><ele>128.0</ele></trkpt><trkpt lat="55.7196200" lon="13.9462999"><ele>128.0</ele></trkpt><trkpt lat="55.7196999" lon="13.9462298"><ele>128.0</ele></trkpt><trkpt lat="55.7198396" lon="13.9461400"><ele>128.0</ele></trkpt><trkpt lat="55.7200197" lon="13.9459998"><ele>129.0</ele></trkpt><trkpt lat="55.7201396" lon="13.9459298"><ele>130.0</ele></trkpt><trkpt lat="55.7202499" lon="13.9458893"><ele>130.0</ele></trkpt><trkpt lat="55.7203298" lon="13.9458696"><ele>131.0</ele></trkpt><trkpt lat="55.7204498" lon="13.9458795"><ele>131.0</ele></trkpt><trkpt lat="55.7205595" lon="13.9458795"><ele>131.0</ele></trkpt><trkpt lat="55.7206800" lon="13.9458498"><ele>131.0</ele></trkpt><trkpt lat="55.7207599" lon="13.9458597"><ele>132.0</ele></trkpt><trkpt lat="55.7208297" lon="13.9458498"><ele>132.0</ele></trkpt><trkpt lat="55.7209299" lon="13.9458193"><ele>133.0</ele></trkpt><trkpt lat="55.7210200" lon="13.9457797"><ele>134.0</ele></trkpt><trkpt lat="55.7210797" lon="13.9457393"><ele>134.0</ele></trkpt><trkpt lat="55.7211798" lon="13.9456899"><ele>134.0</ele></trkpt><trkpt lat="55.7212598" lon="13.9456100"><ele>135.0</ele></trkpt><trkpt lat="55.7214455" lon="13.9455120"><ele>136.0</ele></trkpt><trkpt lat="55.7216398" lon="13.9454096"><ele>137.0</ele></trkpt><trkpt lat="55.7218796" lon="13.9453099"><ele>138.0</ele></trkpt><trkpt lat="55.7220096" lon="13.9452794"><ele>139.0</ele></trkpt><trkpt lat="55.7220997" lon="13.9452695"><ele>139.0</ele></trkpt><trkpt lat="55.7222499" lon="13.9454294"><ele>139.0</ele></trkpt><trkpt lat="55.7223698" lon="13.9456693"><ele>139.0</ele></trkpt><trkpt lat="55.7224498" lon="13.9459091"><ele>138.0</ele></trkpt><trkpt lat="55.7224498" lon="13.9461499"><ele>138.0</ele></trkpt><trkpt lat="55.7224396" lon="13.9463592"><ele>138.0</ele></trkpt><trkpt lat="55.7223496" lon="13.9466394"><ele>137.0</ele></trkpt><trkpt lat="55.7222696" lon="13.9467194"><ele>136.0</ele></trkpt><trkpt lat="55.7221366" lon="13.9468847"><ele>136.0</ele></trkpt><trkpt lat="55.7219797" lon="13.9470796"><ele>134.0</ele></trkpt><trkpt lat="55.7217895" lon="13.9472997"><ele>133.0</ele></trkpt><trkpt lat="55.7217096" lon="13.9474300"><ele>133.0</ele></trkpt><trkpt lat="55.7216296" lon="13.9475997"><ele>133.0</ele></trkpt><trkpt lat="55.7216099" lon="13.9476896"><ele>133.0</ele></trkpt><trkpt lat="55.7215401" lon="13.9479528"><ele>132.0</ele></trkpt><trkpt lat="55.7214698" lon="13.9482196"><ele>132.0</ele></trkpt><trkpt lat="55.7213999" lon="13.9486795"><ele>130.0</ele></trkpt><trkpt lat="55.7213600" lon="13.9489795"><ele>130.0</ele></trkpt><trkpt lat="55.7213296" lon="13.9492796"><ele>130.0</ele></trkpt><trkpt lat="55.7212998" lon="13.9497898"><ele>128.0</ele></trkpt><trkpt lat="55.7212299" lon="13.9500899"><ele>127.0</ele></trkpt><trkpt lat="55.7210696" lon="13.9505893"><ele>126.0</ele></trkpt><trkpt lat="55.7209800" lon="13.9508498"><ele>126.0</ele></trkpt><trkpt lat="55.7208996" lon="13.9510196"><ele>126.0</ele></trkpt><trkpt lat="55.7207898" lon="13.9513394"><ele>126.0</ele></trkpt><trkpt lat="55.7207199" lon="13.9514993"><ele>126.0</ele></trkpt><trkpt lat="55.7206698" lon="13.9516098"><ele>126.0</ele></trkpt><trkpt lat="55.7204998" lon="13.9518497"><ele>125.0</ele></trkpt><trkpt lat="55.7202595" lon="13.9522395"><ele>123.0</ele></trkpt><trkpt lat="55.7201998" lon="13.9523895"><ele>123.0</ele></trkpt><trkpt lat="55.7201199" lon="13.9526195"><ele>122.0</ele></trkpt><trkpt lat="55.7199898" lon="13.9530795"><ele>120.0</ele></trkpt><trkpt lat="55.7198699" lon="13.9534298"><ele>120.0</ele></trkpt><trkpt lat="55.7196898" lon="13.9539293"><ele>118.0</ele></trkpt><trkpt lat="55.7195997" lon="13.9542994"><ele>116.0</ele></trkpt><trkpt lat="55.7194398" lon="13.9547800"><ele>113.0</ele></trkpt><trkpt lat="55.7193796" lon="13.9550198"><ele>113.0</ele></trkpt><trkpt lat="55.7192997" lon="13.9552498"><ele>112.0</ele></trkpt><trkpt lat="55.7191499" lon="13.9557699"><ele>110.0</ele></trkpt><trkpt lat="55.7190497" lon="13.9560592"><ele>109.0</ele></trkpt><trkpt lat="55.7189536" lon="13.9564113"><ele>109.0</ele></trkpt><trkpt lat="55.7188195" lon="13.9569000"><ele>109.0</ele></trkpt><trkpt lat="55.7187077" lon="13.9572396"><ele>110.0</ele></trkpt><trkpt lat="55.7185498" lon="13.9577193"><ele>112.0</ele></trkpt><trkpt lat="55.7184896" lon="13.9579196"><ele>113.0</ele></trkpt><trkpt lat="55.7184395" lon="13.9580597"><ele>114.0</ele></trkpt><trkpt lat="55.7183697" lon="13.9582394"><ele>114.0</ele></trkpt><trkpt lat="55.7182498" lon="13.9584595"><ele>115.0</ele></trkpt><trkpt lat="55.7183100" lon="13.9585700"><ele>115.0</ele></trkpt><trkpt lat="55.7184198" lon="13.9586194"><ele>115.0</ele></trkpt><trkpt lat="55.7185397" lon="13.9587397"><ele>115.0</ele></trkpt><trkpt lat="55.7185600" lon="13.9588296"><ele>116.0</ele></trkpt><trkpt lat="55.7185696" lon="13.9589895"><ele>116.0</ele></trkpt><trkpt lat="55.7185898" lon="13.9591691"><ele>116.0</ele></trkpt><trkpt lat="55.7185898" lon="13.9593299"><ele>116.0</ele></trkpt><trkpt lat="55.7185999" lon="13.9595392"><ele>116.0</ele></trkpt><trkpt lat="55.7185898" lon="13.9597998"><ele>116.0</ele></trkpt><trkpt lat="55.7185898" lon="13.9599893"><ele>116.0</ele></trkpt><trkpt lat="55.7185797" lon="13.9602795"><ele>116.0</ele></trkpt><trkpt lat="55.7185898" lon="13.9604897"><ele>116.0</ele></trkpt><trkpt lat="55.7185696" lon="13.9607394"><ele>116.0</ele></trkpt><trkpt lat="55.7185696" lon="13.9609397"><ele>116.0</ele></trkpt><trkpt lat="55.7185792" lon="13.9611966"><ele>115.0</ele></trkpt><trkpt lat="55.7185898" lon="13.9614796"><ele>115.0</ele></trkpt><trkpt lat="55.7185696" lon="13.9616691"><ele>115.0</ele></trkpt><trkpt lat="55.7185397" lon="13.9618596"><ele>114.0</ele></trkpt><trkpt lat="55.7185296" lon="13.9620797"><ele>114.0</ele></trkpt><trkpt lat="55.7185099" lon="13.9622297"><ele>114.0</ele></trkpt><trkpt lat="55.7184299" lon="13.9624695"><ele>114.0</ele></trkpt><trkpt lat="55.7182999" lon="13.9625899"><ele>115.0</ele></trkpt><trkpt lat="55.7181896" lon="13.9626798"><ele>116.0</ele></trkpt><trkpt lat="55.7181496" lon="13.9627498"><ele>115.0</ele></trkpt><trkpt lat="55.7181197" lon="13.9628298"><ele>115.0</ele></trkpt><trkpt lat="55.7180499" lon="13.9630597"><ele>116.0</ele></trkpt><trkpt lat="55.7179700" lon="13.9632699"><ele>116.0</ele></trkpt><trkpt lat="55.7178698" lon="13.9633598"><ele>117.0</ele></trkpt><trkpt lat="55.7177600" lon="13.9633795"><ele>118.0</ele></trkpt><trkpt lat="55.7176598" lon="13.9633598"><ele>118.0</ele></trkpt><trkpt lat="55.7175399" lon="13.9633894"><ele>119.0</ele></trkpt><trkpt lat="55.7174098" lon="13.9633795"><ele>120.0</ele></trkpt><trkpt lat="55.7173096" lon="13.9633194"><ele>121.0</ele></trkpt><trkpt lat="55.7171498" lon="13.9631298"><ele>122.0</ele></trkpt><trkpt lat="55.7170698" lon="13.9630193"><ele>122.0</ele></trkpt><trkpt lat="55.7169499" lon="13.9629196"><ele>123.0</ele></trkpt><trkpt lat="55.7168795" lon="13.9629394"><ele>124.0</ele></trkpt><trkpt lat="55.7168795" lon="13.9631397"><ele>123.0</ele></trkpt><trkpt lat="55.7168998" lon="13.9633697"><ele>123.0</ele></trkpt><trkpt lat="55.7169099" lon="13.9635799"><ele>123.0</ele></trkpt><trkpt lat="55.7170698" lon="13.9639194"><ele>122.0</ele></trkpt><trkpt lat="55.7171897" lon="13.9641395"><ele>121.0</ele></trkpt><trkpt lat="55.7172798" lon="13.9643192"><ele>120.0</ele></trkpt><trkpt lat="55.7173299" lon="13.9647396"><ele>119.0</ele></trkpt><trkpt lat="55.7172899" lon="13.9649291"><ele>119.0</ele></trkpt><trkpt lat="55.7172596" lon="13.9651097"><ele>119.0</ele></trkpt><trkpt lat="55.7172398" lon="13.9651995"><ele>118.0</ele></trkpt><trkpt lat="55.7172499" lon="13.9653495"><ele>118.0</ele></trkpt><trkpt lat="55.7172697" lon="13.9655400"><ele>117.0</ele></trkpt><trkpt lat="55.7172697" lon="13.9657592"><ele>116.0</ele></trkpt><trkpt lat="55.7172297" lon="13.9660197"><ele>115.0</ele></trkpt><trkpt lat="55.7171599" lon="13.9662398"><ele>114.0</ele></trkpt><trkpt lat="55.7170698" lon="13.9664096"><ele>113.0</ele></trkpt><trkpt lat="55.7170096" lon="13.9666494"><ele>113.0</ele></trkpt><trkpt lat="55.7169696" lon="13.9669593"><ele>112.0</ele></trkpt><trkpt lat="55.7168897" lon="13.9672297"><ele>112.0</ele></trkpt><trkpt lat="55.7168097" lon="13.9673600"><ele>112.0</ele></trkpt><trkpt lat="55.7167495" lon="13.9675100"><ele>112.0</ele></trkpt><trkpt lat="55.7166696" lon="13.9677597"><ele>112.0</ele></trkpt><trkpt lat="55.7165496" lon="13.9681999"><ele>112.0</ele></trkpt><trkpt lat="55.7165097" lon="13.9683796"><ele>112.0</ele></trkpt><trkpt lat="55.7164499" lon="13.9685898"><ele>112.0</ele></trkpt><trkpt lat="55.7163796" lon="13.9688691"><ele>112.0</ele></trkpt><trkpt lat="55.7162708" lon="13.9692419"><ele>112.0</ele></trkpt><trkpt lat="55.7160897" lon="13.9698600"><ele>113.0</ele></trkpt><trkpt lat="55.7160598" lon="13.9699992"><ele>113.0</ele></trkpt><trkpt lat="55.7161600" lon="13.9702696"><ele>113.0</ele></trkpt><trkpt lat="55.7162698" lon="13.9703397"><ele>113.0</ele></trkpt><trkpt lat="55.7163796" lon="13.9704493"><ele>113.0</ele></trkpt><trkpt lat="55.7165699" lon="13.9705795"><ele>112.0</ele></trkpt><trkpt lat="55.7167298" lon="13.9706792"><ele>112.0</ele></trkpt><trkpt lat="55.7168897" lon="13.9707996"><ele>111.0</ele></trkpt><trkpt lat="55.7170197" lon="13.9709092"><ele>111.0</ele></trkpt><trkpt lat="55.7171396" lon="13.9710296"><ele>110.0</ele></trkpt><trkpt lat="55.7172398" lon="13.9711697"><ele>110.0</ele></trkpt><trkpt lat="55.7172899" lon="13.9714096"><ele>109.0</ele></trkpt><trkpt lat="55.7173299" lon="13.9716395"><ele>108.0</ele></trkpt><trkpt lat="55.7174200" lon="13.9718695"><ele>108.0</ele></trkpt><trkpt lat="55.7174898" lon="13.9720995"><ele>107.0</ele></trkpt><trkpt lat="55.7175095" lon="13.9723600"><ele>107.0</ele></trkpt><trkpt lat="55.7174797" lon="13.9724992"><ele>106.0</ele></trkpt><trkpt lat="55.7173997" lon="13.9726897"><ele>106.0</ele></trkpt><trkpt lat="55.7173198" lon="13.9729098"><ele>105.0</ele></trkpt><trkpt lat="55.7172499" lon="13.9731397"><ele>104.0</ele></trkpt><trkpt lat="55.7170997" lon="13.9737191"><ele>104.0</ele></trkpt><trkpt lat="55.7170399" lon="13.9740300"><ele>104.0</ele></trkpt><trkpt lat="55.7169899" lon="13.9742294"><ele>104.0</ele></trkpt><trkpt lat="55.7169499" lon="13.9743291"><ele>104.0</ele></trkpt><trkpt lat="55.7168998" lon="13.9746193"><ele>104.0</ele></trkpt><trkpt lat="55.7168497" lon="13.9749597"><ele>105.0</ele></trkpt><trkpt lat="55.7168198" lon="13.9752993"><ele>105.0</ele></trkpt><trkpt lat="55.7168097" lon="13.9755391"><ele>105.0</ele></trkpt><trkpt lat="55.7167900" lon="13.9757538"><ele>105.0</ele></trkpt><trkpt lat="55.7167697" lon="13.9759694"><ele>105.0</ele></trkpt><trkpt lat="55.7166999" lon="13.9764797"><ele>105.0</ele></trkpt><trkpt lat="55.7166200" lon="13.9766899"><ele>105.0</ele></trkpt><trkpt lat="55.7165997" lon="13.9768291"><ele>105.0</ele></trkpt><trkpt lat="55.7165097" lon="13.9770097"><ele>105.0</ele></trkpt><trkpt lat="55.7163897" lon="13.9771992"><ele>104.0</ele></trkpt><trkpt lat="55.7162399" lon="13.9773798"><ele>104.0</ele></trkpt><trkpt lat="55.7161600" lon="13.9775792"><ele>104.0</ele></trkpt><trkpt lat="55.7162096" lon="13.9776196"><ele>104.0</ele></trkpt><trkpt lat="55.7163098" lon="13.9776798"><ele>104.0</ele></trkpt><trkpt lat="55.7164596" lon="13.9777993"><ele>104.0</ele></trkpt><trkpt lat="55.7164697" lon="13.9780293"><ele>104.0</ele></trkpt><trkpt lat="55.7164297" lon="13.9781892"><ele>104.0</ele></trkpt><trkpt lat="55.7164196" lon="13.9782997"><ele>104.0</ele></trkpt><trkpt lat="55.7163396" lon="13.9784694"><ele>104.0</ele></trkpt><trkpt lat="55.7162698" lon="13.9786994"><ele>104.0</ele></trkpt><trkpt lat="55.7162698" lon="13.9788593"><ele>104.0</ele></trkpt><trkpt lat="55.7162399" lon="13.9791099"><ele>104.0</ele></trkpt><trkpt lat="55.7161600" lon="13.9792294"><ele>104.0</ele></trkpt><trkpt lat="55.7160795" lon="13.9792698"><ele>104.0</ele></trkpt><trkpt lat="55.7160300" lon="13.9793291"><ele>104.0</ele></trkpt><trkpt lat="55.7159399" lon="13.9793597"><ele>104.0</ele></trkpt><trkpt lat="55.7157597" lon="13.9793094"><ele>103.0</ele></trkpt><trkpt lat="55.7156697" lon="13.9793794"><ele>103.0</ele></trkpt><trkpt lat="55.7155497" lon="13.9794396"><ele>103.0</ele></trkpt><trkpt lat="55.7153499" lon="13.9797594"><ele>102.0</ele></trkpt><trkpt lat="55.7152395" lon="13.9799795"><ele>102.0</ele></trkpt><trkpt lat="55.7151297" lon="13.9801592"><ele>101.0</ele></trkpt><trkpt lat="55.7150295" lon="13.9803793"><ele>101.0</ele></trkpt><trkpt lat="55.7149496" lon="13.9805993"><ele>101.0</ele></trkpt><trkpt lat="55.7148646" lon="13.9808051"><ele>100.0</ele></trkpt><trkpt lat="55.7147598" lon="13.9810593"><ele>100.0</ele></trkpt><trkpt lat="55.7146698" lon="13.9812991"><ele>99.0</ele></trkpt><trkpt lat="55.7145898" lon="13.9814599"><ele>98.0</ele></trkpt><trkpt lat="55.7144997" lon="13.9816899"><ele>98.0</ele></trkpt><trkpt lat="55.7144496" lon="13.9819899"><ele>98.0</ele></trkpt><trkpt lat="55.7143798" lon="13.9822397"><ele>98.0</ele></trkpt><trkpt lat="55.7142897" lon="13.9825199"><ele>98.0</ele></trkpt><trkpt lat="55.7142098" lon="13.9828397"><ele>97.0</ele></trkpt><trkpt lat="55.7141197" lon="13.9831299"><ele>97.0</ele></trkpt><trkpt lat="55.7140600" lon="13.9834299"><ele>97.0</ele></trkpt><trkpt lat="55.7140898" lon="13.9836096"><ele>96.0</ele></trkpt><trkpt lat="55.7141096" lon="13.9840498"><ele>96.0</ele></trkpt><trkpt lat="55.7141096" lon="13.9842294"><ele>96.0</ele></trkpt><trkpt lat="55.7140600" lon="13.9845295"><ele>95.0</ele></trkpt><trkpt lat="55.7140898" lon="13.9847298"><ele>94.0</ele></trkpt><trkpt lat="55.7141698" lon="13.9848493"><ele>95.0</ele></trkpt><trkpt lat="55.7142897" lon="13.9850092"><ele>96.0</ele></trkpt><trkpt lat="55.7143995" lon="13.9853496"><ele>98.0</ele></trkpt><trkpt lat="55.7145397" lon="13.9856892"><ele>99.0</ele></trkpt><trkpt lat="55.7145397" lon="13.9858096"><ele>100.0</ele></trkpt><trkpt lat="55.7144699" lon="13.9860099"><ele>100.0</ele></trkpt><trkpt lat="55.7144097" lon="13.9861393"><ele>101.0</ele></trkpt><trkpt lat="55.7143100" lon="13.9863917"><ele>100.0</ele></trkpt><trkpt lat="55.7141799" lon="13.9867196"><ele>100.0</ele></trkpt><trkpt lat="55.7141298" lon="13.9869693"><ele>101.0</ele></trkpt><trkpt lat="55.7140600" lon="13.9871993"><ele>100.0</ele></trkpt><trkpt lat="55.7139497" lon="13.9873897"><ele>99.0</ele></trkpt><trkpt lat="55.7138399" lon="13.9876098"><ele>98.0</ele></trkpt><trkpt lat="55.7137397" lon="13.9877895"><ele>97.0</ele></trkpt><trkpt lat="55.7136496" lon="13.9880095"><ele>97.0</ele></trkpt><trkpt lat="55.7135499" lon="13.9882898"><ele>97.0</ele></trkpt><trkpt lat="55.7134998" lon="13.9884991"><ele>98.0</ele></trkpt><trkpt lat="55.7135099" lon="13.9887093"><ele>98.0</ele></trkpt><trkpt lat="55.7135398" lon="13.9889797"><ele>99.0</ele></trkpt><trkpt lat="55.7134795" lon="13.9890696"><ele>99.0</ele></trkpt><trkpt lat="55.7133500" lon="13.9891396"><ele>99.0</ele></trkpt><trkpt lat="55.7132296" lon="13.9892393"><ele>99.0</ele></trkpt><trkpt lat="55.7131197" lon="13.9893193"><ele>99.0</ele></trkpt><trkpt lat="55.7128095" lon="13.9893795"><ele>98.0</ele></trkpt><trkpt lat="55.7126997" lon="13.9893696"><ele>98.0</ele></trkpt><trkpt lat="55.7125995" lon="13.9894397"><ele>98.0</ele></trkpt><trkpt lat="55.7124598" lon="13.9895798"><ele>98.0</ele></trkpt><trkpt lat="55.7123698" lon="13.9895798"><ele>98.0</ele></trkpt><trkpt lat="55.7123095" lon="13.9896598"><ele>98.0</ele></trkpt><trkpt lat="55.7122296" lon="13.9897298"><ele>98.0</ele></trkpt><trkpt lat="55.7121198" lon="13.9898493"><ele>97.0</ele></trkpt><trkpt lat="55.7119897" lon="13.9900200"><ele>96.0</ele></trkpt><trkpt lat="55.7119396" lon="13.9901592"><ele>95.0</ele></trkpt><trkpt lat="55.7119199" lon="13.9902994"><ele>96.0</ele></trkpt><trkpt lat="55.7118399" lon="13.9904296"><ele>95.0</ele></trkpt><trkpt lat="55.7118197" lon="13.9905895"><ele>95.0</ele></trkpt><trkpt lat="55.7117797" lon="13.9907997"><ele>94.0</ele></trkpt><trkpt lat="55.7117797" lon="13.9909991"><ele>95.0</ele></trkpt><trkpt lat="55.7117999" lon="13.9912192"><ele>94.0</ele></trkpt><trkpt lat="55.7118399" lon="13.9914600"><ele>95.0</ele></trkpt><trkpt lat="55.7118399" lon="13.9917097"><ele>95.0</ele></trkpt><trkpt lat="55.7118596" lon="13.9918292"><ele>95.0</ele></trkpt><trkpt lat="55.7118596" lon="13.9921696"><ele>96.0</ele></trkpt><trkpt lat="55.7118698" lon="13.9922694"><ele>96.0</ele></trkpt><trkpt lat="55.7118596" lon="13.9924796"><ele>96.0</ele></trkpt><trkpt lat="55.7118895" lon="13.9925999"><ele>97.0</ele></trkpt><trkpt lat="55.7118895" lon="13.9927598"><ele>97.0</ele></trkpt><trkpt lat="55.7118596" lon="13.9929691"><ele>97.0</ele></trkpt><trkpt lat="55.7118197" lon="13.9931695"><ele>98.0</ele></trkpt><trkpt lat="55.7117200" lon="13.9935495"><ele>98.0</ele></trkpt><trkpt lat="55.7116598" lon="13.9937498"><ele>97.0</ele></trkpt><trkpt lat="55.7116395" lon="13.9939699"><ele>98.0</ele></trkpt><trkpt lat="55.7116096" lon="13.9941900"><ele>98.0</ele></trkpt><trkpt lat="55.7115798" lon="13.9943193"><ele>98.0</ele></trkpt><trkpt lat="55.7115398" lon="13.9943894"><ele>98.0</ele></trkpt><trkpt lat="55.7114897" lon="13.9944298"><ele>96.0</ele></trkpt><trkpt lat="55.7113996" lon="13.9946292"><ele>97.0</ele></trkpt><trkpt lat="55.7112696" lon="13.9948197"><ele>94.0</ele></trkpt><trkpt lat="55.7111395" lon="13.9949895"><ele>93.0</ele></trkpt><trkpt lat="55.7109897" lon="13.9951098"><ele>91.0</ele></trkpt><trkpt lat="55.7108298" lon="13.9951296"><ele>90.0</ele></trkpt><trkpt lat="55.7106395" lon="13.9950892"><ele>89.0</ele></trkpt><trkpt lat="55.7104897" lon="13.9950200"><ele>87.0</ele></trkpt><trkpt lat="55.7103799" lon="13.9950299"><ele>87.0</ele></trkpt><trkpt lat="55.7102599" lon="13.9951098"><ele>87.0</ele></trkpt><trkpt lat="55.7101197" lon="13.9950892"><ele>87.0</ele></trkpt><trkpt lat="55.7099998" lon="13.9951197"><ele>87.0</ele></trkpt><trkpt lat="55.7098596" lon="13.9951197"><ele>86.0</ele></trkpt><trkpt lat="55.7097599" lon="13.9952095"><ele>87.0</ele></trkpt><trkpt lat="55.7096896" lon="13.9953093"><ele>87.0</ele></trkpt><trkpt lat="55.7096298" lon="13.9954197"><ele>87.0</ele></trkpt><trkpt lat="55.7094896" lon="13.9956093"><ele>88.0</ele></trkpt><trkpt lat="55.7093196" lon="13.9957899"><ele>88.0</ele></trkpt><trkpt lat="55.7091698" lon="13.9958797"><ele>88.0</ele></trkpt><trkpt lat="55.7090600" lon="13.9960297"><ele>89.0</ele></trkpt><trkpt lat="55.7090296" lon="13.9961995"><ele>89.0</ele></trkpt><trkpt lat="55.7089699" lon="13.9964798"><ele>89.0</ele></trkpt><trkpt lat="55.7089198" lon="13.9969693"><ele>90.0</ele></trkpt><trkpt lat="55.7089198" lon="13.9972299"><ele>91.0</ele></trkpt><trkpt lat="55.7089395" lon="13.9975595"><ele>92.0</ele></trkpt><trkpt lat="55.7089997" lon="13.9979099"><ele>93.0</ele></trkpt><trkpt lat="55.7090296" lon="13.9980195"><ele>94.0</ele></trkpt><trkpt lat="55.7091799" lon="13.9983393"><ele>95.0</ele></trkpt><trkpt lat="55.7091597" lon="13.9984893"><ele>96.0</ele></trkpt><trkpt lat="55.7090898" lon="13.9985791"><ele>96.0</ele></trkpt><trkpt lat="55.7090397" lon="13.9986896"><ele>96.0</ele></trkpt><trkpt lat="55.7088899" lon="13.9988899"><ele>96.0</ele></trkpt><trkpt lat="55.7087796" lon="13.9989798"><ele>95.0</ele></trkpt><trkpt lat="55.7087199" lon="13.9990400"><ele>96.0</ele></trkpt><trkpt lat="55.7086596" lon="13.9990597"><ele>95.0</ele></trkpt><trkpt lat="55.7085797" lon="13.9990597"><ele>95.0</ele></trkpt><trkpt lat="55.7085296" lon="13.9991298"><ele>95.0</ele></trkpt><trkpt lat="55.7084496" lon="13.9991900"><ele>94.0</ele></trkpt><trkpt lat="55.7082598" lon="13.9990992"><ele>93.0</ele></trkpt><trkpt lat="55.7081798" lon="13.9990894"><ele>93.0</ele></trkpt><trkpt lat="55.7080897" lon="13.9992295"><ele>93.0</ele></trkpt><trkpt lat="55.7080897" lon="13.9993400"><ele>94.0</ele></trkpt><trkpt lat="55.7080199" lon="13.9994397"><ele>94.0</ele></trkpt><trkpt lat="55.7079561" lon="13.9996203"><ele>94.0</ele></trkpt><trkpt lat="55.7078898" lon="13.9998098"><ele>94.0</ele></trkpt><trkpt lat="55.7078498" lon="13.9999392"><ele>94.0</ele></trkpt><trkpt lat="55.7077997" lon="14.0000497"><ele>94.0</ele></trkpt><trkpt lat="55.7077997" lon="14.0004494"><ele>94.0</ele></trkpt><trkpt lat="55.7078200" lon="14.0006300"><ele>94.0</ele></trkpt><trkpt lat="55.7078696" lon="14.0008599"><ele>94.0</ele></trkpt><trkpt lat="55.7079496" lon="14.0009695"><ele>95.0</ele></trkpt><trkpt lat="55.7080199" lon="14.0011196"><ele>94.0</ele></trkpt><trkpt lat="55.7080599" lon="14.0012597"><ele>95.0</ele></trkpt><trkpt lat="55.7080897" lon="14.0014394"><ele>94.0</ele></trkpt><trkpt lat="55.7081399" lon="14.0015993"><ele>94.0</ele></trkpt><trkpt lat="55.7081596" lon="14.0017996"><ele>93.0</ele></trkpt><trkpt lat="55.7081996" lon="14.0019496"><ele>93.0</ele></trkpt><trkpt lat="55.7082598" lon="14.0020296"><ele>93.0</ele></trkpt><trkpt lat="55.7083099" lon="14.0020799"><ele>93.0</ele></trkpt><trkpt lat="55.7083798" lon="14.0021194"><ele>93.0</ele></trkpt><trkpt lat="55.7084400" lon="14.0021697"><ele>94.0</ele></trkpt><trkpt lat="55.7085098" lon="14.0023494"><ele>94.0</ele></trkpt><trkpt lat="55.7085999" lon="14.0024293"><ele>94.0</ele></trkpt><trkpt lat="55.7086996" lon="14.0025596"><ele>94.0</ele></trkpt><trkpt lat="55.7087796" lon="14.0026898"><ele>94.0</ele></trkpt><trkpt lat="55.7088499" lon="14.0028093"><ele>93.0</ele></trkpt><trkpt lat="55.7089097" lon="14.0029395"><ele>94.0</ele></trkpt><trkpt lat="55.7089496" lon="14.0031093"><ele>92.0</ele></trkpt><trkpt lat="55.7090600" lon="14.0034094"><ele>94.0</ele></trkpt><trkpt lat="55.7091495" lon="14.0034893"><ele>93.0</ele></trkpt><trkpt lat="55.7093297" lon="14.0037696"><ele>94.0</ele></trkpt><trkpt lat="55.7093899" lon="14.0039394"><ele>93.0</ele></trkpt><trkpt lat="55.7094896" lon="14.0041092"><ele>94.0</ele></trkpt><trkpt lat="55.7096000" lon="14.0042897"><ele>94.0</ele></trkpt><trkpt lat="55.7096997" lon="14.0043993"><ele>94.0</ele></trkpt><trkpt lat="55.7097498" lon="14.0045996"><ele>93.0</ele></trkpt><trkpt lat="55.7097199" lon="14.0047694"><ele>92.0</ele></trkpt><trkpt lat="55.7097098" lon="14.0050191"><ele>91.0</ele></trkpt><trkpt lat="55.7097098" lon="14.0051898"><ele>91.0</ele></trkpt><trkpt lat="55.7097295" lon="14.0053893"><ele>91.0</ele></trkpt><trkpt lat="55.7097295" lon="14.0056794"><ele>90.0</ele></trkpt><trkpt lat="55.7097498" lon="14.0058492"><ele>90.0</ele></trkpt><trkpt lat="55.7097599" lon="14.0061097"><ele>90.0</ele></trkpt><trkpt lat="55.7097498" lon="14.0062597"><ele>90.0</ele></trkpt><trkpt lat="55.7097695" lon="14.0066397"><ele>90.0</ele></trkpt><trkpt lat="55.7098095" lon="14.0068194"><ele>92.0</ele></trkpt><trkpt lat="55.7098799" lon="14.0068499"><ele>92.0</ele></trkpt><trkpt lat="55.7098996" lon="14.0067493"><ele>93.0</ele></trkpt><trkpt lat="55.7099598" lon="14.0066092"><ele>93.0</ele></trkpt><trkpt lat="55.7100099" lon="14.0065292"><ele>94.0</ele></trkpt><trkpt lat="55.7100995" lon="14.0065499"><ele>96.0</ele></trkpt><trkpt lat="55.7101400" lon="14.0068095"><ele>96.0</ele></trkpt><trkpt lat="55.7101698" lon="14.0070395"><ele>96.0</ele></trkpt><trkpt lat="55.7102098" lon="14.0072595"><ele>98.0</ele></trkpt><trkpt lat="55.7102296" lon="14.0074392"><ele>98.0</ele></trkpt><trkpt lat="55.7102199" lon="14.0077096"><ele>98.0</ele></trkpt><trkpt lat="55.7101997" lon="14.0079593"><ele>97.0</ele></trkpt><trkpt lat="55.7101511" lon="14.0081641"><ele>98.0</ele></trkpt><trkpt lat="55.7100995" lon="14.0083797"><ele>98.0</ele></trkpt><trkpt lat="55.7100195" lon="14.0085199"><ele>98.0</ele></trkpt><trkpt lat="55.7099699" lon="14.0087094"><ele>97.0</ele></trkpt><trkpt lat="55.7098799" lon="14.0088999"><ele>96.0</ele></trkpt><trkpt lat="55.7098399" lon="14.0090993"><ele>97.0</ele></trkpt><trkpt lat="55.7098297" lon="14.0092197"><ele>97.0</ele></trkpt><trkpt lat="55.7098095" lon="14.0093499"><ele>98.0</ele></trkpt><trkpt lat="55.7099198" lon="14.0092296"><ele>99.0</ele></trkpt><trkpt lat="55.7100696" lon="14.0089996"><ele>99.0</ele></trkpt><trkpt lat="55.7102498" lon="14.0088900"><ele>102.0</ele></trkpt><trkpt lat="55.7103596" lon="14.0088792"><ele>103.0</ele></trkpt><trkpt lat="55.7105297" lon="14.0090095"><ele>105.0</ele></trkpt><trkpt lat="55.7107599" lon="14.0091397"><ele>107.0</ele></trkpt><trkpt lat="55.7109199" lon="14.0092098"><ele>108.0</ele></trkpt><trkpt lat="55.7110297" lon="14.0092996"><ele>108.0</ele></trkpt><trkpt lat="55.7110899" lon="14.0092996"><ele>108.0</ele></trkpt><trkpt lat="55.7111198" lon="14.0094398"><ele>108.0</ele></trkpt><trkpt lat="55.7110059" lon="14.0096967"><ele>108.0</ele></trkpt><trkpt lat="55.7108495" lon="14.0100497"><ele>108.0</ele></trkpt><trkpt lat="55.7107134" lon="14.0103812"><ele>108.0</ele></trkpt><trkpt lat="55.7104998" lon="14.0108995"><ele>109.0</ele></trkpt><trkpt lat="55.7103596" lon="14.0112094"><ele>110.0</ele></trkpt><trkpt lat="55.7102599" lon="14.0114493"><ele>110.0</ele></trkpt><trkpt lat="55.7101997" lon="14.0116694"><ele>109.0</ele></trkpt><trkpt lat="55.7101496" lon="14.0119299"><ele>110.0</ele></trkpt><trkpt lat="55.7101400" lon="14.0121599"><ele>110.0</ele></trkpt><trkpt lat="55.7101400" lon="14.0122596"><ele>110.0</ele></trkpt><trkpt lat="55.7100995" lon="14.0123898"><ele>110.0</ele></trkpt><trkpt lat="55.7100499" lon="14.0125794"><ele>109.0</ele></trkpt><trkpt lat="55.7098996" lon="14.0129899"><ele>108.0</ele></trkpt><trkpt lat="55.7098399" lon="14.0131696"><ele>106.0</ele></trkpt><trkpt lat="55.7097199" lon="14.0134094"><ele>105.0</ele></trkpt><trkpt lat="55.7096298" lon="14.0135594"><ele>104.0</ele></trkpt><trkpt lat="55.7095296" lon="14.0138298"><ele>102.0</ele></trkpt><trkpt lat="55.7094699" lon="14.0141299"><ele>100.0</ele></trkpt><trkpt lat="55.7094395" lon="14.0143796"><ele>100.0</ele></trkpt><trkpt lat="55.7094299" lon="14.0145691"><ele>99.0</ele></trkpt><trkpt lat="55.7093899" lon="14.0148593"><ele>97.0</ele></trkpt><trkpt lat="55.7093899" lon="14.0150300"><ele>97.0</ele></trkpt><trkpt lat="55.7093798" lon="14.0151800"><ele>97.0</ele></trkpt><trkpt lat="55.7092897" lon="14.0157792"><ele>95.0</ele></trkpt><trkpt lat="55.7092295" lon="14.0159597"><ele>95.0</ele></trkpt><trkpt lat="55.7091399" lon="14.0161295"><ele>93.0</ele></trkpt><trkpt lat="55.7090898" lon="14.0163595"><ele>92.0</ele></trkpt><trkpt lat="55.7090453" lon="14.0166128"><ele>92.0</ele></trkpt><trkpt lat="55.7089896" lon="14.0169299"><ele>90.0</ele></trkpt><trkpt lat="55.7088899" lon="14.0172093"><ele>88.0</ele></trkpt><trkpt lat="55.7087700" lon="14.0173692"><ele>86.0</ele></trkpt><trkpt lat="55.7086495" lon="14.0175497"><ele>84.0</ele></trkpt><trkpt lat="55.7085898" lon="14.0177294"><ele>82.0</ele></trkpt><trkpt lat="55.7085498" lon="14.0179100"><ele>82.0</ele></trkpt><trkpt lat="55.7085599" lon="14.0181399"><ele>81.0</ele></trkpt><trkpt lat="55.7085797" lon="14.0183196"><ele>81.0</ele></trkpt><trkpt lat="55.7086298" lon="14.0185397"><ele>81.0</ele></trkpt><trkpt lat="55.7086399" lon="14.0186592"><ele>81.0</ele></trkpt><trkpt lat="55.7085498" lon="14.0186996"><ele>78.0</ele></trkpt><trkpt lat="55.7084496" lon="14.0185298"><ele>78.0</ele></trkpt><trkpt lat="55.7083696" lon="14.0182792"><ele>78.0</ele></trkpt><trkpt lat="55.7083296" lon="14.0181292"><ele>78.0</ele></trkpt><trkpt lat="55.7083195" lon="14.0179693"><ele>78.0</ele></trkpt><trkpt lat="55.7083296" lon="14.0178399"><ele>79.0</ele></trkpt><trkpt lat="55.7083195" lon="14.0177393"><ele>79.0</ele></trkpt><trkpt lat="55.7083195" lon="14.0175695"><ele>79.0</ele></trkpt><trkpt lat="55.7083696" lon="14.0174096"><ele>79.0</ele></trkpt><trkpt lat="55.7083696" lon="14.0172596"><ele>79.0</ele></trkpt><trkpt lat="55.7083296" lon="14.0171895"><ele>80.0</ele></trkpt><trkpt lat="55.7083595" lon="14.0170197"><ele>79.0</ele></trkpt><trkpt lat="55.7084197" lon="14.0170494"><ele>81.0</ele></trkpt><trkpt lat="55.7083595" lon="14.0170197"><ele>80.0</ele></trkpt><trkpt lat="55.7082396" lon="14.0170691"><ele>79.0</ele></trkpt><trkpt lat="55.7081100" lon="14.0171895"><ele>79.0</ele></trkpt><trkpt lat="55.7080599" lon="14.0173297"><ele>79.0</ele></trkpt><trkpt lat="55.7079997" lon="14.0174698"><ele>79.0</ele></trkpt><trkpt lat="55.7079298" lon="14.0176899"><ele>79.0</ele></trkpt><trkpt lat="55.7079096" lon="14.0177896"><ele>78.0</ele></trkpt><trkpt lat="55.7078898" lon="14.0180600"><ele>77.0</ele></trkpt><trkpt lat="55.7078296" lon="14.0181893"><ele>76.0</ele></trkpt><trkpt lat="55.7078099" lon="14.0183394"><ele>75.0</ele></trkpt><trkpt lat="55.7077598" lon="14.0185091"><ele>74.0</ele></trkpt><trkpt lat="55.7076697" lon="14.0186897"><ele>73.0</ele></trkpt><trkpt lat="55.7075998" lon="14.0188793"><ele>72.0</ele></trkpt><trkpt lat="55.7075097" lon="14.0190796"><ele>71.0</ele></trkpt><trkpt lat="55.7074095" lon="14.0192395"><ele>69.0</ele></trkpt><trkpt lat="55.7073296" lon="14.0193895"><ele>68.0</ele></trkpt><trkpt lat="55.7072698" lon="14.0196599"><ele>66.0</ele></trkpt><trkpt lat="55.7072496" lon="14.0199393"><ele>64.0</ele></trkpt><trkpt lat="55.7072400" lon="14.0202393"><ele>64.0</ele></trkpt><trkpt lat="55.7072496" lon="14.0204693"><ele>64.0</ele></trkpt><trkpt lat="55.7072799" lon="14.0208394"><ele>64.0</ele></trkpt><trkpt lat="55.7073695" lon="14.0210891"><ele>65.0</ele></trkpt><trkpt lat="55.7073999" lon="14.0212598"><ele>65.0</ele></trkpt><trkpt lat="55.7074196" lon="14.0214098"><ele>65.0</ele></trkpt><trkpt lat="55.7074996" lon="14.0215392"><ele>65.0</ele></trkpt><trkpt lat="55.7075700" lon="14.0216092"><ele>65.0</ele></trkpt><trkpt lat="55.7076398" lon="14.0216595"><ele>65.0</ele></trkpt><trkpt lat="55.7076995" lon="14.0217296"><ele>65.0</ele></trkpt><trkpt lat="55.7077299" lon="14.0218096"><ele>65.0</ele></trkpt><trkpt lat="55.7077198" lon="14.0220099"><ele>65.0</ele></trkpt><trkpt lat="55.7077699" lon="14.0221294"><ele>65.0</ele></trkpt><trkpt lat="55.7077795" lon="14.0222695"><ele>66.0</ele></trkpt><trkpt lat="55.7077997" lon="14.0223998"><ele>67.0</ele></trkpt><trkpt lat="55.7078296" lon="14.0226998"><ele>67.0</ele></trkpt><trkpt lat="55.7078600" lon="14.0227797"><ele>67.0</ele></trkpt><trkpt lat="55.7079197" lon="14.0230492"><ele>66.0</ele></trkpt><trkpt lat="55.7080498" lon="14.0231400"><ele>67.0</ele></trkpt><trkpt lat="55.7082299" lon="14.0232298"><ele>66.0</ele></trkpt><trkpt lat="55.7083099" lon="14.0233097"><ele>66.0</ele></trkpt><trkpt lat="55.7083595" lon="14.0233493"><ele>66.0</ele></trkpt><trkpt lat="55.7084197" lon="14.0233295"><ele>66.0</ele></trkpt><trkpt lat="55.7084800" lon="14.0233897"><ele>65.0</ele></trkpt><trkpt lat="55.7085098" lon="14.0235792"><ele>67.0</ele></trkpt><trkpt lat="55.7085296" lon="14.0237894"><ele>69.0</ele></trkpt><trkpt lat="55.7085999" lon="14.0238892"><ele>69.0</ele></trkpt><trkpt lat="55.7086996" lon="14.0241398"><ele>73.0</ele></trkpt><trkpt lat="55.7087598" lon="14.0241892"><ele>72.0</ele></trkpt><trkpt lat="55.7088297" lon="14.0242000"><ele>73.0</ele></trkpt><trkpt lat="55.7089795" lon="14.0243096"><ele>72.0</ele></trkpt><trkpt lat="55.7090600" lon="14.0242898"><ele>72.0</ele></trkpt><trkpt lat="55.7091399" lon="14.0243500"><ele>72.0</ele></trkpt><trkpt lat="55.7092199" lon="14.0244299"><ele>73.0</ele></trkpt><trkpt lat="55.7093100" lon="14.0244892"><ele>72.0</ele></trkpt><trkpt lat="55.7094598" lon="14.0245395"><ele>72.0</ele></trkpt><trkpt lat="55.7096698" lon="14.0246393"><ele>71.0</ele></trkpt><trkpt lat="55.7097695" lon="14.0246393"><ele>71.0</ele></trkpt><trkpt lat="55.7098500" lon="14.0246491"><ele>70.0</ele></trkpt><trkpt lat="55.7099598" lon="14.0247192"><ele>70.0</ele></trkpt><trkpt lat="55.7101096" lon="14.0249599"><ele>69.0</ele></trkpt><trkpt lat="55.7101800" lon="14.0250597"><ele>70.0</ele></trkpt><trkpt lat="55.7103298" lon="14.0251791"><ele>68.0</ele></trkpt><trkpt lat="55.7103996" lon="14.0252492"><ele>69.0</ele></trkpt><trkpt lat="55.7104598" lon="14.0254594"><ele>68.0</ele></trkpt><trkpt lat="55.7105398" lon="14.0255897"><ele>68.0</ele></trkpt><trkpt lat="55.7106096" lon="14.0256894"><ele>67.0</ele></trkpt><trkpt lat="55.7106800" lon="14.0258196"><ele>68.0</ele></trkpt><trkpt lat="55.7108095" lon="14.0261296"><ele>66.0</ele></trkpt><trkpt lat="55.7108596" lon="14.0262293"><ele>67.0</ele></trkpt><trkpt lat="55.7109300" lon="14.0263299"><ele>65.0</ele></trkpt><trkpt lat="55.7109700" lon="14.0264592"><ele>65.0</ele></trkpt><trkpt lat="55.7110899" lon="14.0267494"><ele>65.0</ele></trkpt><trkpt lat="55.7112397" lon="14.0270494"><ele>65.0</ele></trkpt><trkpt lat="55.7112797" lon="14.0271599"><ele>65.0</ele></trkpt><trkpt lat="55.7113095" lon="14.0273297"><ele>65.0</ele></trkpt><trkpt lat="55.7113495" lon="14.0275094"><ele>64.0</ele></trkpt><trkpt lat="55.7113698" lon="14.0276594"><ele>64.0</ele></trkpt><trkpt lat="55.7113698" lon="14.0279998"><ele>63.0</ele></trkpt><trkpt lat="55.7113399" lon="14.0282298"><ele>63.0</ele></trkpt><trkpt lat="55.7112999" lon="14.0284697"><ele>63.0</ele></trkpt><trkpt lat="55.7112357" lon="14.0288173"><ele>63.0</ele></trkpt><trkpt lat="55.7111597" lon="14.0292296"><ele>63.0</ele></trkpt><trkpt lat="55.7111056" lon="14.0296096"><ele>64.0</ele></trkpt><trkpt lat="55.7110297" lon="14.0301396"><ele>64.0</ele></trkpt><trkpt lat="55.7109998" lon="14.0304091"><ele>64.0</ele></trkpt><trkpt lat="55.7109796" lon="14.0306894"><ele>64.0</ele></trkpt><trkpt lat="55.7109396" lon="14.0309391"><ele>66.0</ele></trkpt><trkpt lat="55.7109097" lon="14.0311996"><ele>65.0</ele></trkpt><trkpt lat="55.7108895" lon="14.0314000"><ele>68.0</ele></trkpt><trkpt lat="55.7108799" lon="14.0316192"><ele>65.0</ele></trkpt><trkpt lat="55.7108895" lon="14.0318491"><ele>68.0</ele></trkpt><trkpt lat="55.7109082" lon="14.0320980"><ele>65.0</ele></trkpt><trkpt lat="55.7109300" lon="14.0323791"><ele>65.0</ele></trkpt><trkpt lat="55.7110196" lon="14.0328597"><ele>62.0</ele></trkpt><trkpt lat="55.7110798" lon="14.0334194"><ele>60.0</ele></trkpt><trkpt lat="55.7110899" lon="14.0336395"><ele>59.0</ele></trkpt><trkpt lat="55.7110707" lon="14.0338829"><ele>59.0</ele></trkpt><trkpt lat="55.7110499" lon="14.0341497"><ele>59.0</ele></trkpt><trkpt lat="55.7110697" lon="14.0343994"><ele>58.0</ele></trkpt><trkpt lat="55.7111096" lon="14.0345692"><ele>57.0</ele></trkpt><trkpt lat="55.7111496" lon="14.0347696"><ele>57.0</ele></trkpt><trkpt lat="55.7112397" lon="14.0349896"><ele>57.0</ele></trkpt><trkpt lat="55.7112898" lon="14.0350992"><ele>56.0</ele></trkpt><trkpt lat="55.7114098" lon="14.0354199"><ele>57.0</ele></trkpt><trkpt lat="55.7114897" lon="14.0356499"><ele>58.0</ele></trkpt><trkpt lat="55.7115398" lon="14.0358493"><ele>58.0</ele></trkpt><trkpt lat="55.7116198" lon="14.0361000"><ele>58.0</ele></trkpt><trkpt lat="55.7116896" lon="14.0363497"><ele>58.0</ele></trkpt><trkpt lat="55.7118495" lon="14.0366695"><ele>58.0</ele></trkpt><trkpt lat="55.7119396" lon="14.0369093"><ele>60.0</ele></trkpt><trkpt lat="55.7119998" lon="14.0370899"><ele>61.0</ele></trkpt><trkpt lat="55.7121597" lon="14.0374196"><ele>61.0</ele></trkpt><trkpt lat="55.7122898" lon="14.0375894"><ele>62.0</ele></trkpt><trkpt lat="55.7125697" lon="14.0378696"><ele>62.0</ele></trkpt><trkpt lat="55.7126800" lon="14.0379595"><ele>63.0</ele></trkpt><trkpt lat="55.7127296" lon="14.0380098"><ele>63.0</ele></trkpt><trkpt lat="55.7129097" lon="14.0381194"><ele>63.0</ele></trkpt><trkpt lat="55.7129897" lon="14.0382092"><ele>63.0</ele></trkpt><trkpt lat="55.7131197" lon="14.0384194"><ele>63.0</ele></trkpt><trkpt lat="55.7132999" lon="14.0389297"><ele>66.0</ele></trkpt><trkpt lat="55.7133298" lon="14.0390797"><ele>66.0</ele></trkpt><trkpt lat="55.7133799" lon="14.0392800"><ele>68.0</ele></trkpt><trkpt lat="55.7134897" lon="14.0397696"><ele>70.0</ele></trkpt><trkpt lat="55.7135296" lon="14.0399699"><ele>71.0</ele></trkpt><trkpt lat="55.7135595" lon="14.0401496"><ele>71.0</ele></trkpt><trkpt lat="55.7136197" lon="14.0403697"><ele>70.0</ele></trkpt><trkpt lat="55.7136799" lon="14.0405197"><ele>71.0</ele></trkpt><trkpt lat="55.7137397" lon="14.0407092"><ele>70.0</ele></trkpt><trkpt lat="55.7138368" lon="14.0409302"><ele>68.0</ele></trkpt><trkpt lat="55.7139598" lon="14.0412096"><ele>67.0</ele></trkpt><trkpt lat="55.7140898" lon="14.0417297"><ele>65.0</ele></trkpt><trkpt lat="55.7141197" lon="14.0418294"><ele>63.0</ele></trkpt><trkpt lat="55.7141399" lon="14.0419291"><ele>63.0</ele></trkpt><trkpt lat="55.7141597" lon="14.0420899"><ele>63.0</ele></trkpt><trkpt lat="55.7142199" lon="14.0424394"><ele>62.0</ele></trkpt><trkpt lat="55.7142295" lon="14.0426397"><ele>61.0</ele></trkpt><trkpt lat="55.7142295" lon="14.0430799"><ele>61.0</ele></trkpt><trkpt lat="55.7142396" lon="14.0433296"><ele>61.0</ele></trkpt><trkpt lat="55.7142310" lon="14.0435973"><ele>61.0</ele></trkpt><trkpt lat="55.7142199" lon="14.0439396"><ele>62.0</ele></trkpt><trkpt lat="55.7142396" lon="14.0441596"><ele>62.0</ele></trkpt><trkpt lat="55.7142295" lon="14.0442899"><ele>62.0</ele></trkpt><trkpt lat="55.7142295" lon="14.0443995"><ele>62.0</ele></trkpt><trkpt lat="55.7142700" lon="14.0445998"><ele>61.0</ele></trkpt><trkpt lat="55.7143196" lon="14.0448199"><ele>61.0</ele></trkpt><trkpt lat="55.7144299" lon="14.0451999"><ele>60.0</ele></trkpt><trkpt lat="55.7145099" lon="14.0454200"><ele>60.0</ele></trkpt><trkpt lat="55.7145797" lon="14.0455700"><ele>60.0</ele></trkpt><trkpt lat="55.7146495" lon="14.0457497"><ele>59.0</ele></trkpt><trkpt lat="55.7146996" lon="14.0458593"><ele>58.0</ele></trkpt><trkpt lat="55.7148297" lon="14.0461099"><ele>58.0</ele></trkpt><trkpt lat="55.7149096" lon="14.0463300"><ele>56.0</ele></trkpt><trkpt lat="55.7149698" lon="14.0465294"><ele>57.0</ele></trkpt><trkpt lat="55.7149698" lon="14.0466597"><ele>57.0</ele></trkpt><trkpt lat="55.7149896" lon="14.0468600"><ele>57.0</ele></trkpt><trkpt lat="55.7150397" lon="14.0469992"><ele>55.0</ele></trkpt><trkpt lat="55.7150796" lon="14.0471492"><ele>55.0</ele></trkpt><trkpt lat="55.7151399" lon="14.0473900"><ele>53.0</ele></trkpt><trkpt lat="55.7151798" lon="14.0476092"><ele>53.0</ele></trkpt><trkpt lat="55.7151798" lon="14.0477799"><ele>53.0</ele></trkpt><trkpt lat="55.7151996" lon="14.0479496"><ele>51.0</ele></trkpt><trkpt lat="55.7151996" lon="14.0480799"><ele>51.0</ele></trkpt><trkpt lat="55.7152598" lon="14.0485695"><ele>51.0</ele></trkpt><trkpt lat="55.7153099" lon="14.0487096"><ele>50.0</ele></trkpt><trkpt lat="55.7153195" lon="14.0488093"><ele>50.0</ele></trkpt><trkpt lat="55.7154495" lon="14.0490600"><ele>49.0</ele></trkpt><trkpt lat="55.7155497" lon="14.0493393"><ele>48.0</ele></trkpt><trkpt lat="55.7155098" lon="14.0495298"><ele>48.0</ele></trkpt><trkpt lat="55.7155396" lon="14.0497597"><ele>48.0</ele></trkpt><trkpt lat="55.7155599" lon="14.0498595"><ele>48.0</ele></trkpt><trkpt lat="55.7156499" lon="14.0502197"><ele>47.0</ele></trkpt><trkpt lat="55.7156595" lon="14.0503895"><ele>47.0</ele></trkpt><trkpt lat="55.7156798" lon="14.0505592"><ele>47.0</ele></trkpt><trkpt lat="55.7156995" lon="14.0510192"><ele>47.0</ele></trkpt><trkpt lat="55.7157496" lon="14.0512096"><ele>46.0</ele></trkpt><trkpt lat="55.7157699" lon="14.0513596"><ele>45.0</ele></trkpt><trkpt lat="55.7157699" lon="14.0514594"><ele>45.0</ele></trkpt><trkpt lat="55.7157597" lon="14.0516094"><ele>45.0</ele></trkpt><trkpt lat="55.7157699" lon="14.0517199"><ele>45.0</ele></trkpt><trkpt lat="55.7157597" lon="14.0519696"><ele>45.0</ele></trkpt><trkpt lat="55.7157299" lon="14.0521591"><ele>45.0</ele></trkpt><trkpt lat="55.7156398" lon="14.0523496"><ele>46.0</ele></trkpt><trkpt lat="55.7156297" lon="14.0525796"><ele>46.0</ele></trkpt><trkpt lat="55.7156798" lon="14.0529694"><ele>46.0</ele></trkpt><trkpt lat="55.7156595" lon="14.0532192"><ele>46.0</ele></trkpt><trkpt lat="55.7156297" lon="14.0534599"><ele>47.0</ele></trkpt><trkpt lat="55.7156499" lon="14.0537797"><ele>47.0</ele></trkpt><trkpt lat="55.7156398" lon="14.0539791"><ele>47.0</ele></trkpt><trkpt lat="55.7156398" lon="14.0543196"><ele>48.0</ele></trkpt><trkpt lat="55.7156798" lon="14.0545792"><ele>48.0</ele></trkpt><trkpt lat="55.7157299" lon="14.0547795"><ele>48.0</ele></trkpt><trkpt lat="55.7157597" lon="14.0549394"><ele>48.0</ele></trkpt><trkpt lat="55.7157997" lon="14.0551092"><ele>48.0</ele></trkpt><trkpt lat="55.7157800" lon="14.0553392"><ele>50.0</ele></trkpt><trkpt lat="55.7157800" lon="14.0555799"><ele>51.0</ele></trkpt><trkpt lat="55.7157896" lon="14.0558198"><ele>53.0</ele></trkpt><trkpt lat="55.7157699" lon="14.0560300"><ele>54.0</ele></trkpt><trkpt lat="55.7158397" lon="14.0561593"><ele>54.0</ele></trkpt><trkpt lat="55.7158797" lon="14.0563992"><ele>56.0</ele></trkpt><trkpt lat="55.7158999" lon="14.0565600"><ele>56.0</ele></trkpt><trkpt lat="55.7159298" lon="14.0569193"><ele>58.0</ele></trkpt><trkpt lat="55.7159697" lon="14.0571295"><ele>58.0</ele></trkpt><trkpt lat="55.7159996" lon="14.0573298"><ele>58.0</ele></trkpt><trkpt lat="55.7160097" lon="14.0574493"><ele>59.0</ele></trkpt><trkpt lat="55.7161195" lon="14.0575697"><ele>58.0</ele></trkpt><trkpt lat="55.7162597" lon="14.0575697"><ele>58.0</ele></trkpt><trkpt lat="55.7163796" lon="14.0575499"><ele>58.0</ele></trkpt><trkpt lat="55.7164995" lon="14.0575499"><ele>57.0</ele></trkpt><trkpt lat="55.7166498" lon="14.0576299"><ele>56.0</ele></trkpt><trkpt lat="55.7167900" lon="14.0577494"><ele>55.0</ele></trkpt><trkpt lat="55.7168998" lon="14.0578697"><ele>53.0</ele></trkpt><trkpt lat="55.7170197" lon="14.0579497"><ele>52.0</ele></trkpt><trkpt lat="55.7171897" lon="14.0579398"><ele>51.0</ele></trkpt><trkpt lat="55.7173931" lon="14.0578625"><ele>48.0</ele></trkpt><trkpt lat="55.7176396" lon="14.0577691"><ele>44.0</ele></trkpt><trkpt lat="55.7177499" lon="14.0577197"><ele>42.0</ele></trkpt><trkpt lat="55.7178698" lon="14.0576496"><ele>41.0</ele></trkpt><trkpt lat="55.7179998" lon="14.0577098"><ele>39.0</ele></trkpt><trkpt lat="55.7180697" lon="14.0578392"><ele>39.0</ele></trkpt><trkpt lat="55.7180995" lon="14.0579299"><ele>40.0</ele></trkpt><trkpt lat="55.7181496" lon="14.0581392"><ele>39.0</ele></trkpt><trkpt lat="55.7181800" lon="14.0584599"><ele>40.0</ele></trkpt><trkpt lat="55.7181896" lon="14.0586791"><ele>41.0</ele></trkpt><trkpt lat="55.7182498" lon="14.0591094"><ele>43.0</ele></trkpt><trkpt lat="55.7182695" lon="14.0592900"><ele>44.0</ele></trkpt><trkpt lat="55.7183100" lon="14.0594094"><ele>44.0</ele></trkpt><trkpt lat="55.7183996" lon="14.0595298"><ele>44.0</ele></trkpt><trkpt lat="55.7184896" lon="14.0595496"><ele>44.0</ele></trkpt><trkpt lat="55.7185898" lon="14.0596098"><ele>44.0</ele></trkpt><trkpt lat="55.7186596" lon="14.0596996"><ele>44.0</ele></trkpt><trkpt lat="55.7187998" lon="14.0599098"><ele>44.0</ele></trkpt><trkpt lat="55.7188899" lon="14.0600293"><ele>44.0</ele></trkpt><trkpt lat="55.7190199" lon="14.0601793"><ele>43.0</ele></trkpt><trkpt lat="55.7191499" lon="14.0602898"><ele>43.0</ele></trkpt><trkpt lat="55.7192597" lon="14.0603599"><ele>43.0</ele></trkpt><trkpt lat="55.7193796" lon="14.0604497"><ele>43.0</ele></trkpt><trkpt lat="55.7195097" lon="14.0606994"><ele>43.0</ele></trkpt><trkpt lat="55.7196099" lon="14.0609294"><ele>43.0</ele></trkpt><trkpt lat="55.7197596" lon="14.0613893"><ele>43.0</ele></trkpt><trkpt lat="55.7199195" lon="14.0619400"><ele>43.0</ele></trkpt><trkpt lat="55.7199499" lon="14.0621197"><ele>44.0</ele></trkpt><trkpt lat="55.7200000" lon="14.0624691"><ele>43.0</ele></trkpt><trkpt lat="55.7200298" lon="14.0627593"><ele>44.0</ele></trkpt><trkpt lat="55.7200495" lon="14.0632794"><ele>47.0</ele></trkpt><trkpt lat="55.7200698" lon="14.0635192"><ele>47.0</ele></trkpt><trkpt lat="55.7200870" lon="14.0637932"><ele>48.0</ele></trkpt><trkpt lat="55.7201098" lon="14.0641499"><ele>48.0</ele></trkpt><trkpt lat="55.7200996" lon="14.0643996"><ele>48.0</ele></trkpt><trkpt lat="55.7201497" lon="14.0646700"><ele>48.0</ele></trkpt><trkpt lat="55.7202297" lon="14.0649494"><ele>48.0</ele></trkpt><trkpt lat="55.7202899" lon="14.0651793"><ele>48.0</ele></trkpt><trkpt lat="55.7203096" lon="14.0653096"><ele>48.0</ele></trkpt><trkpt lat="55.7203597" lon="14.0654794"><ele>48.0</ele></trkpt><trkpt lat="55.7204098" lon="14.0657399"><ele>48.0</ele></trkpt><trkpt lat="55.7205196" lon="14.0661594"><ele>48.0</ele></trkpt><trkpt lat="55.7205595" lon="14.0662896"><ele>47.0</ele></trkpt><trkpt lat="55.7206597" lon="14.0665798"><ele>48.0</ele></trkpt><trkpt lat="55.7207296" lon="14.0667496"><ele>48.0</ele></trkpt><trkpt lat="55.7207984" lon="14.0669885"><ele>48.0</ele></trkpt><trkpt lat="55.7208798" lon="14.0672697"><ele>49.0</ele></trkpt><trkpt lat="55.7211095" lon="14.0671898"><ele>52.0</ele></trkpt><trkpt lat="55.7212896" lon="14.0671098"><ele>53.0</ele></trkpt><trkpt lat="55.7213397" lon="14.0670694"><ele>54.0</ele></trkpt><trkpt lat="55.7214399" lon="14.0670299"><ele>54.0</ele></trkpt><trkpt lat="55.7214996" lon="14.0669894"><ele>54.0</ele></trkpt><trkpt lat="55.7215497" lon="14.0668592"><ele>54.0</ele></trkpt><trkpt lat="55.7215497" lon="14.0667595"><ele>55.0</ele></trkpt><trkpt lat="55.7215795" lon="14.0666292"><ele>55.0</ele></trkpt><trkpt lat="55.7215795" lon="14.0664900"><ele>54.0</ele></trkpt><trkpt lat="55.7215998" lon="14.0663193"><ele>54.0</ele></trkpt><trkpt lat="55.7216499" lon="14.0661495"><ele>54.0</ele></trkpt><trkpt lat="55.7217096" lon="14.0659995"><ele>53.0</ele></trkpt><trkpt lat="55.7217298" lon="14.0659097"><ele>53.0</ele></trkpt><trkpt lat="55.7217996" lon="14.0657695"><ele>52.0</ele></trkpt><trkpt lat="55.7218998" lon="14.0655395"><ele>51.0</ele></trkpt><trkpt lat="55.7219595" lon="14.0654192"><ele>51.0</ele></trkpt><trkpt lat="55.7219899" lon="14.0653392"><ele>50.0</ele></trkpt><trkpt lat="55.7220496" lon="14.0652197"><ele>49.0</ele></trkpt><trkpt lat="55.7220997" lon="14.0650796"><ele>47.0</ele></trkpt><trkpt lat="55.7221998" lon="14.0646592"><ele>45.0</ele></trkpt><trkpt lat="55.7222297" lon="14.0644993"><ele>43.0</ele></trkpt><trkpt lat="55.7224599" lon="14.0642496"><ele>41.0</ele></trkpt><trkpt lat="55.7225697" lon="14.0639495"><ele>40.0</ele></trkpt><trkpt lat="55.7226299" lon="14.0638292"><ele>39.0</ele></trkpt><trkpt lat="55.7227397" lon="14.0637196"><ele>39.0</ele></trkpt><trkpt lat="55.7228196" lon="14.0636693"><ele>39.0</ele></trkpt><trkpt lat="55.7229694" lon="14.0635920"><ele>39.0</ele></trkpt><trkpt lat="55.7231297" lon="14.0635094"><ele>39.0</ele></trkpt><trkpt lat="55.7231697" lon="14.0633297"><ele>39.0</ele></trkpt><trkpt lat="55.7231196" lon="14.0631096"><ele>39.0</ele></trkpt><trkpt lat="55.7230498" lon="14.0629497"><ele>38.0</ele></trkpt><trkpt lat="55.7229997" lon="14.0627799"><ele>37.0</ele></trkpt><trkpt lat="55.7228196" lon="14.0624296"><ele>35.0</ele></trkpt><trkpt lat="55.7227498" lon="14.0622095"><ele>35.0</ele></trkpt><trkpt lat="55.7227599" lon="14.0620694"><ele>34.0</ele></trkpt><trkpt lat="55.7227999" lon="14.0618493"><ele>34.0</ele></trkpt><trkpt lat="55.7228297" lon="14.0616498"><ele>34.0</ele></trkpt><trkpt lat="55.7228697" lon="14.0614998"><ele>34.0</ele></trkpt><trkpt lat="55.7228899" lon="14.0612492"><ele>34.0</ele></trkpt><trkpt lat="55.7228798" lon="14.0610596"><ele>34.0</ele></trkpt><trkpt lat="55.7228398" lon="14.0608899"><ele>35.0</ele></trkpt><trkpt lat="55.7228297" lon="14.0607192"><ele>35.0</ele></trkpt><trkpt lat="55.7228100" lon="14.0606294"><ele>35.0</ele></trkpt><trkpt lat="55.7227695" lon="14.0605000"><ele>36.0</ele></trkpt><trkpt lat="55.7227199" lon="14.0604093"><ele>36.0</ele></trkpt><trkpt lat="55.7227599" lon="14.0600796"><ele>36.0</ele></trkpt><trkpt lat="55.7228196" lon="14.0597697"><ele>37.0</ele></trkpt><trkpt lat="55.7228398" lon="14.0595595"><ele>37.0</ele></trkpt><trkpt lat="55.7227796" lon="14.0595199"><ele>37.0</ele></trkpt><trkpt lat="55.7226896" lon="14.0594795"><ele>37.0</ele></trkpt><trkpt lat="55.7225499" lon="14.0593897"><ele>37.0</ele></trkpt><trkpt lat="55.7224796" lon="14.0593295"><ele>37.0</ele></trkpt><trkpt lat="55.7223096" lon="14.0590295"><ele>38.0</ele></trkpt><trkpt lat="55.7222595" lon="14.0589495"><ele>37.0</ele></trkpt><trkpt lat="55.7221199" lon="14.0586899"><ele>38.0</ele></trkpt><trkpt lat="55.7220597" lon="14.0585399"><ele>37.0</ele></trkpt><trkpt lat="55.7220096" lon="14.0583692"><ele>38.0</ele></trkpt><trkpt lat="55.7219899" lon="14.0582192"><ele>38.0</ele></trkpt><trkpt lat="55.7219899" lon="14.0580593"><ele>38.0</ele></trkpt><trkpt lat="55.7219797" lon="14.0579299"><ele>39.0</ele></trkpt><trkpt lat="55.7219499" lon="14.0577799"><ele>39.0</ele></trkpt><trkpt lat="55.7219099" lon="14.0576595"><ele>39.0</ele></trkpt><trkpt lat="55.7218897" lon="14.0575598"><ele>39.0</ele></trkpt><trkpt lat="55.7218497" lon="14.0574897"><ele>39.0</ele></trkpt><trkpt lat="55.7218098" lon="14.0573200"><ele>39.0</ele></trkpt><trkpt lat="55.7217799" lon="14.0572292"><ele>39.0</ele></trkpt><trkpt lat="55.7217298" lon="14.0570496"><ele>39.0</ele></trkpt><trkpt lat="55.7216499" lon="14.0567998"><ele>39.0</ele></trkpt><trkpt lat="55.7215598" lon="14.0565995"><ele>39.0</ele></trkpt><trkpt lat="55.7214900" lon="14.0563794"><ele>40.0</ele></trkpt><trkpt lat="55.7214495" lon="14.0562195"><ele>41.0</ele></trkpt><trkpt lat="55.7213999" lon="14.0560596"><ele>42.0</ele></trkpt><trkpt lat="55.7213296" lon="14.0559393"><ele>43.0</ele></trkpt><trkpt lat="55.7212299" lon="14.0556698"><ele>44.0</ele></trkpt><trkpt lat="55.7210498" lon="14.0552197"><ele>45.0</ele></trkpt><trkpt lat="55.7209800" lon="14.0550194"><ele>45.0</ele></trkpt><trkpt lat="55.7209097" lon="14.0546996"><ele>47.0</ele></trkpt><trkpt lat="55.7208899" lon="14.0545397"><ele>47.0</ele></trkpt><trkpt lat="55.7208596" lon="14.0543699"><ele>48.0</ele></trkpt><trkpt lat="55.7207796" lon="14.0541992"><ele>48.0</ele></trkpt><trkpt lat="55.7207199" lon="14.0540097"><ele>48.0</ele></trkpt><trkpt lat="55.7206698" lon="14.0537797"><ele>47.0</ele></trkpt><trkpt lat="55.7206299" lon="14.0535695"><ele>48.0</ele></trkpt><trkpt lat="55.7205798" lon="14.0533800"><ele>47.0</ele></trkpt><trkpt lat="55.7205398" lon="14.0532596"><ele>48.0</ele></trkpt><trkpt lat="55.7204700" lon="14.0527700"><ele>49.0</ele></trkpt><trkpt lat="55.7204396" lon="14.0526092"><ele>49.0</ele></trkpt><trkpt lat="55.7204098" lon="14.0523693"><ele>51.0</ele></trkpt><trkpt lat="55.7203895" lon="14.0521591"><ele>50.0</ele></trkpt><trkpt lat="55.7203895" lon="14.0517495"><ele>52.0</ele></trkpt><trkpt lat="55.7203597" lon="14.0515195"><ele>53.0</ele></trkpt><trkpt lat="55.7203496" lon="14.0513596"><ele>54.0</ele></trkpt><trkpt lat="55.7204295" lon="14.0509293"><ele>58.0</ele></trkpt><trkpt lat="55.7204295" lon="14.0506095"><ele>58.0</ele></trkpt><trkpt lat="55.7203895" lon="14.0502799"><ele>58.0</ele></trkpt><trkpt lat="55.7203997" lon="14.0501092"><ele>59.0</ele></trkpt><trkpt lat="55.7204295" lon="14.0498496"><ele>62.0</ele></trkpt><trkpt lat="55.7204295" lon="14.0496394"><ele>62.0</ele></trkpt><trkpt lat="55.7204199" lon="14.0494795"><ele>63.0</ele></trkpt><trkpt lat="55.7204199" lon="14.0491992"><ele>62.0</ele></trkpt><trkpt lat="55.7203997" lon="14.0489998"><ele>62.0</ele></trkpt><trkpt lat="55.7203895" lon="14.0487599"><ele>62.0</ele></trkpt><trkpt lat="55.7203997" lon="14.0485892"><ele>63.0</ele></trkpt><trkpt lat="55.7203997" lon="14.0483691"><ele>64.0</ele></trkpt><trkpt lat="55.7203799" lon="14.0481895"><ele>64.0</ele></trkpt><trkpt lat="55.7204098" lon="14.0478697"><ele>66.0</ele></trkpt><trkpt lat="55.7204098" lon="14.0476891"><ele>70.0</ele></trkpt><trkpt lat="55.7203997" lon="14.0475894"><ele>68.0</ele></trkpt><trkpt lat="55.7203197" lon="14.0474897"><ele>69.0</ele></trkpt><trkpt lat="55.7202195" lon="14.0473298"><ele>68.0</ele></trkpt><trkpt lat="55.7201300" lon="14.0471699"><ele>67.0</ele></trkpt><trkpt lat="55.7200000" lon="14.0469992"><ele>66.0</ele></trkpt><trkpt lat="55.7198897" lon="14.0469597"><ele>63.0</ele></trkpt><trkpt lat="55.7198097" lon="14.0469696"><ele>63.0</ele></trkpt><trkpt lat="55.7197095" lon="14.0469399"><ele>61.0</ele></trkpt><trkpt lat="55.7195638" lon="14.0468546"><ele>57.0</ele></trkpt><trkpt lat="55.7193999" lon="14.0467594"><ele>56.0</ele></trkpt><trkpt lat="55.7193295" lon="14.0467297"><ele>54.0</ele></trkpt><trkpt lat="55.7192698" lon="14.0466695"><ele>53.0</ele></trkpt><trkpt lat="55.7191899" lon="14.0464593"><ele>56.0</ele></trkpt><trkpt lat="55.7191100" lon="14.0462698"><ele>57.0</ele></trkpt><trkpt lat="55.7190295" lon="14.0461198"><ele>56.0</ele></trkpt><trkpt lat="55.7189399" lon="14.0460398"><ele>56.0</ele></trkpt><trkpt lat="55.7188696" lon="14.0460299"><ele>55.0</ele></trkpt><trkpt lat="55.7187198" lon="14.0460695"><ele>53.0</ele></trkpt><trkpt lat="55.7184997" lon="14.0460892"><ele>50.0</ele></trkpt><trkpt lat="55.7183996" lon="14.0460793"><ele>50.0</ele></trkpt><trkpt lat="55.7182898" lon="14.0459895"><ele>49.0</ele></trkpt><trkpt lat="55.7181997" lon="14.0458997"><ele>50.0</ele></trkpt><trkpt lat="55.7181400" lon="14.0458098"><ele>49.0</ele></trkpt><trkpt lat="55.7180798" lon="14.0457398"><ele>49.0</ele></trkpt><trkpt lat="55.7180099" lon="14.0456095"><ele>50.0</ele></trkpt><trkpt lat="55.7179300" lon="14.0454891"><ele>50.0</ele></trkpt><trkpt lat="55.7178698" lon="14.0453598"><ele>50.0</ele></trkpt><trkpt lat="55.7177195" lon="14.0450993"><ele>51.0</ele></trkpt><trkpt lat="55.7176396" lon="14.0450193"><ele>51.0</ele></trkpt><trkpt lat="55.7174797" lon="14.0449699"><ele>51.0</ele></trkpt><trkpt lat="55.7174200" lon="14.0449591"><ele>51.0</ele></trkpt><trkpt lat="55.7172196" lon="14.0449699"><ele>50.0</ele></trkpt><trkpt lat="55.7170799" lon="14.0449493"><ele>50.0</ele></trkpt><trkpt lat="55.7169499" lon="14.0449591"><ele>50.0</ele></trkpt><trkpt lat="55.7167596" lon="14.0449097"><ele>50.0</ele></trkpt><trkpt lat="55.7166797" lon="14.0449196"><ele>50.0</ele></trkpt><trkpt lat="55.7164995" lon="14.0449591"><ele>50.0</ele></trkpt><trkpt lat="55.7163998" lon="14.0449699"><ele>50.0</ele></trkpt><trkpt lat="55.7162399" lon="14.0448900"><ele>51.0</ele></trkpt><trkpt lat="55.7161398" lon="14.0448199"><ele>51.0</ele></trkpt><trkpt lat="55.7160699" lon="14.0447992"><ele>51.0</ele></trkpt><trkpt lat="55.7159996" lon="14.0447498"><ele>51.0</ele></trkpt><trkpt lat="55.7159495" lon="14.0446995"><ele>51.0</ele></trkpt><trkpt lat="55.7158898" lon="14.0445297"><ele>52.0</ele></trkpt><trkpt lat="55.7158599" lon="14.0443896"><ele>52.0</ele></trkpt><trkpt lat="55.7158296" lon="14.0441695"><ele>52.0</ele></trkpt><trkpt lat="55.7158797" lon="14.0438695"><ele>53.0</ele></trkpt><trkpt lat="55.7159196" lon="14.0437293"><ele>53.0</ele></trkpt><trkpt lat="55.7159298" lon="14.0436296"><ele>53.0</ele></trkpt><trkpt lat="55.7158999" lon="14.0432793"><ele>54.0</ele></trkpt><trkpt lat="55.7158498" lon="14.0431598"><ele>55.0</ele></trkpt><trkpt lat="55.7157896" lon="14.0430996"><ele>55.0</ele></trkpt><trkpt lat="55.7157395" lon="14.0430197"><ele>55.0</ele></trkpt><trkpt lat="55.7156595" lon="14.0429694"><ele>56.0</ele></trkpt><trkpt lat="55.7155700" lon="14.0429496"><ele>56.0</ele></trkpt><trkpt lat="55.7154895" lon="14.0429496"><ele>56.0</ele></trkpt><trkpt lat="55.7154096" lon="14.0429694"><ele>56.0</ele></trkpt><trkpt lat="55.7152998" lon="14.0430700"><ele>56.0</ele></trkpt><trkpt lat="55.7152497" lon="14.0431392"><ele>56.0</ele></trkpt><trkpt lat="55.7151697" lon="14.0432694"><ele>56.0</ele></trkpt><trkpt lat="55.7151500" lon="14.0434599"><ele>55.0</ele></trkpt><trkpt lat="55.7151196" lon="14.0435694"><ele>55.0</ele></trkpt><trkpt lat="55.7150695" lon="14.0437293"><ele>55.0</ele></trkpt><trkpt lat="55.7150098" lon="14.0438398"><ele>55.0</ele></trkpt><trkpt lat="55.7149299" lon="14.0438695"><ele>55.0</ele></trkpt><trkpt lat="55.7148297" lon="14.0438093"><ele>56.0</ele></trkpt><trkpt lat="55.7147796" lon="14.0437698"><ele>57.0</ele></trkpt><trkpt lat="55.7146596" lon="14.0435596"><ele>57.0</ele></trkpt><trkpt lat="55.7146298" lon="14.0434095"><ele>57.0</ele></trkpt><trkpt lat="55.7146298" lon="14.0432496"><ele>57.0</ele></trkpt><trkpt lat="55.7146095" lon="14.0428993"><ele>58.0</ele></trkpt><trkpt lat="55.7146298" lon="14.0427493"><ele>58.0</ele></trkpt><trkpt lat="55.7146996" lon="14.0426298"><ele>58.0</ele></trkpt><trkpt lat="55.7146495" lon="14.0422893"><ele>59.0</ele></trkpt><trkpt lat="55.7146495" lon="14.0421097"><ele>59.0</ele></trkpt><trkpt lat="55.7146298" lon="14.0419498"><ele>60.0</ele></trkpt><trkpt lat="55.7144496" lon="14.0416399"><ele>61.0</ele></trkpt><trkpt lat="55.7142998" lon="14.0412599"><ele>64.0</ele></trkpt><trkpt lat="55.7141597" lon="14.0409293"><ele>66.0</ele></trkpt><trkpt lat="55.7140499" lon="14.0406391"><ele>68.0</ele></trkpt><trkpt lat="55.7139598" lon="14.0404496"><ele>69.0</ele></trkpt><trkpt lat="55.7139097" lon="14.0403193"><ele>69.0</ele></trkpt><trkpt lat="55.7138697" lon="14.0402394"><ele>69.0</ele></trkpt><trkpt lat="55.7138500" lon="14.0401397"><ele>69.0</ele></trkpt><trkpt lat="55.7138100" lon="14.0399897"><ele>69.0</ele></trkpt><trkpt lat="55.7137498" lon="14.0397292"><ele>68.0</ele></trkpt><trkpt lat="55.7136799" lon="14.0392800"><ele>66.0</ele></trkpt><trkpt lat="55.7136400" lon="14.0391192"><ele>66.0</ele></trkpt><trkpt lat="55.7136000" lon="14.0388596"><ele>65.0</ele></trkpt><trkpt lat="55.7135899" lon="14.0387392"><ele>64.0</ele></trkpt><trkpt lat="55.7135595" lon="14.0385892"><ele>63.0</ele></trkpt><trkpt lat="55.7135296" lon="14.0385092"><ele>63.0</ele></trkpt><trkpt lat="55.7134998" lon="14.0383898"><ele>63.0</ele></trkpt><trkpt lat="55.7134153" lon="14.0381625"><ele>63.0</ele></trkpt><trkpt lat="55.7133095" lon="14.0378795"><ele>63.0</ele></trkpt><trkpt lat="55.7131896" lon="14.0374897"><ele>62.0</ele></trkpt><trkpt lat="55.7131197" lon="14.0373396"><ele>62.0</ele></trkpt><trkpt lat="55.7130398" lon="14.0371492"><ele>61.0</ele></trkpt><trkpt lat="55.7129796" lon="14.0369695"><ele>61.0</ele></trkpt><trkpt lat="55.7129497" lon="14.0368393"><ele>61.0</ele></trkpt><trkpt lat="55.7129199" lon="14.0367593"><ele>61.0</ele></trkpt><trkpt lat="55.7128495" lon="14.0366093"><ele>59.0</ele></trkpt><trkpt lat="55.7127797" lon="14.0364395"><ele>58.0</ele></trkpt><trkpt lat="55.7127098" lon="14.0362293"><ele>59.0</ele></trkpt><trkpt lat="55.7126597" lon="14.0360191"><ele>59.0</ele></trkpt><trkpt lat="55.7126395" lon="14.0358799"><ele>59.0</ele></trkpt><trkpt lat="55.7125995" lon="14.0356499"><ele>60.0</ele></trkpt><trkpt lat="55.7125798" lon="14.0354199"><ele>59.0</ele></trkpt><trkpt lat="55.7125697" lon="14.0351693"><ele>60.0</ele></trkpt><trkpt lat="55.7125297" lon="14.0348998"><ele>61.0</ele></trkpt><trkpt lat="55.7124796" lon="14.0347597"><ele>60.0</ele></trkpt><trkpt lat="55.7123996" lon="14.0345692"><ele>61.0</ele></trkpt><trkpt lat="55.7123399" lon="14.0344093"><ele>60.0</ele></trkpt><trkpt lat="55.7122797" lon="14.0341991"><ele>61.0</ele></trkpt><trkpt lat="55.7122296" lon="14.0339494"><ele>60.0</ele></trkpt><trkpt lat="55.7122397" lon="14.0336691"><ele>61.0</ele></trkpt><trkpt lat="55.7122397" lon="14.0331697"><ele>63.0</ele></trkpt><trkpt lat="55.7122200" lon="14.0328795"><ele>64.0</ele></trkpt><trkpt lat="55.7121896" lon="14.0326091"><ele>64.0</ele></trkpt><trkpt lat="55.7121198" lon="14.0322893"><ele>64.0</ele></trkpt><trkpt lat="55.7120196" lon="14.0320099"><ele>64.0</ele></trkpt><trkpt lat="55.7118996" lon="14.0317898"><ele>64.0</ele></trkpt><trkpt lat="55.7117898" lon="14.0316497"><ele>60.0</ele></trkpt><trkpt lat="55.7116800" lon="14.0315293"><ele>63.0</ele></trkpt><trkpt lat="55.7115499" lon="14.0312796"><ele>63.0</ele></trkpt><trkpt lat="55.7114700" lon="14.0310496"><ele>63.0</ele></trkpt><trkpt lat="55.7113799" lon="14.0306598"><ele>64.0</ele></trkpt><trkpt lat="55.7112898" lon="14.0303992"><ele>65.0</ele></trkpt><trkpt lat="55.7112397" lon="14.0301693"><ele>65.0</ele></trkpt><trkpt lat="55.7112397" lon="14.0299195"><ele>65.0</ele></trkpt><trkpt lat="55.7112696" lon="14.0297794"><ele>65.0</ele></trkpt><trkpt lat="55.7113298" lon="14.0295692"><ele>65.0</ele></trkpt><trkpt lat="55.7114199" lon="14.0291596"><ele>64.0</ele></trkpt><trkpt lat="55.7114897" lon="14.0289197"><ele>64.0</ele></trkpt><trkpt lat="55.7116198" lon="14.0283098"><ele>64.0</ele></trkpt><trkpt lat="55.7116598" lon="14.0281597"><ele>64.0</ele></trkpt><trkpt lat="55.7117200" lon="14.0278292"><ele>65.0</ele></trkpt><trkpt lat="55.7117498" lon="14.0276396"><ele>66.0</ele></trkpt><trkpt lat="55.7117696" lon="14.0274294"><ele>66.0</ele></trkpt><trkpt lat="55.7117397" lon="14.0272093"><ele>67.0</ele></trkpt><trkpt lat="55.7116896" lon="14.0270198"><ele>66.0</ele></trkpt><trkpt lat="55.7116299" lon="14.0268491"><ele>66.0</ele></trkpt><trkpt lat="55.7115520" lon="14.0265868"><ele>67.0</ele></trkpt><trkpt lat="55.7114497" lon="14.0262392"><ele>67.0</ele></trkpt><trkpt lat="55.7113996" lon="14.0260298"><ele>68.0</ele></trkpt><trkpt lat="55.7113698" lon="14.0257397"><ele>67.0</ele></trkpt><trkpt lat="55.7113596" lon="14.0254900"><ele>68.0</ele></trkpt><trkpt lat="55.7113399" lon="14.0251495"><ele>69.0</ele></trkpt><trkpt lat="55.7112898" lon="14.0249096"><ele>68.0</ele></trkpt><trkpt lat="55.7112098" lon="14.0246419"><ele>69.0</ele></trkpt><trkpt lat="55.7110899" lon="14.0242395"><ele>69.0</ele></trkpt><trkpt lat="55.7110297" lon="14.0240796"><ele>70.0</ele></trkpt><trkpt lat="55.7109998" lon="14.0239197"><ele>71.0</ele></trkpt><trkpt lat="55.7109700" lon="14.0238299"><ele>71.0</ele></trkpt><trkpt lat="55.7108799" lon="14.0236295"><ele>71.0</ele></trkpt><trkpt lat="55.7107999" lon="14.0234993"><ele>71.0</ele></trkpt><trkpt lat="55.7106699" lon="14.0233295"><ele>71.0</ele></trkpt><trkpt lat="55.7104897" lon="14.0230798"><ele>71.0</ele></trkpt><trkpt lat="55.7103996" lon="14.0228992"><ele>71.0</ele></trkpt><trkpt lat="55.7102999" lon="14.0227393"><ele>72.0</ele></trkpt><trkpt lat="55.7101228" lon="14.0225075"><ele>74.0</ele></trkpt><trkpt lat="55.7098799" lon="14.0221895"><ele>74.0</ele></trkpt><trkpt lat="55.7097599" lon="14.0220099"><ele>74.0</ele></trkpt><trkpt lat="55.7095499" lon="14.0218194"><ele>72.0</ele></trkpt><trkpt lat="55.7094598" lon="14.0216793"><ele>72.0</ele></trkpt><trkpt lat="55.7093500" lon="14.0214898"><ele>72.0</ele></trkpt><trkpt lat="55.7092796" lon="14.0213200"><ele>71.0</ele></trkpt><trkpt lat="55.7092396" lon="14.0211996"><ele>72.0</ele></trkpt><trkpt lat="55.7092199" lon="14.0210298"><ele>73.0</ele></trkpt><trkpt lat="55.7091495" lon="14.0207594"><ele>73.0</ele></trkpt><trkpt lat="55.7090898" lon="14.0204792"><ele>73.0</ele></trkpt><trkpt lat="55.7090397" lon="14.0202896"><ele>74.0</ele></trkpt><trkpt lat="55.7089496" lon="14.0200228"><ele>74.0</ele></trkpt><trkpt lat="55.7088196" lon="14.0196392"><ele>76.0</ele></trkpt><trkpt lat="55.7087300" lon="14.0194793"><ele>76.0</ele></trkpt><trkpt lat="55.7086298" lon="14.0192799"><ele>76.0</ele></trkpt><trkpt lat="55.7085599" lon="14.0191595"><ele>75.0</ele></trkpt><trkpt lat="55.7084698" lon="14.0190293"><ele>75.0</ele></trkpt><trkpt lat="55.7084096" lon="14.0189197"><ele>75.0</ele></trkpt><trkpt lat="55.7083696" lon="14.0187499"><ele>75.0</ele></trkpt><trkpt lat="55.7083195" lon="14.0184993"><ele>76.0</ele></trkpt><trkpt lat="55.7082795" lon="14.0183394"><ele>76.0</ele></trkpt><trkpt lat="55.7082598" lon="14.0182298"><ele>76.0</ele></trkpt><trkpt lat="55.7082299" lon="14.0177797"><ele>78.0</ele></trkpt><trkpt lat="55.7082998" lon="14.0176198"><ele>78.0</ele></trkpt><trkpt lat="55.7083296" lon="14.0174797"><ele>79.0</ele></trkpt><trkpt lat="55.7083099" lon="14.0173494"><ele>79.0</ele></trkpt><trkpt lat="55.7083398" lon="14.0170997"><ele>80.0</ele></trkpt><trkpt lat="55.7083899" lon="14.0171599"><ele>80.0</ele></trkpt><trkpt lat="55.7084400" lon="14.0172794"><ele>81.0</ele></trkpt><trkpt lat="55.7084896" lon="14.0174195"><ele>81.0</ele></trkpt><trkpt lat="55.7085397" lon="14.0174896"><ele>83.0</ele></trkpt><trkpt lat="55.7086197" lon="14.0172596"><ele>84.0</ele></trkpt><trkpt lat="55.7086596" lon="14.0169793"><ele>85.0</ele></trkpt><trkpt lat="55.7086996" lon="14.0167592"><ele>85.0</ele></trkpt><trkpt lat="55.7087700" lon="14.0165391"><ele>87.0</ele></trkpt><trkpt lat="55.7088595" lon="14.0163496"><ele>88.0</ele></trkpt><trkpt lat="55.7089097" lon="14.0162095"><ele>88.0</ele></trkpt><trkpt lat="55.7089496" lon="14.0160693"><ele>89.0</ele></trkpt><trkpt lat="55.7089097" lon="14.0158699"><ele>88.0</ele></trkpt><trkpt lat="55.7088697" lon="14.0157495"><ele>88.0</ele></trkpt><trkpt lat="55.7088353" lon="14.0154836"><ele>88.0</ele></trkpt><trkpt lat="55.7087998" lon="14.0152096"><ele>88.0</ele></trkpt><trkpt lat="55.7088099" lon="14.0150192"><ele>88.0</ele></trkpt><trkpt lat="55.7087998" lon="14.0147596"><ele>89.0</ele></trkpt><trkpt lat="55.7088398" lon="14.0141793"><ele>91.0</ele></trkpt><trkpt lat="55.7088899" lon="14.0139295"><ele>91.0</ele></trkpt><trkpt lat="55.7089198" lon="14.0137193"><ele>92.0</ele></trkpt><trkpt lat="55.7089395" lon="14.0135199"><ele>93.0</ele></trkpt><trkpt lat="55.7089395" lon="14.0133995"><ele>93.0</ele></trkpt><trkpt lat="55.7088995" lon="14.0131992"><ele>94.0</ele></trkpt><trkpt lat="55.7088798" lon="14.0130195"><ele>93.0</ele></trkpt><trkpt lat="55.7088297" lon="14.0128093"><ele>93.0</ele></trkpt><trkpt lat="55.7087796" lon="14.0125695"><ele>92.0</ele></trkpt><trkpt lat="55.7087598" lon="14.0123593"><ele>92.0</ele></trkpt><trkpt lat="55.7087598" lon="14.0121257"><ele>92.0</ele></trkpt><trkpt lat="55.7087598" lon="14.0118895"><ele>91.0</ele></trkpt><trkpt lat="55.7087497" lon="14.0116891"><ele>91.0</ele></trkpt><trkpt lat="55.7087097" lon="14.0114897"><ele>90.0</ele></trkpt><trkpt lat="55.7086698" lon="14.0113298"><ele>88.0</ele></trkpt><trkpt lat="55.7085498" lon="14.0111097"><ele>86.0</ele></trkpt><trkpt lat="55.7084698" lon="14.0110495"><ele>85.0</ele></trkpt><trkpt lat="55.7083595" lon="14.0109894"><ele>83.0</ele></trkpt><trkpt lat="55.7082497" lon="14.0109094"><ele>83.0</ele></trkpt><trkpt lat="55.7081500" lon="14.0107495"><ele>83.0</ele></trkpt><trkpt lat="55.7081399" lon="14.0105195"><ele>83.0</ele></trkpt><trkpt lat="55.7081697" lon="14.0101692"><ele>82.0</ele></trkpt><trkpt lat="55.7081996" lon="14.0098997"><ele>81.0</ele></trkpt><trkpt lat="55.7082198" lon="14.0095619"><ele>81.0</ele></trkpt><trkpt lat="55.7082396" lon="14.0092197"><ele>82.0</ele></trkpt><trkpt lat="55.7082699" lon="14.0089098"><ele>83.0</ele></trkpt><trkpt lat="55.7083296" lon="14.0086591"><ele>83.0</ele></trkpt><trkpt lat="55.7084197" lon="14.0081992"><ele>84.0</ele></trkpt><trkpt lat="55.7084597" lon="14.0079297"><ele>85.0</ele></trkpt><trkpt lat="55.7084800" lon="14.0077294"><ele>86.0</ele></trkpt><trkpt lat="55.7084896" lon="14.0075695"><ele>87.0</ele></trkpt><trkpt lat="55.7084896" lon="14.0073691"><ele>87.0</ele></trkpt><trkpt lat="55.7084698" lon="14.0069299"><ele>89.0</ele></trkpt><trkpt lat="55.7084698" lon="14.0065993"><ele>89.0</ele></trkpt><trkpt lat="55.7084496" lon="14.0063298"><ele>88.0</ele></trkpt><trkpt lat="55.7083899" lon="14.0059291"><ele>88.0</ele></trkpt><trkpt lat="55.7083595" lon="14.0057594"><ele>87.0</ele></trkpt><trkpt lat="55.7082998" lon="14.0055294"><ele>87.0</ele></trkpt><trkpt lat="55.7082299" lon="14.0052895"><ele>87.0</ele></trkpt><trkpt lat="55.7081697" lon="14.0049994"><ele>88.0</ele></trkpt><trkpt lat="55.7081196" lon="14.0048000"><ele>88.0</ele></trkpt><trkpt lat="55.7080796" lon="14.0046095"><ele>89.0</ele></trkpt><trkpt lat="55.7080295" lon="14.0043993"><ele>89.0</ele></trkpt><trkpt lat="55.7079597" lon="14.0039798"><ele>90.0</ele></trkpt><trkpt lat="55.7078696" lon="14.0034893"><ele>91.0</ele></trkpt><trkpt lat="55.7077299" lon="14.0029494"><ele>92.0</ele></trkpt><trkpt lat="55.7076995" lon="14.0027895"><ele>92.0</ele></trkpt><trkpt lat="55.7076499" lon="14.0025793"><ele>92.0</ele></trkpt><trkpt lat="55.7075897" lon="14.0024095"><ele>93.0</ele></trkpt><trkpt lat="55.7075199" lon="14.0022694"><ele>93.0</ele></trkpt><trkpt lat="55.7074298" lon="14.0020700"><ele>94.0</ele></trkpt><trkpt lat="55.7073397" lon="14.0018499"><ele>95.0</ele></trkpt><trkpt lat="55.7072597" lon="14.0015795"><ele>96.0</ele></trkpt><trkpt lat="55.7072298" lon="14.0012893"><ele>97.0</ele></trkpt><trkpt lat="55.7071899" lon="14.0010998"><ele>98.0</ele></trkpt><trkpt lat="55.7071696" lon="14.0008797"><ele>98.0</ele></trkpt><trkpt lat="55.7071296" lon="14.0006093"><ele>98.0</ele></trkpt><trkpt lat="55.7071398" lon="14.0004494"><ele>98.0</ele></trkpt><trkpt lat="55.7071797" lon="14.0001099"><ele>98.0</ele></trkpt><trkpt lat="55.7072400" lon="13.9996993"><ele>97.0</ele></trkpt><trkpt lat="55.7072799" lon="13.9990992"><ele>97.0</ele></trkpt><trkpt lat="55.7072799" lon="13.9987498"><ele>97.0</ele></trkpt><trkpt lat="55.7072597" lon="13.9985692"><ele>97.0</ele></trkpt><trkpt lat="55.7072597" lon="13.9983797"><ele>97.0</ele></trkpt><trkpt lat="55.7072496" lon="13.9981991"><ele>97.0</ele></trkpt><trkpt lat="55.7072997" lon="13.9980294"><ele>96.0</ele></trkpt><trkpt lat="55.7073296" lon="13.9979000"><ele>96.0</ele></trkpt><trkpt lat="55.7073397" lon="13.9977500"><ele>96.0</ele></trkpt><trkpt lat="55.7073296" lon="13.9976395"><ele>96.0</ele></trkpt><trkpt lat="55.7073999" lon="13.9974598"><ele>96.0</ele></trkpt><trkpt lat="55.7073599" lon="13.9971894"><ele>96.0</ele></trkpt><trkpt lat="55.7073397" lon="13.9969693"><ele>96.0</ele></trkpt><trkpt lat="55.7073695" lon="13.9967394"><ele>96.0</ele></trkpt><trkpt lat="55.7074399" lon="13.9963495"><ele>96.0</ele></trkpt><trkpt lat="55.7074900" lon="13.9961097"><ele>97.0</ele></trkpt><trkpt lat="55.7075396" lon="13.9959192"><ele>97.0</ele></trkpt><trkpt lat="55.7076499" lon="13.9955392"><ele>99.0</ele></trkpt><trkpt lat="55.7076697" lon="13.9954296"><ele>99.0</ele></trkpt><trkpt lat="55.7077395" lon="13.9951296"><ele>99.0</ele></trkpt><trkpt lat="55.7077795" lon="13.9948996"><ele>99.0</ele></trkpt><trkpt lat="55.7078296" lon="13.9946598"><ele>99.0</ele></trkpt><trkpt lat="55.7078898" lon="13.9944496"><ele>99.0</ele></trkpt><trkpt lat="55.7079197" lon="13.9942996"><ele>99.0</ele></trkpt><trkpt lat="55.7079997" lon="13.9940992"><ele>98.0</ele></trkpt><trkpt lat="55.7080796" lon="13.9939393"><ele>99.0</ele></trkpt><trkpt lat="55.7081399" lon="13.9937597"><ele>99.0</ele></trkpt><trkpt lat="55.7081798" lon="13.9936698"><ele>99.0</ele></trkpt><trkpt lat="55.7082396" lon="13.9933994"><ele>100.0</ele></trkpt><trkpt lat="55.7082598" lon="13.9931497"><ele>101.0</ele></trkpt><trkpt lat="55.7082699" lon="13.9929593"><ele>100.0</ele></trkpt><trkpt lat="55.7083296" lon="13.9927598"><ele>100.0</ele></trkpt><trkpt lat="55.7083595" lon="13.9925595"><ele>100.0</ele></trkpt><trkpt lat="55.7083798" lon="13.9923493"><ele>100.0</ele></trkpt><trkpt lat="55.7083706" lon="13.9920861"><ele>100.0</ele></trkpt><trkpt lat="55.7083595" lon="13.9917798"><ele>100.0</ele></trkpt><trkpt lat="55.7083595" lon="13.9915291"><ele>101.0</ele></trkpt><trkpt lat="55.7084197" lon="13.9911698"><ele>100.0</ele></trkpt><trkpt lat="55.7085098" lon="13.9908195"><ele>99.0</ele></trkpt><trkpt lat="55.7085999" lon="13.9907296"><ele>98.0</ele></trkpt><trkpt lat="55.7086996" lon="13.9907395"><ele>98.0</ele></trkpt><trkpt lat="55.7088398" lon="13.9907692"><ele>96.0</ele></trkpt><trkpt lat="55.7089896" lon="13.9908195"><ele>95.0</ele></trkpt><trkpt lat="55.7090696" lon="13.9908698"><ele>94.0</ele></trkpt><trkpt lat="55.7091895" lon="13.9908797"><ele>92.0</ele></trkpt><trkpt lat="55.7093798" lon="13.9904296"><ele>91.0</ele></trkpt><trkpt lat="55.7094998" lon="13.9901996"><ele>90.0</ele></trkpt><trkpt lat="55.7096197" lon="13.9900496"><ele>88.0</ele></trkpt><trkpt lat="55.7097098" lon="13.9898197"><ele>88.0</ele></trkpt><trkpt lat="55.7098389" lon="13.9894702"><ele>87.0</ele></trkpt><trkpt lat="55.7100499" lon="13.9888998"><ele>86.0</ele></trkpt><trkpt lat="55.7101698" lon="13.9886599"><ele>85.0</ele></trkpt><trkpt lat="55.7102296" lon="13.9884695"><ele>85.0</ele></trkpt><trkpt lat="55.7103095" lon="13.9882898"><ele>85.0</ele></trkpt><trkpt lat="55.7103799" lon="13.9881093"><ele>85.0</ele></trkpt><trkpt lat="55.7104598" lon="13.9879296"><ele>86.0</ele></trkpt><trkpt lat="55.7106395" lon="13.9875793"><ele>87.0</ele></trkpt><trkpt lat="55.7107498" lon="13.9874292"><ele>87.0</ele></trkpt><trkpt lat="55.7109097" lon="13.9874194"><ele>87.0</ele></trkpt><trkpt lat="55.7110595" lon="13.9874292"><ele>87.0</ele></trkpt><trkpt lat="55.7112397" lon="13.9874292"><ele>87.0</ele></trkpt><trkpt lat="55.7115995" lon="13.9873699"><ele>88.0</ele></trkpt><trkpt lat="55.7116800" lon="13.9873295"><ele>88.0</ele></trkpt><trkpt lat="55.7118298" lon="13.9873196"><ele>89.0</ele></trkpt><trkpt lat="55.7119796" lon="13.9873295"><ele>89.0</ele></trkpt><trkpt lat="55.7121299" lon="13.9873196"><ele>90.0</ele></trkpt><trkpt lat="55.7122498" lon="13.9873295"><ele>90.0</ele></trkpt><trkpt lat="55.7123399" lon="13.9873699"><ele>91.0</ele></trkpt><trkpt lat="55.7124097" lon="13.9873592"><ele>91.0</ele></trkpt><trkpt lat="55.7125595" lon="13.9873098"><ele>92.0</ele></trkpt><trkpt lat="55.7127098" lon="13.9872792"><ele>93.0</ele></trkpt><trkpt lat="55.7128495" lon="13.9872595"><ele>93.0</ele></trkpt><trkpt lat="55.7130195" lon="13.9872595"><ele>94.0</ele></trkpt><trkpt lat="55.7132695" lon="13.9871292"><ele>95.0</ele></trkpt><trkpt lat="55.7133298" lon="13.9869900"><ele>96.0</ele></trkpt><trkpt lat="55.7133996" lon="13.9868597"><ele>96.0</ele></trkpt><trkpt lat="55.7134598" lon="13.9867294"><ele>96.0</ele></trkpt><trkpt lat="55.7135595" lon="13.9865794"><ele>96.0</ele></trkpt><trkpt lat="55.7136400" lon="13.9864195"><ele>96.0</ele></trkpt><trkpt lat="55.7137295" lon="13.9862596"><ele>96.0</ele></trkpt><trkpt lat="55.7137796" lon="13.9860800"><ele>96.0</ele></trkpt><trkpt lat="55.7137599" lon="13.9858895"><ele>95.0</ele></trkpt><trkpt lat="55.7137796" lon="13.9856497"><ele>94.0</ele></trkpt><trkpt lat="55.7138100" lon="13.9854197"><ele>94.0</ele></trkpt><trkpt lat="55.7138399" lon="13.9851295"><ele>93.0</ele></trkpt><trkpt lat="55.7138596" lon="13.9847999"><ele>93.0</ele></trkpt><trkpt lat="55.7138798" lon="13.9846597"><ele>94.0</ele></trkpt><trkpt lat="55.7139198" lon="13.9845591"><ele>94.0</ele></trkpt><trkpt lat="55.7139674" lon="13.9843498"><ele>95.0</ele></trkpt><trkpt lat="55.7140195" lon="13.9841198"><ele>96.0</ele></trkpt><trkpt lat="55.7139998" lon="13.9835800"><ele>97.0</ele></trkpt><trkpt lat="55.7139497" lon="13.9833194"><ele>97.0</ele></trkpt><trkpt lat="55.7139198" lon="13.9830697"><ele>98.0</ele></trkpt><trkpt lat="55.7139395" lon="13.9828092"><ele>98.0</ele></trkpt><trkpt lat="55.7139896" lon="13.9822999"><ele>99.0</ele></trkpt><trkpt lat="55.7140099" lon="13.9820196"><ele>99.0</ele></trkpt><trkpt lat="55.7141000" lon="13.9814797"><ele>99.0</ele></trkpt><trkpt lat="55.7141698" lon="13.9812398"><ele>99.0</ele></trkpt><trkpt lat="55.7142295" lon="13.9810799"><ele>99.0</ele></trkpt><trkpt lat="55.7142998" lon="13.9808500"><ele>99.0</ele></trkpt><trkpt lat="55.7143596" lon="13.9805993"><ele>99.0</ele></trkpt><trkpt lat="55.7144284" lon="13.9802795"><ele>99.0</ele></trkpt><trkpt lat="55.7144997" lon="13.9799499"><ele>100.0</ele></trkpt><trkpt lat="55.7146596" lon="13.9797091"><ele>101.0</ele></trkpt><trkpt lat="55.7148899" lon="13.9794297"><ele>103.0</ele></trkpt><trkpt lat="55.7149800" lon="13.9793399"><ele>103.0</ele></trkpt><trkpt lat="55.7150741" lon="13.9791558"><ele>103.0</ele></trkpt><trkpt lat="55.7151697" lon="13.9789698"><ele>103.0</ele></trkpt><trkpt lat="55.7152497" lon="13.9787794"><ele>104.0</ele></trkpt><trkpt lat="55.7153306" lon="13.9785323"><ele>104.0</ele></trkpt><trkpt lat="55.7154399" lon="13.9781999"><ele>104.0</ele></trkpt><trkpt lat="55.7155396" lon="13.9779897"><ele>104.0</ele></trkpt><trkpt lat="55.7158200" lon="13.9776798"><ele>103.0</ele></trkpt><trkpt lat="55.7159930" lon="13.9775361"><ele>103.0</ele></trkpt><trkpt lat="55.7161696" lon="13.9773897"><ele>103.0</ele></trkpt><trkpt lat="55.7162895" lon="13.9772693"><ele>104.0</ele></trkpt><trkpt lat="55.7164100" lon="13.9771094"><ele>104.0</ele></trkpt><trkpt lat="55.7164798" lon="13.9768794"><ele>104.0</ele></trkpt><trkpt lat="55.7165198" lon="13.9767195"><ele>105.0</ele></trkpt><trkpt lat="55.7165496" lon="13.9763198"><ele>105.0</ele></trkpt><trkpt lat="55.7165997" lon="13.9757799"><ele>105.0</ele></trkpt><trkpt lat="55.7166098" lon="13.9755894"><ele>105.0</ele></trkpt><trkpt lat="55.7166797" lon="13.9751699"><ele>105.0</ele></trkpt><trkpt lat="55.7167196" lon="13.9748699"><ele>105.0</ele></trkpt><trkpt lat="55.7167596" lon="13.9746597"><ele>105.0</ele></trkpt><trkpt lat="55.7167900" lon="13.9745393"><ele>105.0</ele></trkpt><trkpt lat="55.7167996" lon="13.9744396"><ele>104.0</ele></trkpt><trkpt lat="55.7168998" lon="13.9740093"><ele>104.0</ele></trkpt><trkpt lat="55.7169398" lon="13.9738099"><ele>104.0</ele></trkpt><trkpt lat="55.7170096" lon="13.9735691"><ele>104.0</ele></trkpt><trkpt lat="55.7170496" lon="13.9734694"><ele>104.0</ele></trkpt><trkpt lat="55.7171098" lon="13.9732898"><ele>104.0</ele></trkpt><trkpt lat="55.7171700" lon="13.9730795"><ele>104.0</ele></trkpt><trkpt lat="55.7172499" lon="13.9728397"><ele>105.0</ele></trkpt><trkpt lat="55.7172899" lon="13.9727292"><ele>105.0</ele></trkpt><trkpt lat="55.7173496" lon="13.9725998"><ele>106.0</ele></trkpt><trkpt lat="55.7173800" lon="13.9724795"><ele>106.0</ele></trkpt><trkpt lat="55.7173896" lon="13.9722791"><ele>107.0</ele></trkpt><trkpt lat="55.7173597" lon="13.9720492"><ele>107.0</ele></trkpt><trkpt lat="55.7173096" lon="13.9718893"><ele>108.0</ele></trkpt><trkpt lat="55.7172899" lon="13.9717096"><ele>108.0</ele></trkpt><trkpt lat="55.7172596" lon="13.9715398"><ele>109.0</ele></trkpt><trkpt lat="55.7171998" lon="13.9713296"><ele>109.0</ele></trkpt><trkpt lat="55.7171098" lon="13.9711697"><ele>110.0</ele></trkpt><trkpt lat="55.7170000" lon="13.9710592"><ele>111.0</ele></trkpt><trkpt lat="55.7168795" lon="13.9709595"><ele>111.0</ele></trkpt><trkpt lat="55.7167799" lon="13.9708993"><ele>112.0</ele></trkpt><trkpt lat="55.7166296" lon="13.9707592"><ele>112.0</ele></trkpt><trkpt lat="55.7165395" lon="13.9706999"><ele>112.0</ele></trkpt><trkpt lat="55.7163098" lon="13.9705795"><ele>113.0</ele></trkpt><trkpt lat="55.7160795" lon="13.9704699"><ele>113.0</ele></trkpt><trkpt lat="55.7159697" lon="13.9703900"><ele>113.0</ele></trkpt><trkpt lat="55.7159095" lon="13.9702795"><ele>113.0</ele></trkpt><trkpt lat="55.7159399" lon="13.9701097"><ele>113.0</ele></trkpt><trkpt lat="55.7160198" lon="13.9699193"><ele>113.0</ele></trkpt><trkpt lat="55.7160795" lon="13.9697297"><ele>113.0</ele></trkpt><trkpt lat="55.7161398" lon="13.9695599"><ele>113.0</ele></trkpt><trkpt lat="55.7161600" lon="13.9693991"><ele>112.0</ele></trkpt><trkpt lat="55.7162197" lon="13.9691692"><ele>112.0</ele></trkpt><trkpt lat="55.7162997" lon="13.9688997"><ele>112.0</ele></trkpt><trkpt lat="55.7164297" lon="13.9683293"><ele>112.0</ele></trkpt><trkpt lat="55.7164899" lon="13.9681298"><ele>111.0</ele></trkpt><trkpt lat="55.7165395" lon="13.9679196"><ele>112.0</ele></trkpt><trkpt lat="55.7166200" lon="13.9676492"><ele>112.0</ele></trkpt><trkpt lat="55.7166898" lon="13.9674992"><ele>111.0</ele></trkpt><trkpt lat="55.7167996" lon="13.9673195"><ele>112.0</ele></trkpt><trkpt lat="55.7168396" lon="13.9671498"><ele>111.0</ele></trkpt><trkpt lat="55.7168699" lon="13.9669297"><ele>112.0</ele></trkpt><trkpt lat="55.7169398" lon="13.9666593"><ele>113.0</ele></trkpt><trkpt lat="55.7170096" lon="13.9664697"><ele>113.0</ele></trkpt><trkpt lat="55.7170799" lon="13.9663000"><ele>114.0</ele></trkpt><trkpt lat="55.7171700" lon="13.9659496"><ele>116.0</ele></trkpt><trkpt lat="55.7171897" lon="13.9656397"><ele>117.0</ele></trkpt><trkpt lat="55.7172100" lon="13.9655292"><ele>117.0</ele></trkpt><trkpt lat="55.7172196" lon="13.9653495"><ele>118.0</ele></trkpt><trkpt lat="55.7172499" lon="13.9652498"><ele>118.0</ele></trkpt><trkpt lat="55.7172899" lon="13.9650792"><ele>119.0</ele></trkpt><trkpt lat="55.7173096" lon="13.9648294"><ele>119.0</ele></trkpt><trkpt lat="55.7172697" lon="13.9646498"><ele>120.0</ele></trkpt><trkpt lat="55.7171897" lon="13.9644396"><ele>121.0</ele></trkpt><trkpt lat="55.7171098" lon="13.9643093"><ele>121.0</ele></trkpt><trkpt lat="55.7170496" lon="13.9641799"><ele>121.0</ele></trkpt><trkpt lat="55.7169595" lon="13.9639599"><ele>122.0</ele></trkpt><trkpt lat="55.7168598" lon="13.9635493"><ele>124.0</ele></trkpt><trkpt lat="55.7168497" lon="13.9633894"><ele>124.0</ele></trkpt><trkpt lat="55.7168497" lon="13.9632196"><ele>124.0</ele></trkpt><trkpt lat="55.7168598" lon="13.9631199"><ele>124.0</ele></trkpt><trkpt lat="55.7169195" lon="13.9631496"><ele>123.0</ele></trkpt><trkpt lat="55.7170470" lon="13.9632331"><ele>122.0</ele></trkpt><trkpt lat="55.7171796" lon="13.9633194"><ele>122.0</ele></trkpt><trkpt lat="55.7172596" lon="13.9634200"><ele>121.0</ele></trkpt><trkpt lat="55.7173800" lon="13.9634999"><ele>121.0</ele></trkpt><trkpt lat="55.7175095" lon="13.9634999"><ele>119.0</ele></trkpt><trkpt lat="55.7176396" lon="13.9635098"><ele>118.0</ele></trkpt><trkpt lat="55.7178298" lon="13.9634694"><ele>117.0</ele></trkpt><trkpt lat="55.7178996" lon="13.9633697"><ele>117.0</ele></trkpt><trkpt lat="55.7179599" lon="13.9632295"><ele>116.0</ele></trkpt><trkpt lat="55.7180099" lon="13.9629699"><ele>116.0</ele></trkpt><trkpt lat="55.7180899" lon="13.9627992"><ele>116.0</ele></trkpt><trkpt lat="55.7182123" lon="13.9627112"><ele>115.0</ele></trkpt><trkpt lat="55.7183398" lon="13.9626196"><ele>114.0</ele></trkpt><trkpt lat="55.7184097" lon="13.9624498"><ele>114.0</ele></trkpt><trkpt lat="55.7184198" lon="13.9622692"><ele>114.0</ele></trkpt><trkpt lat="55.7184496" lon="13.9620393"><ele>115.0</ele></trkpt><trkpt lat="55.7184795" lon="13.9617392"><ele>115.0</ele></trkpt><trkpt lat="55.7184795" lon="13.9615398"><ele>115.0</ele></trkpt><trkpt lat="55.7184896" lon="13.9613197"><ele>115.0</ele></trkpt><trkpt lat="55.7185200" lon="13.9611499"><ele>115.0</ele></trkpt><trkpt lat="55.7185397" lon="13.9609694"><ele>116.0</ele></trkpt><trkpt lat="55.7185397" lon="13.9607295"><ele>116.0</ele></trkpt><trkpt lat="55.7184097" lon="13.9606999"><ele>116.0</ele></trkpt><trkpt lat="55.7182295" lon="13.9606792"><ele>117.0</ele></trkpt><trkpt lat="55.7181400" lon="13.9606199"><ele>118.0</ele></trkpt><trkpt lat="55.7180398" lon="13.9604097"><ele>118.0</ele></trkpt><trkpt lat="55.7179796" lon="13.9603495"><ele>118.0</ele></trkpt><trkpt lat="55.7179199" lon="13.9603298"><ele>118.0</ele></trkpt><trkpt lat="55.7178298" lon="13.9603495"><ele>119.0</ele></trkpt><trkpt lat="55.7177296" lon="13.9603899"><ele>119.0</ele></trkpt><trkpt lat="55.7176699" lon="13.9604295"><ele>119.0</ele></trkpt><trkpt lat="55.7174797" lon="13.9605193"><ele>119.0</ele></trkpt><trkpt lat="55.7172899" lon="13.9605400"><ele>119.0</ele></trkpt><trkpt lat="55.7172798" lon="13.9604897"><ele>119.0</ele></trkpt></trkseg></trk></gpx>